<?xml version="1.0" encoding="UTF-8"?>
<osm version="0.6" generator="CGImap 0.6.0 (9689 thorn-01.openstreetmap.org)" copyright="OpenStreetMap and contributors" attribution="http://www.openstreetmap.org/copyright" license="http://opendatacommons.org/licenses/odbl/1-0/">
 <node id="1236235024" visible="true" version="4" changeset="42616872" timestamp="2016-10-03T22:27:29Z" user="karitotp" uid="2748195" lat="22.9590509" lon="120.1760630">
  <tag k="highway" v="traffic_signals"/>
 </node>
 <node id="1236235091" visible="true" version="3" changeset="32461739" timestamp="2015-07-07T01:08:32Z" user="Kagami" uid="189328" lat="22.9595674" lon="120.1705026"/>
 <node id="1236235101" visible="true" version="9" changeset="51305417" timestamp="2017-08-21T13:07:38Z" user="SHCat" uid="4641415" lat="22.9617709" lon="120.1838884">
  <tag k="highway" v="traffic_signals"/>
 </node>
 <node id="1236235230" visible="true" version="3" changeset="42616872" timestamp="2016-10-03T22:27:29Z" user="karitotp" uid="2748195" lat="22.9616787" lon="120.1829231"/>
 <node id="1236235332" visible="true" version="8" changeset="51781555" timestamp="2017-09-06T13:04:58Z" user="SHCat" uid="4641415" lat="22.9617703" lon="120.1837724">
  <tag k="highway" v="traffic_signals"/>
 </node>
 <node id="1236235424" visible="true" version="3" changeset="32461739" timestamp="2015-07-07T01:08:32Z" user="Kagami" uid="189328" lat="22.9594625" lon="120.1706046"/>
 <node id="1236235599" visible="true" version="3" changeset="42616872" timestamp="2016-10-03T22:27:30Z" user="karitotp" uid="2748195" lat="22.9617503" lon="120.1833590"/>
 <node id="1236235812" visible="true" version="3" changeset="32461739" timestamp="2015-07-07T01:08:32Z" user="Kagami" uid="189328" lat="22.9593003" lon="120.1708307"/>
 <node id="1236236542" visible="true" version="3" changeset="42616872" timestamp="2016-10-03T22:27:30Z" user="karitotp" uid="2748195" lat="22.9616081" lon="120.1825863"/>
 <node id="1236236546" visible="true" version="3" changeset="32461739" timestamp="2015-07-07T01:08:32Z" user="Kagami" uid="189328" lat="22.9597349" lon="120.1703976"/>
 <node id="1962303923" visible="true" version="4" changeset="42616872" timestamp="2016-10-03T22:27:32Z" user="karitotp" uid="2748195" lat="22.9591182" lon="120.1734851"/>
 <node id="1962303924" visible="true" version="6" changeset="42616872" timestamp="2016-10-03T22:27:33Z" user="karitotp" uid="2748195" lat="22.9591467" lon="120.1719176">
  <tag k="highway" v="traffic_signals"/>
 </node>
 <node id="1962304042" visible="true" version="3" changeset="32461739" timestamp="2015-07-07T01:08:32Z" user="Kagami" uid="189328" lat="22.9614158" lon="120.1697790"/>
 <node id="1971250098" visible="true" version="5" changeset="42616872" timestamp="2016-10-03T22:27:33Z" user="karitotp" uid="2748195" lat="22.9591318" lon="120.1728266"/>
 <node id="1971250099" visible="true" version="5" changeset="42616872" timestamp="2016-10-03T22:27:33Z" user="karitotp" uid="2748195" lat="22.9591442" lon="120.1715472"/>
 <node id="1971250103" visible="true" version="3" changeset="32461739" timestamp="2015-07-07T01:08:33Z" user="Kagami" uid="189328" lat="22.9591852" lon="120.1710472"/>
 <node id="1971250108" visible="true" version="3" changeset="32461739" timestamp="2015-07-07T01:08:33Z" user="Kagami" uid="189328" lat="22.9593515" lon="120.1707397"/>
 <node id="1971250132" visible="true" version="3" changeset="32461739" timestamp="2015-07-07T01:08:33Z" user="Kagami" uid="189328" lat="22.9599621" lon="120.1703101"/>
 <node id="1971250176" visible="true" version="3" changeset="32461739" timestamp="2015-07-07T01:08:34Z" user="Kagami" uid="189328" lat="22.9607603" lon="120.1700240"/>
 <node id="1971250206" visible="true" version="4" changeset="42619551" timestamp="2016-10-04T04:08:19Z" user="BharataHS" uid="706170" lat="22.9616338" lon="120.1696853"/>
 <node id="2601099304" visible="true" version="4" changeset="28581750" timestamp="2015-02-03T04:54:00Z" user="Supaplex" uid="274857" lat="22.9618123" lon="120.1855644">
  <tag k="bus" v="yes"/>
  <tag k="highway" v="bus_stop"/>
  <tag k="name" v="中華南路二段"/>
  <tag k="network" v="臺南市公車"/>
  <tag k="operator" v="臺南市公車"/>
  <tag k="public_transport" v="platform"/>
 </node>
 <node id="3024787319" visible="true" version="2" changeset="32461739" timestamp="2015-07-07T01:08:35Z" user="Kagami" uid="189328" lat="22.9591696" lon="120.1711441"/>
 <node id="3024791642" visible="true" version="2" changeset="42616872" timestamp="2016-10-03T22:27:37Z" user="karitotp" uid="2748195" lat="22.9615124" lon="120.1822830"/>
 <node id="3024791651" visible="true" version="4" changeset="32461739" timestamp="2015-07-07T01:08:32Z" user="Kagami" uid="189328" lat="22.9615726" lon="120.1695868">
  <tag k="bus" v="yes"/>
  <tag k="highway" v="bus_stop"/>
  <tag k="name" v="龍崗國小"/>
  <tag k="network" v="臺南市公車"/>
  <tag k="operator" v="臺南市公車"/>
  <tag k="public_transport" v="platform"/>
 </node>
 <node id="3024791653" visible="true" version="4" changeset="35570411" timestamp="2015-11-25T12:53:01Z" user="Kagami" uid="189328" lat="22.9597789" lon="120.1776997">
  <tag k="bus" v="yes"/>
  <tag k="highway" v="bus_stop"/>
  <tag k="name" v="清水路"/>
  <tag k="network" v="臺南市公車"/>
  <tag k="operator" v="臺南市公車"/>
  <tag k="public_transport" v="platform"/>
 </node>
 <node id="3024791655" visible="true" version="5" changeset="41089332" timestamp="2016-07-28T16:06:42Z" user="Kagami" uid="189328" lat="22.9592044" lon="120.1717289">
  <tag k="bench" v="no"/>
  <tag k="bus" v="yes"/>
  <tag k="highway" v="bus_stop"/>
  <tag k="name" v="四鯤鯓"/>
  <tag k="network" v="臺南市公車"/>
  <tag k="operator" v="臺南市公車"/>
  <tag k="public_transport" v="platform"/>
  <tag k="shelter" v="no"/>
 </node>
 <node id="3024791656" visible="true" version="4" changeset="32461739" timestamp="2015-07-07T01:08:31Z" user="Kagami" uid="189328" lat="22.9602132" lon="120.1702066">
  <tag k="bus" v="yes"/>
  <tag k="highway" v="bus_stop"/>
  <tag k="name" v="鯤鯓社區"/>
  <tag k="network" v="臺南市公車"/>
  <tag k="operator" v="臺南市公車"/>
  <tag k="public_transport" v="platform"/>
 </node>
 <node id="3858843457" visible="true" version="2" changeset="42616872" timestamp="2016-10-03T22:27:38Z" user="karitotp" uid="2748195" lat="22.9591355" lon="120.1729701"/>
 <way id="185577189" visible="true" version="7" changeset="51781555" timestamp="2017-09-06T13:05:05Z" user="SHCat" uid="4641415">
  <nd ref="1236235332"/>
  <nd ref="1236235599"/>
  <nd ref="1236235230"/>
  <nd ref="1236236542"/>
  <nd ref="3024791642"/>
  <nd ref="1236235024"/>
  <tag k="highway" v="tertiary"/>
  <tag k="name" v="清水路"/>
  <tag k="name:en" v="Cingshuei Road"/>
  <tag k="name:zh" v="清水路"/>
  <tag k="oneway" v="yes"/>
  <tag k="ref" v="28"/>
  <tag k="sidewalk" v="right"/>
 </way>
 <way id="274022825" visible="true" version="6" changeset="57198215" timestamp="2018-03-15T04:50:49Z" user="s88239" uid="5406836">
  <nd ref="1236235101"/>
  <nd ref="1236235332"/>
  <tag k="highway" v="tertiary"/>
  <tag k="name" v="中華南路二段"/>
  <tag k="name:en" v="Jhonghua South Road Section 2"/>
  <tag k="name:zh" v="中華南路二段"/>
  <tag k="oneway" v="yes"/>
  <tag k="ref" v="28"/>
  <tag k="sidewalk" v="right"/>
 </way>
 <way id="298591333" visible="true" version="4" changeset="52187387" timestamp="2017-09-19T17:01:08Z" user="Kagami" uid="189328">
  <nd ref="1236235024"/>
  <nd ref="1962303923"/>
  <nd ref="3858843457"/>
  <nd ref="1971250098"/>
  <nd ref="1962303924"/>
  <nd ref="1971250099"/>
  <nd ref="3024787319"/>
  <nd ref="1971250103"/>
  <nd ref="1236235812"/>
  <nd ref="1971250108"/>
  <nd ref="1236235424"/>
  <nd ref="1236235091"/>
  <nd ref="1236236546"/>
  <nd ref="1971250132"/>
  <nd ref="1971250176"/>
  <nd ref="1962304042"/>
  <nd ref="1971250206"/>
  <tag k="highway" v="residential"/>
  <tag k="name" v="鯤鯓路"/>
  <tag k="name:en" v="KunShen Road"/>
  <tag k="name:zh" v="鯤鯓路"/>
 </way>
 <relation id="3969614" visible="true" version="3" changeset="36703153" timestamp="2016-01-20T15:17:22Z" user="Kagami" uid="189328">
  <member type="node" ref="2601099304" role="platform"/>
  <member type="node" ref="3024791653" role="platform"/>
  <member type="node" ref="3024791655" role="platform"/>
  <member type="node" ref="3024791656" role="platform"/>
  <member type="node" ref="3024791651" role="platform"/>
  <member type="way" ref="274022825" role=""/>
  <member type="way" ref="185577189" role=""/>
  <member type="way" ref="298591333" role=""/>
  <tag k="from" v="新興國宅"/>
  <tag k="name" v="6路(延駛下鯤鯓_往程)"/>
  <tag k="public_transport:version" v="2"/>
  <tag k="ref" v="6"/>
  <tag k="route" v="bus"/>
  <tag k="to" v="下鯤鯓"/>
  <tag k="type" v="route"/>
 </relation>
</osm>
