<?xml version="1.0" encoding="UTF-8"?>
<osm version="0.6" generator="CGImap 0.6.0 (15502 thorn-03.openstreetmap.org)" copyright="OpenStreetMap and contributors" attribution="http://www.openstreetmap.org/copyright" license="http://opendatacommons.org/licenses/odbl/1-0/">
 <node id="256016226" visible="true" version="14" changeset="50112791" timestamp="2017-07-07T16:16:07Z" user="WayneChang" uid="4641415" lat="23.0009175" lon="120.2185267">
  <tag k="highway" v="traffic_signals"/>
 </node>
 <node id="256016230" visible="true" version="10" changeset="50112791" timestamp="2017-07-07T16:16:08Z" user="WayneChang" uid="4641415" lat="23.0006233" lon="120.2223070">
  <tag k="highway" v="traffic_signals"/>
 </node>
 <node id="296967575" visible="true" version="8" changeset="42375835" timestamp="2016-09-23T14:42:13Z" user="RichRico" uid="2219338" lat="22.9990795" lon="120.2533414"/>
 <node id="864831599" visible="true" version="9" changeset="42379820" timestamp="2016-09-23T16:36:27Z" user="karitotp" uid="2748195" lat="22.9975932" lon="120.2122878">
  <tag k="highway" v="traffic_signals"/>
 </node>
 <node id="1240617662" visible="true" version="5" changeset="42375694" timestamp="2016-09-23T14:38:22Z" user="RichRico" uid="2219338" lat="22.9985542" lon="120.2481178"/>
 <node id="1240617955" visible="true" version="7" changeset="42463385" timestamp="2016-09-27T07:53:53Z" user="saikabhi" uid="3029661" lat="23.0005298" lon="120.2244238">
  <tag k="highway" v="traffic_signals"/>
 </node>
 <node id="1240617976" visible="true" version="4" changeset="42469946" timestamp="2016-09-27T12:58:39Z" user="saikabhi" uid="3029661" lat="23.0016278" lon="120.2131992"/>
 <node id="1240618031" visible="true" version="8" changeset="42381354" timestamp="2016-09-23T17:24:31Z" user="Luis36995" uid="1829683" lat="23.0016238" lon="120.2130469">
  <tag k="highway" v="traffic_signals"/>
 </node>
 <node id="1240618059" visible="true" version="4" changeset="42469946" timestamp="2016-09-27T12:58:39Z" user="saikabhi" uid="3029661" lat="23.0014345" lon="120.2143592"/>
 <node id="1240618060" visible="true" version="6" changeset="42463385" timestamp="2016-09-27T07:53:53Z" user="saikabhi" uid="3029661" lat="23.0005183" lon="120.2245365">
  <tag k="highway" v="traffic_signals"/>
 </node>
 <node id="1240618098" visible="true" version="7" changeset="50112791" timestamp="2017-07-07T16:16:07Z" user="WayneChang" uid="4641415" lat="23.0013678" lon="120.2145720">
  <tag k="highway" v="traffic_signals"/>
 </node>
 <node id="1240618114" visible="true" version="5" changeset="50112791" timestamp="2017-07-07T16:16:08Z" user="WayneChang" uid="4641415" lat="23.0003760" lon="120.2259238"/>
 <node id="1240618185" visible="true" version="3" changeset="24767017" timestamp="2014-08-15T13:16:41Z" user="Kagami" uid="189328" lat="23.0013954" lon="120.2144863"/>
 <node id="1240618188" visible="true" version="9" changeset="42381354" timestamp="2016-09-23T17:24:31Z" user="Luis36995" uid="1829683" lat="22.9999659" lon="120.2127411">
  <tag k="highway" v="traffic_signals"/>
 </node>
 <node id="1240618201" visible="true" version="3" changeset="42464567" timestamp="2016-09-27T08:51:48Z" user="saikabhi" uid="3029661" lat="22.9985543" lon="120.2426098"/>
 <node id="1240618239" visible="true" version="5" changeset="46931350" timestamp="2017-03-17T15:27:45Z" user="Kagami" uid="189328" lat="22.9984717" lon="120.2399733">
  <tag k="highway" v="traffic_signals"/>
 </node>
 <node id="1240618344" visible="true" version="5" changeset="42375694" timestamp="2016-09-23T14:38:22Z" user="RichRico" uid="2219338" lat="22.9986658" lon="120.2511028"/>
 <node id="1240618352" visible="true" version="4" changeset="26835738" timestamp="2014-11-17T03:03:52Z" user="Kagami" uid="189328" lat="22.9996772" lon="120.2281734">
  <tag k="highway" v="traffic_signals"/>
 </node>
 <node id="1240618387" visible="true" version="4" changeset="42463385" timestamp="2016-09-27T07:53:54Z" user="saikabhi" uid="3029661" lat="23.0003043" lon="120.2262062"/>
 <node id="1240618420" visible="true" version="3" changeset="24767017" timestamp="2014-08-15T13:16:41Z" user="Kagami" uid="189328" lat="23.0016212" lon="120.2130812"/>
 <node id="1240618456" visible="true" version="6" changeset="42464560" timestamp="2016-09-27T08:51:28Z" user="saikabhi" uid="3029661" lat="22.9984105" lon="120.2346229">
  <tag k="highway" v="traffic_signals"/>
 </node>
 <node id="1240618499" visible="true" version="5" changeset="49017271" timestamp="2017-05-27T06:09:15Z" user="WayneChang" uid="4641415" lat="23.0004596" lon="120.2252730"/>
 <node id="1240618637" visible="true" version="2" changeset="22388107" timestamp="2014-05-17T12:30:39Z" user="Kagami" uid="189328" lat="22.9985383" lon="120.2412432"/>
 <node id="1268711606" visible="true" version="5" changeset="42379820" timestamp="2016-09-23T16:36:25Z" user="karitotp" uid="2748195" lat="22.9984820" lon="120.2124863"/>
 <node id="1268711613" visible="true" version="6" changeset="42381354" timestamp="2016-09-23T17:24:31Z" user="Luis36995" uid="1829683" lat="23.0000177" lon="120.2127492"/>
 <node id="1650294505" visible="true" version="6" changeset="42522554" timestamp="2016-09-29T15:51:31Z" user="RichRico" uid="2219338" lat="22.9989602" lon="120.2305686">
  <tag k="highway" v="traffic_signals"/>
 </node>
 <node id="1650294507" visible="true" version="6" changeset="42522554" timestamp="2016-09-29T15:51:31Z" user="RichRico" uid="2219338" lat="22.9993586" lon="120.2292774">
  <tag k="highway" v="traffic_signals"/>
 </node>
 <node id="1721697326" visible="true" version="6" changeset="42615857" timestamp="2016-10-03T21:25:06Z" user="Luis36995" uid="1829683" lat="22.9984876" lon="120.2333056">
  <tag k="highway" v="traffic_signals"/>
 </node>
 <node id="1721697345" visible="true" version="6" changeset="49028461" timestamp="2017-05-27T16:24:22Z" user="WayneChang" uid="4641415" lat="22.9986237" lon="120.2317862">
  <tag k="highway" v="traffic_signals"/>
 </node>
 <node id="1721697438" visible="true" version="5" changeset="42463385" timestamp="2016-09-27T07:53:54Z" user="saikabhi" uid="3029661" lat="23.0002085" lon="120.2265594">
  <tag k="highway" v="traffic_signals"/>
 </node>
 <node id="1723131559" visible="true" version="5" changeset="42522554" timestamp="2016-09-29T15:51:33Z" user="RichRico" uid="2219338" lat="22.9997573" lon="120.2278959"/>
 <node id="1723131561" visible="true" version="5" changeset="42522554" timestamp="2016-09-29T15:51:33Z" user="RichRico" uid="2219338" lat="23.0000190" lon="120.2271064"/>
 <node id="1725362297" visible="true" version="4" changeset="43055660" timestamp="2016-10-21T10:14:38Z" user="saikabhi" uid="3029661" lat="22.9985480" lon="120.2467418"/>
 <node id="1725362309" visible="true" version="7" changeset="48272102" timestamp="2017-04-30T04:32:54Z" user="sinzin" uid="2948399" lat="22.9985300" lon="120.2484564"/>
 <node id="1769289802" visible="true" version="4" changeset="42375694" timestamp="2016-09-23T14:38:23Z" user="RichRico" uid="2219338" lat="22.9985315" lon="120.2506839"/>
 <node id="1772513334" visible="true" version="5" changeset="42518009" timestamp="2016-09-29T12:47:45Z" user="upendrakarukonda" uid="4007051" lat="22.9985266" lon="120.2497078"/>
 <node id="1772513335" visible="true" version="4" changeset="42375694" timestamp="2016-09-23T14:38:23Z" user="RichRico" uid="2219338" lat="22.9985402" lon="120.2489541"/>
 <node id="1772513336" visible="true" version="5" changeset="42517995" timestamp="2016-09-29T12:46:57Z" user="upendrakarukonda" uid="4007051" lat="22.9985098" lon="120.2504503"/>
 <node id="2144927860" visible="true" version="3" changeset="42379820" timestamp="2016-09-23T16:36:26Z" user="karitotp" uid="2748195" lat="22.9995140" lon="120.2126673"/>
 <node id="2144927867" visible="true" version="3" changeset="42379820" timestamp="2016-09-23T16:36:26Z" user="karitotp" uid="2748195" lat="22.9997967" lon="120.2127129"/>
 <node id="2163590076" visible="true" version="7" changeset="28581750" timestamp="2015-02-03T04:54:47Z" user="Supaplex" uid="274857" lat="23.0006975" lon="120.2129283">
  <tag k="bench" v="yes"/>
  <tag k="bus" v="yes"/>
  <tag k="highway" v="bus_stop"/>
  <tag k="name" v="台南公園(北門路)"/>
  <tag k="network" v="臺南市公車"/>
  <tag k="operator" v="臺南市公車"/>
  <tag k="public_transport" v="platform"/>
  <tag k="shelter" v="yes"/>
 </node>
 <node id="2163590082" visible="true" version="6" changeset="28581750" timestamp="2015-02-03T04:55:42Z" user="Supaplex" uid="274857" lat="23.0010893" lon="120.2162668">
  <tag k="bus" v="yes"/>
  <tag k="highway" v="bus_stop"/>
  <tag k="name" v="小東路"/>
  <tag k="network" v="臺南市公車"/>
  <tag k="operator" v="臺南市公車"/>
  <tag k="public_transport" v="platform"/>
 </node>
 <node id="2592689565" visible="true" version="6" changeset="50112791" timestamp="2017-07-07T16:16:07Z" user="WayneChang" uid="4641415" lat="23.0010622" lon="120.2169934"/>
 <node id="2592689582" visible="true" version="4" changeset="28581750" timestamp="2015-02-03T04:56:08Z" user="Supaplex" uid="274857" lat="23.0006188" lon="120.2213027">
  <tag k="bus" v="yes"/>
  <tag k="highway" v="bus_stop"/>
  <tag k="name" v="成大醫院"/>
  <tag k="network" v="臺南市公車"/>
  <tag k="operator" v="臺南市公車"/>
  <tag k="public_transport" v="platform"/>
 </node>
 <node id="2614700231" visible="true" version="7" changeset="28581750" timestamp="2015-02-03T04:56:06Z" user="Supaplex" uid="274857" lat="23.0008851" lon="120.2179692">
  <tag k="bus" v="yes"/>
  <tag k="highway" v="bus_stop"/>
  <tag k="name" v="成功大學"/>
  <tag k="network" v="臺南市公車"/>
  <tag k="operator" v="臺南市公車"/>
  <tag k="public_transport" v="platform"/>
 </node>
 <node id="2833118044" visible="true" version="2" changeset="42379820" timestamp="2016-09-23T16:36:26Z" user="karitotp" uid="2748195" lat="22.9992511" lon="120.2126244"/>
 <node id="2833144824" visible="true" version="3" changeset="42379820" timestamp="2016-09-23T16:36:26Z" user="karitotp" uid="2748195" lat="22.9982326" lon="120.2124393"/>
 <node id="2833146539" visible="true" version="6" changeset="50112791" timestamp="2017-07-07T16:16:08Z" user="WayneChang" uid="4641415" lat="23.0007536" lon="120.2205527"/>
 <node id="2864278443" visible="true" version="6" changeset="43055660" timestamp="2016-10-21T10:14:38Z" user="saikabhi" uid="3029661" lat="22.9985628" lon="120.2478805"/>
 <node id="2864278450" visible="true" version="3" changeset="41257076" timestamp="2016-08-05T11:37:02Z" user="marek kleciak" uid="338611" lat="22.9988175" lon="120.2518238"/>
 <node id="2864283043" visible="true" version="4" changeset="28581750" timestamp="2015-02-03T04:54:16Z" user="Supaplex" uid="274857" lat="22.9993750" lon="120.2290758">
  <tag k="bus" v="yes"/>
  <tag k="highway" v="bus_stop"/>
  <tag k="name" v="光明街口"/>
  <tag k="network" v="臺南市公車"/>
  <tag k="operator" v="臺南市公車"/>
  <tag k="public_transport" v="platform"/>
 </node>
 <node id="2864283047" visible="true" version="4" changeset="28581750" timestamp="2015-02-03T04:54:55Z" user="Supaplex" uid="274857" lat="22.9985350" lon="120.2322858">
  <tag k="bus" v="yes"/>
  <tag k="highway" v="bus_stop"/>
  <tag k="name" v="四份子"/>
  <tag k="network" v="臺南市公車"/>
  <tag k="operator" v="臺南市公車"/>
  <tag k="public_transport" v="platform"/>
 </node>
 <node id="2864283051" visible="true" version="4" changeset="28581750" timestamp="2015-02-03T04:55:56Z" user="Supaplex" uid="274857" lat="22.9985074" lon="120.2493674">
  <tag k="bus" v="yes"/>
  <tag k="highway" v="bus_stop"/>
  <tag k="name" v="建國里"/>
  <tag k="network" v="臺南市公車"/>
  <tag k="operator" v="臺南市公車"/>
  <tag k="public_transport" v="platform"/>
 </node>
 <node id="2864283053" visible="true" version="4" changeset="28581750" timestamp="2015-02-03T04:55:57Z" user="Supaplex" uid="274857" lat="22.9984933" lon="120.2426416">
  <tag k="bus" v="yes"/>
  <tag k="highway" v="bus_stop"/>
  <tag k="name" v="影劇三村"/>
  <tag k="network" v="臺南市公車"/>
  <tag k="operator" v="臺南市公車"/>
  <tag k="public_transport" v="platform"/>
 </node>
 <node id="2864283055" visible="true" version="5" changeset="31625088" timestamp="2015-06-01T05:37:11Z" user="Kagami" uid="189328" lat="22.9983843" lon="120.2395733">
  <tag k="bus" v="yes"/>
  <tag k="highway" v="bus_stop"/>
  <tag k="name" v="榮民醫院"/>
  <tag k="network" v="臺南市公車"/>
  <tag k="operator" v="臺南市公車"/>
  <tag k="public_transport" v="platform"/>
 </node>
 <node id="2864283057" visible="true" version="4" changeset="28581750" timestamp="2015-02-03T04:57:01Z" user="Supaplex" uid="274857" lat="22.9984805" lon="120.2460261">
  <tag k="bus" v="yes"/>
  <tag k="highway" v="bus_stop"/>
  <tag k="name" v="漢聲電台"/>
  <tag k="network" v="臺南市公車"/>
  <tag k="operator" v="臺南市公車"/>
  <tag k="public_transport" v="platform"/>
 </node>
 <node id="2864283059" visible="true" version="5" changeset="40732739" timestamp="2016-07-14T07:42:22Z" user="Kagami" uid="189328" lat="23.0003390" lon="120.2255129">
  <tag k="bus" v="yes"/>
  <tag k="highway" v="bus_stop"/>
  <tag k="name" v="無障礙福利之家"/>
  <tag k="network" v="臺南市公車"/>
  <tag k="operator" v="臺南市公車"/>
  <tag k="public_transport" v="platform"/>
 </node>
 <node id="3029056649" visible="true" version="4" changeset="42469946" timestamp="2016-09-27T12:58:40Z" user="saikabhi" uid="3029661" lat="23.0006269" lon="120.2222247">
  <tag k="highway" v="traffic_signals"/>
 </node>
 <node id="3066214310" visible="true" version="4" changeset="48272102" timestamp="2017-04-30T04:32:54Z" user="sinzin" uid="2948399" lat="22.9985454" lon="120.2532991">
  <tag k="bus" v="yes"/>
  <tag k="highway" v="bus_stop"/>
  <tag k="name" v="崑山科技大學"/>
  <tag k="network" v="臺南市公車"/>
  <tag k="operator" v="臺南市公車"/>
  <tag k="public_transport" v="platform"/>
 </node>
 <node id="3070820660" visible="true" version="4" changeset="46931350" timestamp="2017-03-17T15:27:46Z" user="Kagami" uid="189328" lat="22.9984075" lon="120.2347555">
  <tag k="highway" v="traffic_signals"/>
 </node>
 <node id="3070820663" visible="true" version="4" changeset="46931350" timestamp="2017-03-17T15:27:46Z" user="Kagami" uid="189328" lat="22.9984050" lon="120.2364511">
  <tag k="highway" v="traffic_signals"/>
 </node>
 <node id="3070820665" visible="true" version="4" changeset="46931350" timestamp="2017-03-17T15:27:46Z" user="Kagami" uid="189328" lat="22.9984376" lon="120.2380966">
  <tag k="highway" v="traffic_signals"/>
 </node>
 <node id="3800158928" visible="true" version="2" changeset="42375835" timestamp="2016-09-23T14:42:13Z" user="RichRico" uid="2219338" lat="22.9988709" lon="120.2522095"/>
 <node id="4335085774" visible="true" version="1" changeset="41231593" timestamp="2016-08-04T08:03:01Z" user="marek kleciak" uid="338611" lat="22.9988921" lon="120.2308211"/>
 <node id="4415345038" visible="true" version="3" changeset="49017271" timestamp="2017-05-27T06:09:15Z" user="WayneChang" uid="4641415" lat="23.0004461" lon="120.2253828"/>
 <node id="4419991427" visible="true" version="2" changeset="49017271" timestamp="2017-05-27T06:09:15Z" user="WayneChang" uid="4641415" lat="23.0004950" lon="120.2248052"/>
 <node id="4447192955" visible="true" version="1" changeset="42889015" timestamp="2016-10-14T07:52:40Z" user="PlaneMad" uid="1306" lat="22.9985428" lon="120.2448618"/>
 <node id="4447192956" visible="true" version="1" changeset="42889015" timestamp="2016-10-14T07:52:40Z" user="PlaneMad" uid="1306" lat="22.9985496" lon="120.2435327"/>
 <node id="4824305642" visible="true" version="1" changeset="48246144" timestamp="2017-04-29T05:36:51Z" user="happychang" uid="5644877" lat="22.9984496" lon="120.2387579"/>
 <node id="4879686171" visible="true" version="2" changeset="50112791" timestamp="2017-07-07T16:16:08Z" user="WayneChang" uid="4641415" lat="23.0004845" lon="120.2249715"/>
 <node id="4957072742" visible="true" version="1" changeset="50112791" timestamp="2017-07-07T16:16:06Z" user="WayneChang" uid="4641415" lat="23.0004192" lon="120.2256836"/>
 <way id="108071687" visible="true" version="7" changeset="46931350" timestamp="2017-03-17T15:27:46Z" user="Kagami" uid="189328">
  <nd ref="1240618239"/>
  <nd ref="1240618637"/>
  <nd ref="1240618201"/>
  <nd ref="4447192956"/>
  <nd ref="4447192955"/>
  <nd ref="1725362297"/>
  <nd ref="2864278443"/>
  <nd ref="1240617662"/>
  <tag k="highway" v="secondary"/>
  <tag k="name" v="復興路"/>
  <tag k="oneway" v="yes"/>
  <tag k="ref" v="180"/>
 </way>
 <way id="108071697" visible="true" version="2" changeset="16760105" timestamp="2013-06-30T03:46:38Z" user="Kagami" uid="189328">
  <nd ref="1240618031"/>
  <nd ref="1240618420"/>
  <nd ref="1240617976"/>
  <tag k="highway" v="secondary"/>
  <tag k="name" v="小東路"/>
  <tag k="oneway" v="yes"/>
  <tag k="ref" v="180"/>
 </way>
 <way id="108071700" visible="true" version="7" changeset="34833422" timestamp="2015-10-24T01:59:53Z" user="Kagami" uid="189328">
  <nd ref="296967575"/>
  <nd ref="3800158928"/>
  <nd ref="2864278450"/>
  <nd ref="1240618344"/>
  <tag k="highway" v="secondary"/>
  <tag k="name" v="大灣路"/>
  <tag k="ref" v="180"/>
 </way>
 <way id="108071703" visible="true" version="6" changeset="48893083" timestamp="2017-05-22T16:17:01Z" user="Supaplex" uid="274857">
  <nd ref="1240617976"/>
  <nd ref="1240618059"/>
  <tag k="highway" v="secondary"/>
  <tag k="layer" v="-1"/>
  <tag k="motorcycle" v="no"/>
  <tag k="motorroad" v="yes"/>
  <tag k="name" v="小東路"/>
  <tag k="name:en" v="Xiaodong Road"/>
  <tag k="name:zh" v="小東路"/>
  <tag k="oneway" v="yes"/>
  <tag k="ref" v="180"/>
 </way>
 <way id="108071720" visible="true" version="14" changeset="49017271" timestamp="2017-05-27T06:09:24Z" user="WayneChang" uid="4641415">
  <nd ref="1240618059"/>
  <nd ref="1240618185"/>
  <tag k="highway" v="secondary"/>
  <tag k="name" v="小東路"/>
  <tag k="name:en" v="Xiaodong Road"/>
  <tag k="name:zh" v="小東路"/>
  <tag k="oneway" v="yes"/>
  <tag k="ref" v="180"/>
 </way>
 <way id="228022792" visible="true" version="8" changeset="48921730" timestamp="2017-05-23T16:23:24Z" user="Supaplex" uid="274857">
  <nd ref="864831599"/>
  <nd ref="2833144824"/>
  <nd ref="1268711606"/>
  <nd ref="2833118044"/>
  <nd ref="2144927860"/>
  <nd ref="2144927867"/>
  <nd ref="1240618188"/>
  <tag k="highway" v="primary"/>
  <tag k="layer" v="2"/>
  <tag k="name" v="北門路"/>
  <tag k="name:en" v="Beimen Road"/>
  <tag k="name:zh" v="北門路"/>
  <tag k="oneway" v="no"/>
  <tag k="ref" v="20"/>
  <tag k="ref:en" v="Provincial Highway 20"/>
  <tag k="ref:zh" v="台20線"/>
 </way>
 <way id="313194186" visible="true" version="4" changeset="48921730" timestamp="2017-05-23T16:24:07Z" user="Supaplex" uid="274857">
  <nd ref="3070820660"/>
  <nd ref="3070820663"/>
  <nd ref="3070820665"/>
  <nd ref="4824305642"/>
  <nd ref="1240618239"/>
  <tag k="highway" v="secondary"/>
  <tag k="name" v="小東路"/>
  <tag k="name:en" v="Xiaodong Road"/>
  <tag k="name:zh" v="小東路"/>
  <tag k="oneway" v="yes"/>
  <tag k="ref" v="180"/>
 </way>
 <way id="313194389" visible="true" version="11" changeset="50112791" timestamp="2017-07-07T16:16:09Z" user="WayneChang" uid="4641415">
  <nd ref="3029056649"/>
  <nd ref="256016230"/>
  <nd ref="1240617955"/>
  <tag k="highway" v="secondary"/>
  <tag k="name" v="小東路"/>
  <tag k="name:en" v="Xiaodong Road"/>
  <tag k="name:zh" v="小東路"/>
  <tag k="oneway" v="yes"/>
  <tag k="ref" v="180"/>
 </way>
 <way id="315702598" visible="true" version="3" changeset="48921730" timestamp="2017-05-23T16:24:08Z" user="Supaplex" uid="274857">
  <nd ref="1240618188"/>
  <nd ref="1268711613"/>
  <nd ref="1240618031"/>
  <tag k="highway" v="primary"/>
  <tag k="layer" v="2"/>
  <tag k="name" v="北門路"/>
  <tag k="name:en" v="Beimen Road"/>
  <tag k="name:zh" v="北門路"/>
  <tag k="oneway" v="no"/>
  <tag k="ref" v="20"/>
  <tag k="ref:en" v="Provincial Highway 20"/>
  <tag k="ref:zh" v="台20線"/>
 </way>
 <way id="376615463" visible="true" version="1" changeset="34833422" timestamp="2015-10-24T01:59:47Z" user="Kagami" uid="189328">
  <nd ref="1240618344"/>
  <nd ref="1769289802"/>
  <tag k="highway" v="secondary"/>
  <tag k="name" v="大灣路"/>
  <tag k="ref" v="180"/>
 </way>
 <way id="376615464" visible="true" version="1" changeset="34833422" timestamp="2015-10-24T01:59:47Z" user="Kagami" uid="189328">
  <nd ref="1240617662"/>
  <nd ref="1725362309"/>
  <nd ref="1772513335"/>
  <nd ref="1772513334"/>
  <nd ref="1772513336"/>
  <nd ref="1769289802"/>
  <tag k="highway" v="secondary"/>
  <tag k="name" v="復興路"/>
  <tag k="oneway" v="yes"/>
  <tag k="ref" v="180"/>
 </way>
 <way id="405115647" visible="true" version="2" changeset="48979513" timestamp="2017-05-25T17:09:10Z" user="Supaplex" uid="274857">
  <nd ref="256016226"/>
  <nd ref="2833146539"/>
  <nd ref="3029056649"/>
  <tag k="highway" v="secondary"/>
  <tag k="name" v="小東路"/>
  <tag k="name:en" v="Xiaodong Road"/>
  <tag k="name:zh" v="小東路"/>
  <tag k="oneway" v="yes"/>
  <tag k="ref" v="180"/>
 </way>
 <way id="496257368" visible="true" version="2" changeset="50112791" timestamp="2017-07-07T16:16:10Z" user="WayneChang" uid="4641415">
  <nd ref="1240617955"/>
  <nd ref="1240618060"/>
  <nd ref="4419991427"/>
  <nd ref="4879686171"/>
  <nd ref="1240618499"/>
  <nd ref="4415345038"/>
  <nd ref="4957072742"/>
  <nd ref="1240618114"/>
  <nd ref="1240618387"/>
  <nd ref="1721697438"/>
  <nd ref="1723131561"/>
  <nd ref="1723131559"/>
  <nd ref="1240618352"/>
  <nd ref="1650294507"/>
  <nd ref="1650294505"/>
  <nd ref="4335085774"/>
  <nd ref="1721697345"/>
  <nd ref="1721697326"/>
  <nd ref="1240618456"/>
  <nd ref="3070820660"/>
  <tag k="highway" v="secondary"/>
  <tag k="name" v="小東路"/>
  <tag k="name:en" v="Xiaodong Road"/>
  <tag k="name:zh" v="小東路"/>
  <tag k="oneway" v="yes"/>
  <tag k="ref" v="180"/>
 </way>
 <way id="496257373" visible="true" version="1" changeset="49017271" timestamp="2017-05-27T06:09:05Z" user="WayneChang" uid="4641415">
  <nd ref="1240618185"/>
  <nd ref="1240618098"/>
  <nd ref="2592689565"/>
  <nd ref="256016226"/>
  <tag k="highway" v="secondary"/>
  <tag k="name" v="小東路"/>
  <tag k="name:en" v="Xiaodong Road"/>
  <tag k="name:zh" v="小東路"/>
  <tag k="oneway" v="yes"/>
  <tag k="ref" v="180"/>
 </way>
 <relation id="4062720" visible="true" version="14" changeset="49017271" timestamp="2017-05-27T06:09:38Z" user="WayneChang" uid="4641415">
  <member type="node" ref="2163590076" role="platform"/>
  <member type="node" ref="2163590082" role="platform"/>
  <member type="node" ref="2614700231" role="platform"/>
  <member type="node" ref="2592689582" role="platform"/>
  <member type="node" ref="2864283059" role="platform"/>
  <member type="node" ref="2864283043" role="platform"/>
  <member type="node" ref="2864283047" role="platform"/>
  <member type="node" ref="2864283055" role="platform"/>
  <member type="node" ref="2864283053" role="platform"/>
  <member type="node" ref="2864283057" role="platform"/>
  <member type="node" ref="2864283051" role="platform"/>
  <member type="node" ref="3066214310" role="platform"/>
  <member type="way" ref="228022792" role=""/>
  <member type="way" ref="315702598" role=""/>
  <member type="way" ref="108071697" role=""/>
  <member type="way" ref="108071703" role=""/>
  <member type="way" ref="108071720" role=""/>
  <member type="way" ref="496257373" role=""/>
  <member type="way" ref="405115647" role=""/>
  <member type="way" ref="313194389" role=""/>
  <member type="way" ref="496257368" role=""/>
  <member type="way" ref="313194186" role=""/>
  <member type="way" ref="108071687" role=""/>
  <member type="way" ref="376615464" role=""/>
  <member type="way" ref="376615463" role=""/>
  <member type="way" ref="108071700" role=""/>
  <tag k="from" v="火車南站"/>
  <tag k="name" v="2路(往崑山科大_往程)"/>
  <tag k="public_transport:version" v="2"/>
  <tag k="ref" v="2"/>
  <tag k="route" v="bus"/>
  <tag k="to" v="崑山科大"/>
  <tag k="type" v="route"/>
 </relation>
</osm>
