<?xml version="1.0" encoding="UTF-8"?>
<osm version="0.6" generator="CGImap 0.6.0 (10332 thorn-03.openstreetmap.org)" copyright="OpenStreetMap and contributors" attribution="http://www.openstreetmap.org/copyright" license="http://opendatacommons.org/licenses/odbl/1-0/">
 <node id="296967535" visible="true" version="3" changeset="41980891" timestamp="2016-09-07T14:42:53Z" user="Kagami" uid="189328" lat="22.9691310" lon="120.2098071">
  <tag k="highway" v="traffic_signals"/>
 </node>
 <node id="296967540" visible="true" version="4" changeset="51305417" timestamp="2017-08-21T13:07:36Z" user="SHCat" uid="4641415" lat="22.9720912" lon="120.2135044"/>
 <node id="296967546" visible="true" version="4" changeset="51305417" timestamp="2017-08-21T13:07:36Z" user="SHCat" uid="4641415" lat="22.9722101" lon="120.2138047"/>
 <node id="296967551" visible="true" version="3" changeset="42380730" timestamp="2016-09-23T17:02:21Z" user="Luis36995" uid="1829683" lat="22.9722859" lon="120.2140863"/>
 <node id="296967552" visible="true" version="5" changeset="42380730" timestamp="2016-09-23T17:02:21Z" user="Luis36995" uid="1829683" lat="22.9724477" lon="120.2148168"/>
 <node id="296968020" visible="true" version="5" changeset="41956993" timestamp="2016-09-06T14:42:19Z" user="Kagami" uid="189328" lat="22.9739445" lon="120.2051891">
  <tag k="highway" v="traffic_signals"/>
 </node>
 <node id="296968054" visible="true" version="7" changeset="51305417" timestamp="2017-08-21T13:07:36Z" user="SHCat" uid="4641415" lat="22.9703179" lon="120.2112559">
  <tag k="highway" v="traffic_signals"/>
 </node>
 <node id="296968092" visible="true" version="8" changeset="51305417" timestamp="2017-08-21T13:07:36Z" user="SHCat" uid="4641415" lat="22.9719064" lon="120.2131948">
  <tag k="highway" v="traffic_signals"/>
 </node>
 <node id="1240286657" visible="true" version="5" changeset="42375199" timestamp="2016-09-23T14:19:33Z" user="calfarome" uid="2511706" lat="22.9797183" lon="120.1976604">
  <tag k="highway" v="traffic_signals"/>
 </node>
 <node id="1240286681" visible="true" version="6" changeset="51771785" timestamp="2017-09-06T07:27:12Z" user="SHCat" uid="4641415" lat="22.9798317" lon="120.1976597">
  <tag k="highway" v="traffic_signals"/>
 </node>
 <node id="1240286988" visible="true" version="6" changeset="42523376" timestamp="2016-09-29T16:36:42Z" user="Luis36995" uid="1829683" lat="22.9813935" lon="120.1976497">
  <tag k="highway" v="traffic_signals"/>
 </node>
 <node id="1240287830" visible="true" version="4" changeset="49029608" timestamp="2017-05-27T17:24:59Z" user="SHCat" uid="4641415" lat="22.9750249" lon="120.2024187"/>
 <node id="1240288153" visible="true" version="2" changeset="18917051" timestamp="2013-11-15T15:38:18Z" user="Kagami" uid="189328" lat="22.9747580" lon="120.2043867"/>
 <node id="1240288582" visible="true" version="3" changeset="22125229" timestamp="2014-05-04T13:20:34Z" user="Kagami" uid="189328" lat="22.9751006" lon="120.2040561"/>
 <node id="1240288764" visible="true" version="6" changeset="38291108" timestamp="2016-04-04T13:29:04Z" user="Kagami" uid="189328" lat="22.9751997" lon="120.2038430">
  <tag k="highway" v="traffic_signals"/>
 </node>
 <node id="1240288802" visible="true" version="6" changeset="38291108" timestamp="2016-04-04T13:29:04Z" user="Kagami" uid="189328" lat="22.9752245" lon="120.2039545">
  <tag k="highway" v="traffic_signals"/>
 </node>
 <node id="1240288842" visible="true" version="6" changeset="26206049" timestamp="2014-10-20T05:26:43Z" user="Kagami" uid="189328" lat="22.9777389" lon="120.1976644">
  <tag k="highway" v="traffic_signals"/>
 </node>
 <node id="1714134330" visible="true" version="5" changeset="49029608" timestamp="2017-05-27T17:24:59Z" user="SHCat" uid="4641415" lat="22.9751338" lon="120.2033065">
  <tag k="highway" v="traffic_signals"/>
 </node>
 <node id="1715120124" visible="true" version="5" changeset="26206049" timestamp="2014-10-20T05:26:44Z" user="Kagami" uid="189328" lat="22.9760116" lon="120.1976832"/>
 <node id="1730036649" visible="true" version="8" changeset="51771785" timestamp="2017-09-06T07:27:12Z" user="SHCat" uid="4641415" lat="22.9802220" lon="120.1976572"/>
 <node id="1730036668" visible="true" version="7" changeset="51771785" timestamp="2017-09-06T07:27:12Z" user="SHCat" uid="4641415" lat="22.9808663" lon="120.1976531"/>
 <node id="2089443242" visible="true" version="7" changeset="49029608" timestamp="2017-05-27T17:24:59Z" user="SHCat" uid="4641415" lat="22.9766973" lon="120.1976751">
  <tag k="highway" v="traffic_signals"/>
 </node>
 <node id="2139753352" visible="true" version="7" changeset="49029608" timestamp="2017-05-27T17:24:59Z" user="SHCat" uid="4641415" lat="22.9750116" lon="120.2012048">
  <tag k="highway" v="traffic_signals"/>
 </node>
 <node id="2139753978" visible="true" version="6" changeset="49029608" timestamp="2017-05-27T17:24:59Z" user="SHCat" uid="4641415" lat="22.9749867" lon="120.1989207"/>
 <node id="2139753979" visible="true" version="8" changeset="49029608" timestamp="2017-05-27T17:24:59Z" user="SHCat" uid="4641415" lat="22.9750050" lon="120.2005933">
  <tag k="highway" v="traffic_signals"/>
 </node>
 <node id="2142591428" visible="true" version="6" changeset="51371417" timestamp="2017-08-23T11:11:13Z" user="SHCat" uid="4641415" lat="22.9700099" lon="120.2089639">
  <tag k="highway" v="traffic_signals"/>
 </node>
 <node id="2142591452" visible="true" version="6" changeset="51305417" timestamp="2017-08-21T13:07:37Z" user="SHCat" uid="4641415" lat="22.9708836" lon="120.2081257">
  <tag k="highway" v="traffic_signals"/>
 </node>
 <node id="2194019820" visible="true" version="4" changeset="51305417" timestamp="2017-08-21T13:07:36Z" user="SHCat" uid="4641415" lat="22.9709064" lon="120.2119741">
  <tag k="highway" v="traffic_signals"/>
 </node>
 <node id="2382351648" visible="true" version="5" changeset="51771785" timestamp="2017-09-06T07:27:12Z" user="SHCat" uid="4641415" lat="22.9786087" lon="120.1976626"/>
 <node id="2835770181" visible="true" version="4" changeset="28581750" timestamp="2015-02-03T04:54:20Z" user="Supaplex" uid="274857" lat="22.9750781" lon="120.2017126">
  <tag k="bus" v="yes"/>
  <tag k="highway" v="bus_stop"/>
  <tag k="name" v="六信高中(亞洲餐旅)"/>
  <tag k="network" v="臺南市公車"/>
  <tag k="operator" v="臺南市公車"/>
  <tag k="public_transport" v="platform"/>
 </node>
 <node id="2835770183" visible="true" version="4" changeset="28581750" timestamp="2015-02-03T04:54:37Z" user="Supaplex" uid="274857" lat="22.9696781" lon="120.2093137">
  <tag k="bus" v="yes"/>
  <tag k="highway" v="bus_stop"/>
  <tag k="name" v="南區殯儀館"/>
  <tag k="network" v="臺南市公車"/>
  <tag k="operator" v="臺南市公車"/>
  <tag k="public_transport" v="platform"/>
 </node>
 <node id="2835770185" visible="true" version="4" changeset="28581750" timestamp="2015-02-03T04:55:12Z" user="Supaplex" uid="274857" lat="22.9708036" lon="120.2116766">
  <tag k="bus" v="yes"/>
  <tag k="highway" v="bus_stop"/>
  <tag k="name" v="大忠里"/>
  <tag k="network" v="臺南市公車"/>
  <tag k="operator" v="臺南市公車"/>
  <tag k="public_transport" v="platform"/>
 </node>
 <node id="2835770188" visible="true" version="4" changeset="28581750" timestamp="2015-02-03T04:56:45Z" user="Supaplex" uid="274857" lat="22.9750626" lon="120.1994459">
  <tag k="bus" v="yes"/>
  <tag k="highway" v="bus_stop"/>
  <tag k="name" v="水交社"/>
  <tag k="network" v="臺南市公車"/>
  <tag k="operator" v="臺南市公車"/>
  <tag k="public_transport" v="platform"/>
 </node>
 <node id="2916982277" visible="true" version="3" changeset="38291108" timestamp="2016-04-04T13:29:05Z" user="Kagami" uid="189328" lat="22.9749734" lon="120.1976994">
  <tag k="highway" v="traffic_signals"/>
 </node>
 <node id="3139496830" visible="true" version="4" changeset="49029608" timestamp="2017-05-27T17:24:59Z" user="SHCat" uid="4641415" lat="22.9750019" lon="120.2003110">
  <tag k="highway" v="traffic_signals"/>
 </node>
 <node id="3141533302" visible="true" version="3" changeset="49029608" timestamp="2017-05-27T17:24:59Z" user="SHCat" uid="4641415" lat="22.9749747" lon="120.1978156"/>
 <node id="4083168777" visible="true" version="4" changeset="51305417" timestamp="2017-08-21T13:07:37Z" user="SHCat" uid="4641415" lat="22.9724012" lon="120.2066697"/>
 <node id="4083169196" visible="true" version="4" changeset="51305417" timestamp="2017-08-21T13:07:37Z" user="SHCat" uid="4641415" lat="22.9735074" lon="120.2056085"/>
 <node id="4097310883" visible="true" version="3" changeset="49029608" timestamp="2017-05-27T17:24:59Z" user="SHCat" uid="4641415" lat="22.9749880" lon="120.1990372"/>
 <node id="4097310884" visible="true" version="3" changeset="49029608" timestamp="2017-05-27T17:24:59Z" user="SHCat" uid="4641415" lat="22.9749949" lon="120.1996697"/>
 <node id="4097310885" visible="true" version="2" changeset="49029608" timestamp="2017-05-27T17:24:59Z" user="SHCat" uid="4641415" lat="22.9750190" lon="120.2018812"/>
 <node id="4097310886" visible="true" version="2" changeset="49029608" timestamp="2017-05-27T17:24:59Z" user="SHCat" uid="4641415" lat="22.9750547" lon="120.2026619"/>
 <node id="4387286446" visible="true" version="4" changeset="51305417" timestamp="2017-08-21T13:07:37Z" user="SHCat" uid="4641415" lat="22.9718011" lon="120.2072454"/>
 <node id="4387323445" visible="true" version="3" changeset="42522902" timestamp="2016-09-29T16:11:37Z" user="piligab" uid="3877019" lat="22.9723168" lon="120.2142204"/>
 <node id="4389576858" visible="true" version="3" changeset="51371417" timestamp="2017-08-23T11:11:13Z" user="SHCat" uid="4641415" lat="22.9701300" lon="120.2110269">
  <tag k="highway" v="traffic_signals"/>
 </node>
 <node id="5053344321" visible="true" version="1" changeset="51371417" timestamp="2017-08-23T11:11:10Z" user="SHCat" uid="4641415" lat="22.9705154" lon="120.2084791"/>
 <node id="5274587544" visible="true" version="1" changeset="54501857" timestamp="2017-12-10T04:37:19Z" user="Kagami" uid="189328" lat="22.9813514" lon="120.1976515">
  <tag k="highway" v="crossing"/>
 </node>
 <way id="30438916" visible="true" version="17" changeset="57198215" timestamp="2018-03-15T04:50:34Z" user="s88239" uid="5406836">
  <nd ref="296967552"/>
  <nd ref="4387323445"/>
  <nd ref="296967551"/>
  <nd ref="296967546"/>
  <nd ref="296967540"/>
  <nd ref="296968092"/>
  <nd ref="2194019820"/>
  <nd ref="296968054"/>
  <nd ref="4389576858"/>
  <nd ref="296967535"/>
  <tag k="highway" v="tertiary"/>
  <tag k="name" v="中華南路一段"/>
  <tag k="name:en" v="Jhonghua South Road Section 1"/>
  <tag k="name:zh" v="中華南路一段"/>
  <tag k="oneway" v="yes"/>
  <tag k="ref" v="28"/>
  <tag k="sidewalk" v="right"/>
 </way>
 <way id="108037223" visible="true" version="8" changeset="51772466" timestamp="2017-09-06T08:00:36Z" user="SHCat" uid="4641415">
  <nd ref="1240288582"/>
  <nd ref="1240288802"/>
  <tag k="highway" v="tertiary"/>
  <tag k="name" v="南門路"/>
  <tag k="name:en" v="Nanmen Road"/>
  <tag k="name:zh" v="南門路"/>
  <tag k="oneway" v="yes"/>
  <tag k="ref" v="23"/>
  <tag k="sidewalk" v="right"/>
 </way>
 <way id="108037257" visible="true" version="8" changeset="51772466" timestamp="2017-09-06T08:00:37Z" user="SHCat" uid="4641415">
  <nd ref="1240288153"/>
  <nd ref="1240288582"/>
  <tag k="bridge" v="yes"/>
  <tag k="highway" v="tertiary"/>
  <tag k="name" v="金湯橋"/>
  <tag k="name:en" v="GoldenCastle Bridge"/>
  <tag k="name:zh" v="金湯橋"/>
  <tag k="oneway" v="yes"/>
  <tag k="ref" v="23"/>
  <tag k="sidewalk" v="right"/>
 </way>
 <way id="229039624" visible="true" version="5" changeset="51772466" timestamp="2017-09-06T08:00:37Z" user="SHCat" uid="4641415">
  <nd ref="296968020"/>
  <nd ref="1240288153"/>
  <tag k="highway" v="tertiary"/>
  <tag k="name" v="國民路"/>
  <tag k="name:en" v="Guomin Road"/>
  <tag k="name:zh" v="國民路"/>
  <tag k="oneway" v="yes"/>
  <tag k="ref" v="23"/>
  <tag k="sidewalk" v="right"/>
 </way>
 <way id="274022907" visible="true" version="6" changeset="54501857" timestamp="2017-12-10T04:37:25Z" user="Kagami" uid="189328">
  <nd ref="1240286657"/>
  <nd ref="1240286681"/>
  <nd ref="1730036649"/>
  <nd ref="1730036668"/>
  <nd ref="5274587544"/>
  <nd ref="1240286988"/>
  <tag k="highway" v="tertiary"/>
  <tag k="name" v="西門路一段"/>
  <tag k="name:en" v="Simen Road Sec. 1"/>
  <tag k="name:zh" v="西門路一段"/>
  <tag k="oneway" v="yes"/>
  <tag k="ref" v="21"/>
  <tag k="sidewalk" v="no"/>
 </way>
 <way id="298271078" visible="true" version="8" changeset="51772466" timestamp="2017-09-06T08:00:37Z" user="SHCat" uid="4641415">
  <nd ref="296967535"/>
  <nd ref="2142591428"/>
  <nd ref="5053344321"/>
  <nd ref="2142591452"/>
  <nd ref="4387286446"/>
  <nd ref="4083168777"/>
  <nd ref="4083169196"/>
  <nd ref="296968020"/>
  <tag k="highway" v="tertiary"/>
  <tag k="name" v="國民路"/>
  <tag k="name:en" v="Guomin Road"/>
  <tag k="name:zh" v="國民路"/>
  <tag k="oneway" v="yes"/>
  <tag k="ref" v="23"/>
  <tag k="sidewalk" v="right"/>
 </way>
 <way id="298271088" visible="true" version="9" changeset="56435632" timestamp="2018-02-17T09:31:40Z" user="SHCat" uid="4641415">
  <nd ref="2916982277"/>
  <nd ref="3141533302"/>
  <nd ref="2139753978"/>
  <nd ref="4097310883"/>
  <nd ref="4097310884"/>
  <nd ref="3139496830"/>
  <nd ref="2139753979"/>
  <nd ref="2139753352"/>
  <nd ref="4097310885"/>
  <nd ref="1240287830"/>
  <tag k="highway" v="tertiary"/>
  <tag k="name" v="大成路一段"/>
  <tag k="name:en" v="Section 1 , DaChen Road"/>
  <tag k="name:zh" v="大成路一段"/>
  <tag k="sidewalk" v="no"/>
 </way>
 <way id="298271093" visible="true" version="2" changeset="38291108" timestamp="2016-04-04T13:29:01Z" user="Kagami" uid="189328">
  <nd ref="1240288764"/>
  <nd ref="1240288802"/>
  <tag k="highway" v="residential"/>
  <tag k="name" v="大成路一段"/>
 </way>
 <way id="298271101" visible="true" version="7" changeset="51771785" timestamp="2017-09-06T07:27:13Z" user="SHCat" uid="4641415">
  <nd ref="2916982277"/>
  <nd ref="1715120124"/>
  <nd ref="2089443242"/>
  <nd ref="1240288842"/>
  <tag k="highway" v="tertiary"/>
  <tag k="name" v="西門路一段"/>
  <tag k="name:en" v="Simen Road Sec. 1"/>
  <tag k="name:zh" v="西門路一段"/>
  <tag k="oneway" v="yes"/>
  <tag k="ref" v="21"/>
  <tag k="sidewalk" v="no"/>
 </way>
 <way id="302064321" visible="true" version="6" changeset="51771785" timestamp="2017-09-06T07:27:14Z" user="SHCat" uid="4641415">
  <nd ref="1240288842"/>
  <nd ref="2382351648"/>
  <nd ref="1240286657"/>
  <tag k="highway" v="tertiary"/>
  <tag k="name" v="西門路一段"/>
  <tag k="name:en" v="Simen Road Sec. 1"/>
  <tag k="name:zh" v="西門路一段"/>
  <tag k="oneway" v="yes"/>
  <tag k="ref" v="21"/>
  <tag k="sidewalk" v="no"/>
 </way>
 <way id="496339500" visible="true" version="2" changeset="56435632" timestamp="2018-02-17T09:31:40Z" user="SHCat" uid="4641415">
  <nd ref="1240287830"/>
  <nd ref="4097310886"/>
  <nd ref="1714134330"/>
  <nd ref="1240288764"/>
  <tag k="highway" v="tertiary"/>
  <tag k="name" v="大成路一段"/>
  <tag k="name:en" v="Section 1 , DaChen Road"/>
  <tag k="name:zh" v="大成路一段"/>
  <tag k="sidewalk" v="no"/>
 </way>
 <relation id="4064997" visible="true" version="4" changeset="49029608" timestamp="2017-05-27T17:25:27Z" user="SHCat" uid="4641415">
  <member type="node" ref="2835770185" role="platform"/>
  <member type="node" ref="2835770183" role="platform"/>
  <member type="node" ref="2835770181" role="platform"/>
  <member type="node" ref="2835770188" role="platform"/>
  <member type="way" ref="30438916" role=""/>
  <member type="way" ref="298271078" role=""/>
  <member type="way" ref="229039624" role=""/>
  <member type="way" ref="108037257" role=""/>
  <member type="way" ref="108037223" role=""/>
  <member type="way" ref="298271093" role=""/>
  <member type="way" ref="496339500" role=""/>
  <member type="way" ref="298271088" role=""/>
  <member type="way" ref="298271101" role=""/>
  <member type="way" ref="302064321" role=""/>
  <member type="way" ref="274022907" role=""/>
  <tag k="from" v="國民路"/>
  <tag k="name" v="18路(延駛國民路_返程)"/>
  <tag k="public_transport:version" v="2"/>
  <tag k="ref" v="18"/>
  <tag k="route" v="bus"/>
  <tag k="to" v="台南站"/>
  <tag k="type" v="route"/>
 </relation>
</osm>
