<?xml version="1.0" encoding="UTF-8"?>
<osm version="0.6" generator="CGImap 0.6.0 (9700 thorn-01.openstreetmap.org)" copyright="OpenStreetMap and contributors" attribution="http://www.openstreetmap.org/copyright" license="http://opendatacommons.org/licenses/odbl/1-0/">
 <relation id="4101308" visible="true" version="6" changeset="36568727" timestamp="2016-01-14T12:02:50Z" user="Kagami" uid="189328">
  <member type="relation" ref="4101306" role="forward"/>
  <member type="relation" ref="4101307" role="backward"/>
  <member type="relation" ref="4101363" role="forward_extend"/>
  <member type="relation" ref="4101364" role="backward_extend"/>
  <tag k="name" v="H31市府線"/>
  <tag k="network" v="臺南市公車"/>
  <tag k="old_ref" v="7651"/>
  <tag k="operator" v="興南客運"/>
  <tag k="public_transport:version" v="2"/>
  <tag k="ref" v="H31"/>
  <tag k="ref:category" v="HSRExpress"/>
  <tag k="ref:querycode" v="10262"/>
  <tag k="route_master" v="bus"/>
  <tag k="type" v="route_master"/>
 </relation>
</osm>
