{"type":"FeatureCollection","features":[{"type":"Feature","properties":{"bench":"yes","bus":"yes","highway":"bus_stop","name":"\u81fa\u5357\u706b\u8eca\u7ad9(\u5357\u7ad9)","network":"\u81fa\u5357\u5e02\u516c\u8eca","operator":"\u81fa\u5357\u5e02\u516c\u8eca","public_transport":"platform","ref":"9211","shelter":"yes"},"geometry":{"type":"Point","coordinates":[120.2112579,22.9970133]}},{"type":"Feature","properties":{"bench":"yes","bus":"yes","highway":"bus_stop","name":"\u53f0\u5357\u91ab\u9662","network":"\u81fa\u5357\u5e02\u516c\u8eca","operator":"\u81fa\u5357\u5e02\u516c\u8eca","public_transport":"platform","shelter":"no"},"geometry":{"type":"Point","coordinates":[120.2091862,22.9953874]}},{"type":"Feature","properties":{"bus":"yes","highway":"bus_stop","name":"\u4e2d\u5c71\u3001\u6c11\u6b0a\u8def\u53e3","network":"\u81fa\u5357\u5e02\u516c\u8eca","operator":"\u81fa\u5357\u5e02\u516c\u8eca","public_transport":"platform"},"geometry":{"type":"Point","coordinates":[120.2068438,22.9938424]}},{"type":"Feature","properties":{"bus":"yes","highway":"bus_stop","name":"\u6c11\u751f\u7da0\u5712","network":"\u81fa\u5357\u5e02\u516c\u8eca","operator":"\u81fa\u5357\u5e02\u516c\u8eca","public_transport":"platform","ref":"0288"},"geometry":{"type":"Point","coordinates":[120.2062168,22.9933733]}},{"type":"Feature","properties":{"bus":"yes","highway":"bus_stop","name":"\u4e2d\u83ef\u96fb\u4fe1","network":"\u81fa\u5357\u5e02\u516c\u8eca","operator":"\u81fa\u5357\u5e02\u516c\u8eca","public_transport":"platform"},"geometry":{"type":"Point","coordinates":[120.2026088,22.993473]}},{"type":"Feature","properties":{"bus":"yes","highway":"bus_stop","name":"\u897f\u9580\u3001\u53cb\u611b\u8857\u53e3","network":"\u81fa\u5357\u5e02\u516c\u8eca","operator":"\u81fa\u5357\u5e02\u516c\u8eca","public_transport":"platform"},"geometry":{"type":"Point","coordinates":[120.1982036,22.9920251]}},{"type":"Feature","properties":{"bench":"no","bus":"yes","highway":"bus_stop","name":"\u5c0f\u897f\u9580(\u5927\u5104\u9e97\u7dfb)","network":"\u81fa\u5357\u5e02\u516c\u8eca","operator":"\u81fa\u5357\u5e02\u516c\u8eca","public_transport":"platform","ref":"9204","shelter":"no"},"geometry":{"type":"Point","coordinates":[120.1973597,22.9887145]}},{"type":"Feature","properties":{"bench":"no","bus":"yes","highway":"bus_stop","name":"\u6c38\u83ef\u7ad9","network":"\u81fa\u5357\u5e02\u516c\u8eca","operator":"\u81fa\u5357\u5e02\u516c\u8eca","public_transport":"platform","ref":"1058","shelter":"no"},"geometry":{"type":"Point","coordinates":[120.1966437,22.9874569]}},{"type":"Feature","properties":{"bench":"no","bus":"yes","highway":"bus_stop","name":"\u6c34\u840d\u586d\u516c\u5712(\u6c38\u83ef\u8def)","network":"\u81fa\u5357\u5e02\u516c\u8eca","operator":"\u81fa\u5357\u5e02\u516c\u8eca","public_transport":"platform","ref":"5130","shelter":"no"},"geometry":{"type":"Point","coordinates":[120.1928559,22.9880554]}},{"type":"Feature","properties":{"bench":"no","bus":"yes","highway":"bus_stop","name":"\u6587\u5357\u8def\u53e3","network":"\u81fa\u5357\u5e02\u516c\u8eca","operator":"\u81fa\u5357\u5e02\u516c\u8eca","public_transport":"platform","ref":"0619","shelter":"no"},"geometry":{"type":"Point","coordinates":[120.1898503,22.988604]}},{"type":"Feature","properties":{"bus":"yes","highway":"bus_stop","name":"\u5bb6\u6a02\u798f","network":"\u81fa\u5357\u5e02\u516c\u8eca","operator":"\u81fa\u5357\u5e02\u516c\u8eca","public_transport":"platform","ref":"0620"},"geometry":{"type":"Point","coordinates":[120.1876568,22.9890249]}},{"type":"Feature","properties":{"bus":"yes","highway":"bus_stop","name":"\u5357\u53f0\u5225\u9662","network":"\u81fa\u5357\u5e02\u516c\u8eca","operator":"\u81fa\u5357\u5e02\u516c\u8eca","public_transport":"platform"},"geometry":{"type":"Point","coordinates":[120.1829307,22.9897082]}},{"type":"Feature","properties":{"bench":"yes","bus":"yes","highway":"bus_stop","name":"\u4e8c\u4e8c\u516b\u516c\u5712","network":"\u81fa\u5357\u5e02\u516c\u8eca","operator":"\u81fa\u5357\u5e02\u516c\u8eca","public_transport":"platform","shelter":"yes"},"geometry":{"type":"Point","coordinates":[120.1827759,22.9905586]}},{"type":"Feature","properties":{"bench":"yes","bus":"yes","highway":"bus_stop","name":"\u6c38\u83ef\u5e02\u653f\u4e2d\u5fc3(\u5e9c\u524d\u8def)","network":"\u81fa\u5357\u5e02\u516c\u8eca","operator":"\u81fa\u5357\u5e02\u516c\u8eca","public_transport":"platform","ref":"1431","shelter":"yes"},"geometry":{"type":"Point","coordinates":[120.184455,22.9931113]}},{"type":"Feature","properties":{"bus":"yes","highway":"bus_stop","name":"\u505c\u4e8c\u505c\u8eca\u5834","network":"\u81fa\u5357\u5e02\u516c\u8eca","operator":"\u81fa\u5357\u5e02\u516c\u8eca","public_transport":"platform"},"geometry":{"type":"Point","coordinates":[120.186497,22.9962491]}},{"type":"Feature","properties":{"bus":"yes","highway":"bus_stop","name":"\u6c11\u6b0a\u8def\u53e3","network":"\u81fa\u5357\u5e02\u516c\u8eca","operator":"\u81fa\u5357\u5e02\u516c\u8eca","public_transport":"platform"},"geometry":{"type":"Point","coordinates":[120.1868721,22.9994423]}},{"type":"Feature","properties":{"bus":"yes","highway":"bus_stop","name":"\u6e56\u7f8e\u8857\u53e3","network":"\u81fa\u5357\u5e02\u516c\u8eca","operator":"\u81fa\u5357\u5e02\u516c\u8eca","public_transport":"platform"},"geometry":{"type":"Point","coordinates":[120.187012,23.0032874]}},{"type":"Feature","properties":{"bus":"yes","highway":"bus_stop","name":"\u4e2d\u83ef\u897f\u8def\u4e8c\u6bb5","network":"\u81fa\u5357\u5e02\u516c\u8eca","operator":"\u81fa\u5357\u5e02\u516c\u8eca","public_transport":"platform"},"geometry":{"type":"Point","coordinates":[120.1867155,23.0051681]}},{"type":"Feature","properties":{"bus":"yes","highway":"bus_stop","name":"\u6b66\u8056\u8def\u53e3","network":"\u81fa\u5357\u5e02\u516c\u8eca","operator":"\u81fa\u5357\u5e02\u516c\u8eca","public_transport":"platform"},"geometry":{"type":"Point","coordinates":[120.1883078,23.0076114]}},{"type":"Feature","properties":{"bus":"yes","highway":"bus_stop","name":"\u548c\u7def\u8def\u56db\u6bb5","network":"\u81fa\u5357\u5e02\u516c\u8eca","operator":"\u81fa\u5357\u5e02\u516c\u8eca","public_transport":"platform"},"geometry":{"type":"Point","coordinates":[120.1920419,23.0092173]}},{"type":"Feature","properties":{"bus":"yes","highway":"bus_stop","name":"\u7279\u529b\u5c4b\/\u597d\u5e02\u591a","network":"\u81fa\u5357\u5e02\u516c\u8eca","operator":"\u81fa\u5357\u5e02\u516c\u8eca","public_transport":"platform"},"geometry":{"type":"Point","coordinates":[120.1939578,23.0106901]}},{"type":"Feature","properties":{"bus":"yes","highway":"bus_stop","name":"\u5927\u8208\u8857\u53e3","network":"\u81fa\u5357\u5e02\u516c\u8eca","operator":"\u81fa\u5357\u5e02\u516c\u8eca","public_transport":"platform"},"geometry":{"type":"Point","coordinates":[120.193897,23.0126943]}},{"type":"Feature","properties":{"bus":"yes","highway":"bus_stop","name":"\u6587\u5143\u5bee","network":"\u81fa\u5357\u5e02\u516c\u8eca","operator":"\u81fa\u5357\u5e02\u516c\u8eca","public_transport":"platform"},"geometry":{"type":"Point","coordinates":[120.1936585,23.0153575]}},{"type":"Feature","properties":{"bus":"yes","highway":"bus_stop","name":"\u6eaa\u4ed4\u5898\u793e\u5340","network":"\u81fa\u5357\u5e02\u516c\u8eca","operator":"\u81fa\u5357\u5e02\u516c\u8eca","public_transport":"platform","ref":"0330"},"geometry":{"type":"Point","coordinates":[120.1923923,23.0208563]}},{"type":"Feature","properties":{"bus":"yes","highway":"bus_stop","name":"\u5354\u6210\u793e\u5340","network":"\u81fa\u5357\u5e02\u516c\u8eca","operator":"\u81fa\u5357\u5e02\u516c\u8eca","public_transport":"platform"},"geometry":{"type":"Point","coordinates":[120.1916509,23.0244447]}},{"type":"Feature","properties":{"bus":"yes","highway":"bus_stop","name":"\u4e2d\u83ef\u793e\u5340","network":"\u81fa\u5357\u5e02\u516c\u8eca","operator":"\u81fa\u5357\u5e02\u516c\u8eca","public_transport":"platform"},"geometry":{"type":"Point","coordinates":[120.1910164,23.0272591]}},{"type":"Feature","properties":{"bus":"yes","highway":"bus_stop","name":"\u6d77\u6771\u6a4b","network":"\u81fa\u5357\u5e02\u516c\u8eca","operator":"\u81fa\u5357\u5e02\u516c\u8eca","public_transport":"platform"},"geometry":{"type":"Point","coordinates":[120.1903693,23.0307989]}},{"type":"Feature","properties":{"bus":"yes","highway":"bus_stop","name":"\u7406\u60f3\u793e\u5340","network":"\u81fa\u5357\u5e02\u516c\u8eca","operator":"\u81fa\u5357\u5e02\u516c\u8eca","public_transport":"platform"},"geometry":{"type":"Point","coordinates":[120.1899832,23.0329085]}},{"type":"Feature","properties":{"bus":"yes","highway":"bus_stop","name":"\u6d77\u5c3e\u524d","network":"\u81fa\u5357\u5e02\u516c\u8eca","operator":"\u81fa\u5357\u5e02\u516c\u8eca","public_transport":"platform"},"geometry":{"type":"Point","coordinates":[120.1888992,23.036257]}},{"type":"Feature","properties":{"bus":"yes","highway":"bus_stop","name":"\u540c\u5b89\u8def\u53e3","network":"\u81fa\u5357\u5e02\u516c\u8eca","operator":"\u81fa\u5357\u5e02\u516c\u8eca","public_transport":"platform"},"geometry":{"type":"Point","coordinates":[120.1882373,23.0383438]}},{"type":"Feature","properties":{"bus":"yes","highway":"bus_stop","name":"\u6d77\u6771\u91cc","network":"\u81fa\u5357\u5e02\u516c\u8eca","operator":"\u81fa\u5357\u5e02\u516c\u8eca","public_transport":"platform"},"geometry":{"type":"Point","coordinates":[120.1877626,23.0402962]}},{"type":"Feature","properties":{"bus":"yes","highway":"bus_stop","name":"\u5357\u6d77\u5c3e","network":"\u81fa\u5357\u5e02\u516c\u8eca","operator":"\u81fa\u5357\u5e02\u516c\u8eca","public_transport":"platform"},"geometry":{"type":"Point","coordinates":[120.1870247,23.0426782]}},{"type":"Feature","properties":{"bus":"yes","highway":"bus_stop","name":"\u6eaa\u5fc3\u91cc","network":"\u81fa\u5357\u5e02\u516c\u8eca","operator":"\u81fa\u5357\u5e02\u516c\u8eca","public_transport":"platform"},"geometry":{"type":"Point","coordinates":[120.1858154,23.0446501]}},{"type":"Feature","properties":{"bus":"yes","highway":"bus_stop","name":"\u6d77\u4f43\u8def\u4e09\u6bb5","network":"\u81fa\u5357\u5e02\u516c\u8eca","operator":"\u81fa\u5357\u5e02\u516c\u8eca","public_transport":"platform"},"geometry":{"type":"Point","coordinates":[120.1832798,23.0479386]}},{"type":"Feature","properties":{"bus":"yes","highway":"bus_stop","name":"\u4ec1\u5b89\u56db\u8857\u53e3","network":"\u81fa\u5357\u5e02\u516c\u8eca","operator":"\u81fa\u5357\u5e02\u516c\u8eca","public_transport":"platform"},"geometry":{"type":"Point","coordinates":[120.1808738,23.0507777]}},{"type":"Feature","properties":{"bus":"yes","highway":"bus_stop","name":"\u4ec1\u5b89\u8def","network":"\u81fa\u5357\u5e02\u516c\u8eca","operator":"\u81fa\u5357\u5e02\u516c\u8eca","public_transport":"platform"},"geometry":{"type":"Point","coordinates":[120.17839,23.0512937]}},{"type":"Feature","properties":{"bus":"yes","highway":"bus_stop","name":"\u5b89\u5357\u885b\u751f\u6240","network":"\u81fa\u5357\u5e02\u516c\u8eca","operator":"\u81fa\u5357\u5e02\u516c\u8eca","public_transport":"platform"},"geometry":{"type":"Point","coordinates":[120.1757577,23.0500851]}},{"type":"Feature","properties":{"bus":"yes","highway":"bus_stop","name":"\u6d77\u6771\u570b\u5c0f","network":"\u81fa\u5357\u5e02\u516c\u8eca","operator":"\u81fa\u5357\u5e02\u516c\u8eca","public_transport":"platform"},"geometry":{"type":"Point","coordinates":[120.1756677,23.0489692]}},{"type":"Feature","properties":{"bus":"yes","highway":"bus_stop","name":"\u672c\u6df5\u5e02\u5834","network":"\u81fa\u5357\u5e02\u516c\u8eca","operator":"\u81fa\u5357\u5e02\u516c\u8eca","public_transport":"platform"},"geometry":{"type":"Point","coordinates":[120.1737268,23.0502183]}},{"type":"Feature","properties":{"bus":"yes","highway":"bus_stop","name":"\u672c\u6df5\u5bee","network":"\u81fa\u5357\u5e02\u516c\u8eca","operator":"\u81fa\u5357\u5e02\u516c\u8eca","public_transport":"platform"},"geometry":{"type":"Point","coordinates":[120.1714881,23.0493098]}},{"type":"Feature","properties":{"bus":"yes","highway":"bus_stop","name":"\u4e2d\u592e\u96fb\u53f0","network":"\u81fa\u5357\u5e02\u516c\u8eca","operator":"\u81fa\u5357\u5e02\u516c\u8eca","public_transport":"platform"},"geometry":{"type":"Point","coordinates":[120.1684939,23.047241]}},{"type":"Feature","properties":{"bus":"yes","highway":"bus_stop","name":"\u81fa\u5357\u9e7d\u5834","network":"\u81fa\u5357\u5e02\u516c\u8eca","operator":"\u81fa\u5357\u5e02\u516c\u8eca","public_transport":"platform"},"geometry":{"type":"Point","coordinates":[120.1602205,23.0416723]}},{"type":"Feature","properties":{"bus":"yes","highway":"bus_stop","name":"\u5de5\u696d\u4e8c\u8def\u53e3","network":"\u81fa\u5357\u5e02\u516c\u8eca","operator":"\u81fa\u5357\u5e02\u516c\u8eca","public_transport":"platform"},"geometry":{"type":"Point","coordinates":[120.1556415,23.0387066]}},{"type":"Feature","properties":{"bus":"yes","highway":"bus_stop","name":"\u79d1\u6280\u4e00\u8def","network":"\u81fa\u5357\u5e02\u516c\u8eca","operator":"\u81fa\u5357\u5e02\u516c\u8eca","public_transport":"platform"},"geometry":{"type":"Point","coordinates":[120.1529678,23.0428227]}},{"type":"Feature","properties":{"bus":"yes","highway":"bus_stop","name":"\u81fa\u5357\u79d1\u5de5\u5340\u670d\u52d9\u4e2d\u5fc3","network":"\u81fa\u5357\u5e02\u516c\u8eca","operator":"\u81fa\u5357\u5e02\u516c\u8eca","public_transport":"platform"},"geometry":{"type":"Point","coordinates":[120.1470207,23.0457074]}},{"type":"Feature","properties":{"bus":"yes","highway":"bus_stop","name":"\u5de5\u696d\u4e09\u8def\u53e3","network":"\u81fa\u5357\u5e02\u516c\u8eca","operator":"\u81fa\u5357\u5e02\u516c\u8eca","public_transport":"platform"},"geometry":{"type":"Point","coordinates":[120.1529115,23.0368706]}},{"type":"Feature","properties":{"bus":"yes","highway":"bus_stop","name":"\u9e7d\u7530\u8def","network":"\u81fa\u5357\u5e02\u516c\u8eca","operator":"\u81fa\u5357\u5e02\u516c\u8eca","public_transport":"platform"},"geometry":{"type":"Point","coordinates":[120.1476348,23.0346055]}},{"type":"Feature","properties":{"bus":"yes","highway":"bus_stop","name":"\u9e7d\u7530\u793e\u5340","network":"\u81fa\u5357\u5e02\u516c\u8eca","operator":"\u81fa\u5357\u5e02\u516c\u8eca","public_transport":"platform"},"geometry":{"type":"Point","coordinates":[120.1457613,23.0334547]}},{"type":"Feature","properties":{"bus":"yes","highway":"bus_stop","name":"\u7d05\u6a39\u6797\u793e\u5340","network":"\u81fa\u5357\u5e02\u516c\u8eca","operator":"\u81fa\u5357\u5e02\u516c\u8eca","public_transport":"platform"},"geometry":{"type":"Point","coordinates":[120.140261,23.0325218]}},{"type":"Feature","properties":{"bus":"yes","highway":"bus_stop","name":"\u56db\u8349\u91ce\u751f\u52d5\u7269\u4fdd\u8b77\u5340","network":"\u81fa\u5357\u5e02\u516c\u8eca","operator":"\u81fa\u5357\u5e02\u516c\u8eca","public_transport":"platform"},"geometry":{"type":"Point","coordinates":[120.1373677,23.0265265]}},{"type":"Feature","properties":{"bus":"yes","highway":"bus_stop","name":"\u56db\u8349\u751f\u614b\u6587\u5316\u5712\u5340(\u5927\u773e\u5edf)","network":"\u81fa\u5357\u5e02\u516c\u8eca","operator":"\u81fa\u5357\u5e02\u516c\u8eca","public_transport":"platform"},"geometry":{"type":"Point","coordinates":[120.134631,23.0193006]}},{"type":"Feature","properties":{"bus":"yes","highway":"bus_stop","name":"\u5927\u793e\u89d2","network":"\u81fa\u5357\u5e02\u516c\u8eca","operator":"\u81fa\u5357\u5e02\u516c\u8eca","public_transport":"platform"},"geometry":{"type":"Point","coordinates":[120.1309036,23.0181295]}},{"type":"Feature","properties":{"bus":"yes","highway":"bus_stop","name":"\u56db\u8349","network":"\u81fa\u5357\u5e02\u516c\u8eca","operator":"\u81fa\u5357\u5e02\u516c\u8eca","public_transport":"platform"},"geometry":{"type":"Point","coordinates":[120.1283773,23.0169328]}},{"type":"Feature","properties":{"bus":"yes","highway":"bus_stop","name":"\u5d19\u4ed4\u8173","network":"\u81fa\u5357\u5e02\u516c\u8eca","operator":"\u81fa\u5357\u5e02\u516c\u8eca","public_transport":"platform"},"geometry":{"type":"Point","coordinates":[120.1265763,23.0183911]}},{"type":"Feature","properties":{"bus":"yes","highway":"bus_stop","name":"\u56db\u8349\u8def\u53e3","network":"\u81fa\u5357\u5e02\u516c\u8eca","operator":"\u81fa\u5357\u5e02\u516c\u8eca","public_transport":"platform"},"geometry":{"type":"Point","coordinates":[120.1246559,23.0202091]}},{"type":"Feature","properties":{"bus":"yes","highway":"bus_stop","name":"\u9e7f\u8033\u9580\u6a4b","network":"\u81fa\u5357\u5e02\u516c\u8eca","operator":"\u81fa\u5357\u5e02\u516c\u8eca","public_transport":"platform"},"geometry":{"type":"Point","coordinates":[120.1283558,23.0366375]}},{"type":"Feature","properties":{"bus":"yes","highway":"bus_stop","name":"\u986f\u5bae\u6d3e\u51fa\u6240","network":"\u81fa\u5357\u5e02\u516c\u8eca","operator":"\u81fa\u5357\u5e02\u516c\u8eca","public_transport":"platform"},"geometry":{"type":"Point","coordinates":[120.1296791,23.0398742]}},{"type":"Feature","properties":{"bus":"yes","highway":"bus_stop","name":"\u5abd\u7956\u5bae","network":"\u81fa\u5357\u5e02\u516c\u8eca","operator":"\u81fa\u5357\u5e02\u516c\u8eca","public_transport":"platform"},"geometry":{"type":"Point","coordinates":[120.1271365,23.0385687]}},{"type":"Feature","properties":{"bus":"yes","highway":"bus_stop","name":"\u9e7f\u8033\u9580\u5929\u540e\u5bae","name:en":"Luermen-Ma Temple","network":"\u81fa\u5357\u5e02\u516c\u8eca","operator":"\u81fa\u5357\u5e02\u516c\u8eca","public_transport":"platform","ref":"1019"},"geometry":{"type":"Point","coordinates":[120.1248534,23.0368314]}},{"type":"Feature","properties":{"from":"\u81fa\u5357\u706b\u8eca\u7ad9","name":"10\u8def(\u6b63\u7dda_\u5f80\u7a0b)","public_transport:version":"2","ref":"10","route":"bus","to":"\u9e7f\u8033\u9580\u5929\u540e\u5bae","type":"route"},"geometry":{"type":"LineString","coordinates":[[120.2112224,22.9973263],[120.2112421,22.997198],[120.2112908,22.9970885],[120.2113768,22.9969836],[120.211457,22.9969172],[120.2115406,22.9968838]]}},{"type":"Feature","properties":{"from":"\u81fa\u5357\u706b\u8eca\u7ad9","name":"10\u8def(\u6b63\u7dda_\u5f80\u7a0b)","public_transport:version":"2","ref":"10","route":"bus","to":"\u9e7f\u8033\u9580\u5929\u540e\u5bae","type":"route"},"geometry":{"type":"LineString","coordinates":[[120.2115406,22.9968838],[120.2115016,22.996815]]}},{"type":"Feature","properties":{"from":"\u81fa\u5357\u706b\u8eca\u7ad9","name":"10\u8def(\u6b63\u7dda_\u5f80\u7a0b)","public_transport:version":"2","ref":"10","route":"bus","to":"\u9e7f\u8033\u9580\u5929\u540e\u5bae","type":"route"},"geometry":{"type":"LineString","coordinates":[[120.2115016,22.996815],[120.2098242,22.9957124],[120.2088872,22.9950964],[120.2084079,22.9947813]]}},{"type":"Feature","properties":{"from":"\u81fa\u5357\u706b\u8eca\u7ad9","name":"10\u8def(\u6b63\u7dda_\u5f80\u7a0b)","public_transport:version":"2","ref":"10","route":"bus","to":"\u9e7f\u8033\u9580\u5929\u540e\u5bae","type":"route"},"geometry":{"type":"LineString","coordinates":[[120.2084079,22.9947813],[120.2072412,22.9940191],[120.206682,22.9936537]]}},{"type":"Feature","properties":{"from":"\u81fa\u5357\u706b\u8eca\u7ad9","name":"10\u8def(\u6b63\u7dda_\u5f80\u7a0b)","public_transport:version":"2","ref":"10","route":"bus","to":"\u9e7f\u8033\u9580\u5929\u540e\u5bae","type":"route"},"geometry":{"type":"LineString","coordinates":[[120.206682,22.9936537],[120.20586,22.9931228],[120.2054416,22.9928393]]}},{"type":"Feature","properties":{"from":"\u81fa\u5357\u706b\u8eca\u7ad9","name":"10\u8def(\u6b63\u7dda_\u5f80\u7a0b)","public_transport:version":"2","ref":"10","route":"bus","to":"\u9e7f\u8033\u9580\u5929\u540e\u5bae","type":"route"},"geometry":{"type":"LineString","coordinates":[[120.2045626,22.9925558],[120.2045725,22.9924866],[120.2045858,22.9924409],[120.2046043,22.9923967],[120.2046508,22.9923216],[120.2047122,22.9922561],[120.2047861,22.9922028],[120.2048698,22.9921635],[120.2049601,22.9921398],[120.2050693,22.9921331],[120.2051773,22.992149],[120.2052787,22.9921868],[120.2053684,22.9922445],[120.2054218,22.9922955],[120.2054659,22.9923536],[120.2054993,22.9924174],[120.2055285,22.9925234],[120.2055288,22.9926328],[120.2055002,22.992739],[120.2054416,22.9928393],[120.2053673,22.9929148],[120.2052763,22.9929729],[120.2051734,22.9930104],[120.2050622,22.9930256],[120.2049501,22.9930168],[120.2048432,22.9929845],[120.2047473,22.9929303],[120.2046675,22.9928573],[120.2046081,22.9927693],[120.2045783,22.9926941],[120.2045646,22.9926255],[120.2045626,22.9925558]]}},{"type":"Feature","properties":{"from":"\u81fa\u5357\u706b\u8eca\u7ad9","name":"10\u8def(\u6b63\u7dda_\u5f80\u7a0b)","public_transport:version":"2","ref":"10","route":"bus","to":"\u9e7f\u8033\u9580\u5929\u540e\u5bae","type":"route"},"geometry":{"type":"LineString","coordinates":[[120.2046081,22.9927693],[120.2041555,22.9930845],[120.2030695,22.9933828]]}},{"type":"Feature","properties":{"from":"\u81fa\u5357\u706b\u8eca\u7ad9","name":"10\u8def(\u6b63\u7dda_\u5f80\u7a0b)","public_transport:version":"2","ref":"10","route":"bus","to":"\u9e7f\u8033\u9580\u5929\u540e\u5bae","type":"route"},"geometry":{"type":"LineString","coordinates":[[120.2030695,22.9933828],[120.20244,22.9935249],[120.2012618,22.9938815],[120.2000324,22.9942652],[120.1992535,22.9945421]]}},{"type":"Feature","properties":{"from":"\u81fa\u5357\u706b\u8eca\u7ad9","name":"10\u8def(\u6b63\u7dda_\u5f80\u7a0b)","public_transport:version":"2","ref":"10","route":"bus","to":"\u9e7f\u8033\u9580\u5929\u540e\u5bae","type":"route"},"geometry":{"type":"LineString","coordinates":[[120.1992535,22.9945421],[120.19918,22.9945578]]}},{"type":"Feature","properties":{"from":"\u81fa\u5357\u706b\u8eca\u7ad9","name":"10\u8def(\u6b63\u7dda_\u5f80\u7a0b)","public_transport:version":"2","ref":"10","route":"bus","to":"\u9e7f\u8033\u9580\u5929\u540e\u5bae","type":"route"},"geometry":{"type":"LineString","coordinates":[[120.19918,22.9945578],[120.1991577,22.9944625]]}},{"type":"Feature","properties":{"from":"\u81fa\u5357\u706b\u8eca\u7ad9","name":"10\u8def(\u6b63\u7dda_\u5f80\u7a0b)","public_transport:version":"2","ref":"10","route":"bus","to":"\u9e7f\u8033\u9580\u5929\u540e\u5bae","type":"route"},"geometry":{"type":"LineString","coordinates":[[120.1991577,22.9944625],[120.1990015,22.9940031],[120.1985913,22.9927967]]}},{"type":"Feature","properties":{"from":"\u81fa\u5357\u706b\u8eca\u7ad9","name":"10\u8def(\u6b63\u7dda_\u5f80\u7a0b)","public_transport:version":"2","ref":"10","route":"bus","to":"\u9e7f\u8033\u9580\u5929\u540e\u5bae","type":"route"},"geometry":{"type":"LineString","coordinates":[[120.1985913,22.9927967],[120.1985747,22.9927127]]}},{"type":"Feature","properties":{"from":"\u81fa\u5357\u706b\u8eca\u7ad9","name":"10\u8def(\u6b63\u7dda_\u5f80\u7a0b)","public_transport:version":"2","ref":"10","route":"bus","to":"\u9e7f\u8033\u9580\u5929\u540e\u5bae","type":"route"},"geometry":{"type":"LineString","coordinates":[[120.1985747,22.9927127],[120.198213,22.9917621]]}},{"type":"Feature","properties":{"from":"\u81fa\u5357\u706b\u8eca\u7ad9","name":"10\u8def(\u6b63\u7dda_\u5f80\u7a0b)","public_transport:version":"2","ref":"10","route":"bus","to":"\u9e7f\u8033\u9580\u5929\u540e\u5bae","type":"route"},"geometry":{"type":"LineString","coordinates":[[120.198213,22.9917621],[120.1980827,22.9913906],[120.1980197,22.9912111],[120.1978928,22.9908535],[120.1977618,22.9904844]]}},{"type":"Feature","properties":{"from":"\u81fa\u5357\u706b\u8eca\u7ad9","name":"10\u8def(\u6b63\u7dda_\u5f80\u7a0b)","public_transport:version":"2","ref":"10","route":"bus","to":"\u9e7f\u8033\u9580\u5929\u540e\u5bae","type":"route"},"geometry":{"type":"LineString","coordinates":[[120.1977618,22.9904844],[120.1976551,22.9902075],[120.1975853,22.9899531],[120.197531,22.9897469],[120.1975025,22.9894858],[120.1974716,22.9890179],[120.1974856,22.9884783],[120.1975112,22.9873957]]}},{"type":"Feature","properties":{"from":"\u81fa\u5357\u706b\u8eca\u7ad9","name":"10\u8def(\u6b63\u7dda_\u5f80\u7a0b)","public_transport:version":"2","ref":"10","route":"bus","to":"\u9e7f\u8033\u9580\u5929\u540e\u5bae","type":"route"},"geometry":{"type":"LineString","coordinates":[[120.1975112,22.9873957],[120.1968435,22.9874171],[120.1963657,22.9874324]]}},{"type":"Feature","properties":{"from":"\u81fa\u5357\u706b\u8eca\u7ad9","name":"10\u8def(\u6b63\u7dda_\u5f80\u7a0b)","public_transport:version":"2","ref":"10","route":"bus","to":"\u9e7f\u8033\u9580\u5929\u540e\u5bae","type":"route"},"geometry":{"type":"LineString","coordinates":[[120.1963657,22.9874324],[120.1957636,22.9874333],[120.1950645,22.9874945],[120.1948961,22.9875247]]}},{"type":"Feature","properties":{"from":"\u81fa\u5357\u706b\u8eca\u7ad9","name":"10\u8def(\u6b63\u7dda_\u5f80\u7a0b)","public_transport:version":"2","ref":"10","route":"bus","to":"\u9e7f\u8033\u9580\u5929\u540e\u5bae","type":"route"},"geometry":{"type":"LineString","coordinates":[[120.1948961,22.9875247],[120.1947336,22.9875797]]}},{"type":"Feature","properties":{"from":"\u81fa\u5357\u706b\u8eca\u7ad9","name":"10\u8def(\u6b63\u7dda_\u5f80\u7a0b)","public_transport:version":"2","ref":"10","route":"bus","to":"\u9e7f\u8033\u9580\u5929\u540e\u5bae","type":"route"},"geometry":{"type":"LineString","coordinates":[[120.1947336,22.9875797],[120.194679,22.9876],[120.1938818,22.987756],[120.1934225,22.9878471],[120.193091,22.9879129],[120.1926908,22.9879923],[120.1923634,22.9880572],[120.1920183,22.9881239]]}},{"type":"Feature","properties":{"from":"\u81fa\u5357\u706b\u8eca\u7ad9","name":"10\u8def(\u6b63\u7dda_\u5f80\u7a0b)","public_transport:version":"2","ref":"10","route":"bus","to":"\u9e7f\u8033\u9580\u5929\u540e\u5bae","type":"route"},"geometry":{"type":"LineString","coordinates":[[120.1920183,22.9881239],[120.1916003,22.9882071],[120.1912476,22.9882758],[120.1910018,22.9883237],[120.1903998,22.988441],[120.1902475,22.988468],[120.1894794,22.9886203],[120.1894549,22.9886251]]}},{"type":"Feature","properties":{"from":"\u81fa\u5357\u706b\u8eca\u7ad9","name":"10\u8def(\u6b63\u7dda_\u5f80\u7a0b)","public_transport:version":"2","ref":"10","route":"bus","to":"\u9e7f\u8033\u9580\u5929\u540e\u5bae","type":"route"},"geometry":{"type":"LineString","coordinates":[[120.1894549,22.9886251],[120.1889353,22.9887244]]}},{"type":"Feature","properties":{"from":"\u81fa\u5357\u706b\u8eca\u7ad9","name":"10\u8def(\u6b63\u7dda_\u5f80\u7a0b)","public_transport:version":"2","ref":"10","route":"bus","to":"\u9e7f\u8033\u9580\u5929\u540e\u5bae","type":"route"},"geometry":{"type":"LineString","coordinates":[[120.1889353,22.9887244],[120.1887556,22.9887665]]}},{"type":"Feature","properties":{"from":"\u81fa\u5357\u706b\u8eca\u7ad9","name":"10\u8def(\u6b63\u7dda_\u5f80\u7a0b)","public_transport:version":"2","ref":"10","route":"bus","to":"\u9e7f\u8033\u9580\u5929\u540e\u5bae","type":"route"},"geometry":{"type":"LineString","coordinates":[[120.1887556,22.9887665],[120.1886699,22.9888342],[120.1881907,22.9888642],[120.1879235,22.9888999],[120.1870083,22.9890951]]}},{"type":"Feature","properties":{"from":"\u81fa\u5357\u706b\u8eca\u7ad9","name":"10\u8def(\u6b63\u7dda_\u5f80\u7a0b)","public_transport:version":"2","ref":"10","route":"bus","to":"\u9e7f\u8033\u9580\u5929\u540e\u5bae","type":"route"},"geometry":{"type":"LineString","coordinates":[[120.1870083,22.9890951],[120.1869029,22.989112]]}},{"type":"Feature","properties":{"from":"\u81fa\u5357\u706b\u8eca\u7ad9","name":"10\u8def(\u6b63\u7dda_\u5f80\u7a0b)","public_transport:version":"2","ref":"10","route":"bus","to":"\u9e7f\u8033\u9580\u5929\u540e\u5bae","type":"route"},"geometry":{"type":"LineString","coordinates":[[120.1869029,22.989112],[120.186157,22.9892095],[120.1855049,22.9892897],[120.1851477,22.9893352],[120.184731,22.9893882],[120.1845794,22.9894074],[120.1843,22.9894429],[120.1825405,22.9896667]]}},{"type":"Feature","properties":{"from":"\u81fa\u5357\u706b\u8eca\u7ad9","name":"10\u8def(\u6b63\u7dda_\u5f80\u7a0b)","public_transport:version":"2","ref":"10","route":"bus","to":"\u9e7f\u8033\u9580\u5929\u540e\u5bae","type":"route"},"geometry":{"type":"LineString","coordinates":[[120.1825405,22.9896667],[120.1826957,22.990297],[120.1828197,22.9908197],[120.1829774,22.9914856],[120.183144,22.992145],[120.1832848,22.9927031],[120.1834395,22.9933798]]}},{"type":"Feature","properties":{"from":"\u81fa\u5357\u706b\u8eca\u7ad9","name":"10\u8def(\u6b63\u7dda_\u5f80\u7a0b)","public_transport:version":"2","ref":"10","route":"bus","to":"\u9e7f\u8033\u9580\u5929\u540e\u5bae","type":"route"},"geometry":{"type":"LineString","coordinates":[[120.1834395,22.9933798],[120.1846603,22.9931355],[120.1847734,22.9931129]]}},{"type":"Feature","properties":{"from":"\u81fa\u5357\u706b\u8eca\u7ad9","name":"10\u8def(\u6b63\u7dda_\u5f80\u7a0b)","public_transport:version":"2","ref":"10","route":"bus","to":"\u9e7f\u8033\u9580\u5929\u540e\u5bae","type":"route"},"geometry":{"type":"LineString","coordinates":[[120.1847734,22.9931129],[120.1857578,22.9929159],[120.1861622,22.992835],[120.1867937,22.9927086]]}},{"type":"Feature","properties":{"from":"\u81fa\u5357\u706b\u8eca\u7ad9","name":"10\u8def(\u6b63\u7dda_\u5f80\u7a0b)","public_transport:version":"2","ref":"10","route":"bus","to":"\u9e7f\u8033\u9580\u5929\u540e\u5bae","type":"route"},"geometry":{"type":"LineString","coordinates":[[120.1867937,22.9927086],[120.186893,22.9926888]]}},{"type":"Feature","properties":{"from":"\u81fa\u5357\u706b\u8eca\u7ad9","name":"10\u8def(\u6b63\u7dda_\u5f80\u7a0b)","public_transport:version":"2","ref":"10","route":"bus","to":"\u9e7f\u8033\u9580\u5929\u540e\u5bae","type":"route"},"geometry":{"type":"LineString","coordinates":[[120.186893,22.9926888],[120.1868434,22.9934099],[120.1868112,22.9936432],[120.1867173,22.9938803],[120.1865966,22.9941543],[120.186492,22.9944556],[120.1864343,22.9947717],[120.1863968,22.9951297],[120.1864021,22.9954605],[120.1864223,22.9957839],[120.1864977,22.9965605],[120.1865468,22.9969183],[120.1865552,22.9970192],[120.1865631,22.9971259]]}},{"type":"Feature","properties":{"from":"\u81fa\u5357\u706b\u8eca\u7ad9","name":"10\u8def(\u6b63\u7dda_\u5f80\u7a0b)","public_transport:version":"2","ref":"10","route":"bus","to":"\u9e7f\u8033\u9580\u5929\u540e\u5bae","type":"route"},"geometry":{"type":"LineString","coordinates":[[120.1865631,22.9971259],[120.1866489,22.9977271]]}},{"type":"Feature","properties":{"from":"\u81fa\u5357\u706b\u8eca\u7ad9","name":"10\u8def(\u6b63\u7dda_\u5f80\u7a0b)","public_transport:version":"2","ref":"10","route":"bus","to":"\u9e7f\u8033\u9580\u5929\u540e\u5bae","type":"route"},"geometry":{"type":"LineString","coordinates":[[120.1866489,22.9977271],[120.1866566,22.9977539],[120.1866731,22.9978123]]}},{"type":"Feature","properties":{"from":"\u81fa\u5357\u706b\u8eca\u7ad9","name":"10\u8def(\u6b63\u7dda_\u5f80\u7a0b)","public_transport:version":"2","ref":"10","route":"bus","to":"\u9e7f\u8033\u9580\u5929\u540e\u5bae","type":"route"},"geometry":{"type":"LineString","coordinates":[[120.1866731,22.9978123],[120.1866825,22.9978752]]}},{"type":"Feature","properties":{"from":"\u81fa\u5357\u706b\u8eca\u7ad9","name":"10\u8def(\u6b63\u7dda_\u5f80\u7a0b)","public_transport:version":"2","ref":"10","route":"bus","to":"\u9e7f\u8033\u9580\u5929\u540e\u5bae","type":"route"},"geometry":{"type":"LineString","coordinates":[[120.1866825,22.9978752],[120.1867849,22.9988394],[120.1867941,22.9989188],[120.1869198,22.9997799],[120.1869921,23.0004038],[120.1870443,23.0010168],[120.1870841,23.0017929],[120.1870834,23.0021373],[120.187053,23.0027295],[120.1869949,23.0033842],[120.1868962,23.0042334],[120.1867589,23.0048655],[120.186635,23.005441],[120.1863436,23.0067556]]}},{"type":"Feature","properties":{"from":"\u81fa\u5357\u706b\u8eca\u7ad9","name":"10\u8def(\u6b63\u7dda_\u5f80\u7a0b)","public_transport:version":"2","ref":"10","route":"bus","to":"\u9e7f\u8033\u9580\u5929\u540e\u5bae","type":"route"},"geometry":{"type":"LineString","coordinates":[[120.1863436,23.0067556],[120.1872991,23.0071669],[120.1879246,23.0074492],[120.1890305,23.0079235],[120.1892036,23.0080008],[120.1896559,23.008203],[120.1900982,23.0084008],[120.190538,23.0085933],[120.1909769,23.0087854],[120.1914148,23.0089771],[120.1926822,23.0095319],[120.1929444,23.0096331],[120.193167,23.0096824],[120.1934854,23.0096969],[120.193894,23.0096936]]}},{"type":"Feature","properties":{"from":"\u81fa\u5357\u706b\u8eca\u7ad9","name":"10\u8def(\u6b63\u7dda_\u5f80\u7a0b)","public_transport:version":"2","ref":"10","route":"bus","to":"\u9e7f\u8033\u9580\u5929\u540e\u5bae","type":"route"},"geometry":{"type":"LineString","coordinates":[[120.1938985,23.0097976],[120.193894,23.0096936]]}},{"type":"Feature","properties":{"from":"\u81fa\u5357\u706b\u8eca\u7ad9","name":"10\u8def(\u6b63\u7dda_\u5f80\u7a0b)","public_transport:version":"2","ref":"10","route":"bus","to":"\u9e7f\u8033\u9580\u5929\u540e\u5bae","type":"route"},"geometry":{"type":"LineString","coordinates":[[120.1931804,23.0181665],[120.193198,23.0180497],[120.1932739,23.0175479],[120.1933735,23.0168886],[120.1934665,23.0162728],[120.1936364,23.0151483],[120.1936622,23.0149776],[120.1937169,23.014638],[120.1937769,23.0142187],[120.1938038,23.0140403],[120.1938114,23.0132239],[120.1938289,23.0129665],[120.193839,23.0128176],[120.1938696,23.0123683],[120.1938886,23.0120879],[120.1938925,23.0111966],[120.1938939,23.0108614],[120.1938957,23.0104633],[120.1938985,23.0097976]]}},{"type":"Feature","properties":{"from":"\u81fa\u5357\u706b\u8eca\u7ad9","name":"10\u8def(\u6b63\u7dda_\u5f80\u7a0b)","public_transport:version":"2","ref":"10","route":"bus","to":"\u9e7f\u8033\u9580\u5929\u540e\u5bae","type":"route"},"geometry":{"type":"LineString","coordinates":[[120.1931804,23.0181665],[120.1931922,23.018317]]}},{"type":"Feature","properties":{"from":"\u81fa\u5357\u706b\u8eca\u7ad9","name":"10\u8def(\u6b63\u7dda_\u5f80\u7a0b)","public_transport:version":"2","ref":"10","route":"bus","to":"\u9e7f\u8033\u9580\u5929\u540e\u5bae","type":"route"},"geometry":{"type":"LineString","coordinates":[[120.1931922,23.018317],[120.1925313,23.0201303]]}},{"type":"Feature","properties":{"from":"\u81fa\u5357\u706b\u8eca\u7ad9","name":"10\u8def(\u6b63\u7dda_\u5f80\u7a0b)","public_transport:version":"2","ref":"10","route":"bus","to":"\u9e7f\u8033\u9580\u5929\u540e\u5bae","type":"route"},"geometry":{"type":"LineString","coordinates":[[120.1925313,23.0201303],[120.1925182,23.0201926],[120.1921259,23.0220538],[120.1920448,23.0224387],[120.1919536,23.0228715],[120.1918349,23.0234346],[120.1918182,23.0235139],[120.191741,23.0238801],[120.191693,23.024158],[120.1915708,23.0246876],[120.1915367,23.0248495],[120.1914348,23.025333],[120.1913578,23.0256982],[120.191284,23.0260483],[120.1912134,23.0263835],[120.1911427,23.0267187],[120.1909959,23.027415],[120.190916,23.0277944],[120.1908456,23.0281285],[120.1907825,23.0284279],[120.1906967,23.0288347]]}},{"type":"Feature","properties":{"from":"\u81fa\u5357\u706b\u8eca\u7ad9","name":"10\u8def(\u6b63\u7dda_\u5f80\u7a0b)","public_transport:version":"2","ref":"10","route":"bus","to":"\u9e7f\u8033\u9580\u5929\u540e\u5bae","type":"route"},"geometry":{"type":"LineString","coordinates":[[120.1906967,23.0288347],[120.190679,23.0289107]]}},{"type":"Feature","properties":{"from":"\u81fa\u5357\u706b\u8eca\u7ad9","name":"10\u8def(\u6b63\u7dda_\u5f80\u7a0b)","public_transport:version":"2","ref":"10","route":"bus","to":"\u9e7f\u8033\u9580\u5929\u540e\u5bae","type":"route"},"geometry":{"type":"LineString","coordinates":[[120.190679,23.0289107],[120.1905136,23.0298035]]}},{"type":"Feature","properties":{"from":"\u81fa\u5357\u706b\u8eca\u7ad9","name":"10\u8def(\u6b63\u7dda_\u5f80\u7a0b)","public_transport:version":"2","ref":"10","route":"bus","to":"\u9e7f\u8033\u9580\u5929\u540e\u5bae","type":"route"},"geometry":{"type":"LineString","coordinates":[[120.1905136,23.0298035],[120.1905002,23.0298828]]}},{"type":"Feature","properties":{"from":"\u81fa\u5357\u706b\u8eca\u7ad9","name":"10\u8def(\u6b63\u7dda_\u5f80\u7a0b)","public_transport:version":"2","ref":"10","route":"bus","to":"\u9e7f\u8033\u9580\u5929\u540e\u5bae","type":"route"},"geometry":{"type":"LineString","coordinates":[[120.1905002,23.0298828],[120.1904589,23.0301943],[120.190343,23.0310695],[120.1903255,23.0312053],[120.1902471,23.031757],[120.1902383,23.0318205],[120.1901935,23.0321433],[120.1901305,23.032495],[120.1899206,23.0331603],[120.1896624,23.0338539],[120.1893901,23.0347166],[120.1890428,23.0357656],[120.1887377,23.0367196],[120.1883649,23.0378957],[120.1880591,23.0388213]]}},{"type":"Feature","properties":{"from":"\u81fa\u5357\u706b\u8eca\u7ad9","name":"10\u8def(\u6b63\u7dda_\u5f80\u7a0b)","public_transport:version":"2","ref":"10","route":"bus","to":"\u9e7f\u8033\u9580\u5929\u540e\u5bae","type":"route"},"geometry":{"type":"LineString","coordinates":[[120.1880591,23.0388213],[120.1878834,23.0396205],[120.1877889,23.0400506],[120.1875359,23.041329],[120.187564,23.0415672]]}},{"type":"Feature","properties":{"from":"\u81fa\u5357\u706b\u8eca\u7ad9","name":"10\u8def(\u6b63\u7dda_\u5f80\u7a0b)","public_transport:version":"2","ref":"10","route":"bus","to":"\u9e7f\u8033\u9580\u5929\u540e\u5bae","type":"route"},"geometry":{"type":"LineString","coordinates":[[120.187564,23.0415672],[120.1874366,23.0416869]]}},{"type":"Feature","properties":{"from":"\u81fa\u5357\u706b\u8eca\u7ad9","name":"10\u8def(\u6b63\u7dda_\u5f80\u7a0b)","public_transport:version":"2","ref":"10","route":"bus","to":"\u9e7f\u8033\u9580\u5929\u540e\u5bae","type":"route"},"geometry":{"type":"LineString","coordinates":[[120.1840373,23.0470743],[120.1841241,23.0469558],[120.1850677,23.0456675],[120.1863046,23.0439787],[120.1865434,23.0436526],[120.1867156,23.0432737],[120.1870429,23.0425533],[120.1873257,23.0419309],[120.1874366,23.0416869]]}},{"type":"Feature","properties":{"from":"\u81fa\u5357\u706b\u8eca\u7ad9","name":"10\u8def(\u6b63\u7dda_\u5f80\u7a0b)","public_transport:version":"2","ref":"10","route":"bus","to":"\u9e7f\u8033\u9580\u5929\u540e\u5bae","type":"route"},"geometry":{"type":"LineString","coordinates":[[120.1840373,23.0470743],[120.1839587,23.0471812]]}},{"type":"Feature","properties":{"from":"\u81fa\u5357\u706b\u8eca\u7ad9","name":"10\u8def(\u6b63\u7dda_\u5f80\u7a0b)","public_transport:version":"2","ref":"10","route":"bus","to":"\u9e7f\u8033\u9580\u5929\u540e\u5bae","type":"route"},"geometry":{"type":"LineString","coordinates":[[120.1839587,23.0471812],[120.1834681,23.0477336],[120.1832697,23.0479459],[120.1826612,23.0486601],[120.1819439,23.0494799],[120.181199,23.0503266],[120.1806498,23.0509717],[120.1799122,23.0517948]]}},{"type":"Feature","properties":{"from":"\u81fa\u5357\u706b\u8eca\u7ad9","name":"10\u8def(\u6b63\u7dda_\u5f80\u7a0b)","public_transport:version":"2","ref":"10","route":"bus","to":"\u9e7f\u8033\u9580\u5929\u540e\u5bae","type":"route"},"geometry":{"type":"LineString","coordinates":[[120.1799122,23.0517948],[120.179017,23.0514587],[120.1784116,23.0512315],[120.1777453,23.0509814],[120.1768212,23.0506631],[120.1764021,23.0505067],[120.1760475,23.0502159],[120.1754422,23.0497182]]}},{"type":"Feature","properties":{"from":"\u81fa\u5357\u706b\u8eca\u7ad9","name":"10\u8def(\u6b63\u7dda_\u5f80\u7a0b)","public_transport:version":"2","ref":"10","route":"bus","to":"\u9e7f\u8033\u9580\u5929\u540e\u5bae","type":"route"},"geometry":{"type":"LineString","coordinates":[[120.1754422,23.0497182],[120.1757286,23.0492532],[120.175936,23.0489163]]}},{"type":"Feature","properties":{"from":"\u81fa\u5357\u706b\u8eca\u7ad9","name":"10\u8def(\u6b63\u7dda_\u5f80\u7a0b)","public_transport:version":"2","ref":"10","route":"bus","to":"\u9e7f\u8033\u9580\u5929\u540e\u5bae","type":"route"},"geometry":{"type":"LineString","coordinates":[[120.175936,23.0489163],[120.1747706,23.0492161]]}},{"type":"Feature","properties":{"from":"\u81fa\u5357\u706b\u8eca\u7ad9","name":"10\u8def(\u6b63\u7dda_\u5f80\u7a0b)","public_transport:version":"2","ref":"10","route":"bus","to":"\u9e7f\u8033\u9580\u5929\u540e\u5bae","type":"route"},"geometry":{"type":"LineString","coordinates":[[120.1747588,23.049109],[120.1747706,23.0492161]]}},{"type":"Feature","properties":{"from":"\u81fa\u5357\u706b\u8eca\u7ad9","name":"10\u8def(\u6b63\u7dda_\u5f80\u7a0b)","public_transport:version":"2","ref":"10","route":"bus","to":"\u9e7f\u8033\u9580\u5929\u540e\u5bae","type":"route"},"geometry":{"type":"LineString","coordinates":[[120.1747706,23.0492161],[120.1746984,23.0493262],[120.1742936,23.049667],[120.1737238,23.0501638],[120.1735898,23.050559]]}},{"type":"Feature","properties":{"from":"\u81fa\u5357\u706b\u8eca\u7ad9","name":"10\u8def(\u6b63\u7dda_\u5f80\u7a0b)","public_transport:version":"2","ref":"10","route":"bus","to":"\u9e7f\u8033\u9580\u5929\u540e\u5bae","type":"route"},"geometry":{"type":"LineString","coordinates":[[120.1735898,23.050559],[120.1734442,23.0505539],[120.1719129,23.0494749],[120.1717425,23.0493429],[120.171445,23.0491124]]}},{"type":"Feature","properties":{"from":"\u81fa\u5357\u706b\u8eca\u7ad9","name":"10\u8def(\u6b63\u7dda_\u5f80\u7a0b)","public_transport:version":"2","ref":"10","route":"bus","to":"\u9e7f\u8033\u9580\u5929\u540e\u5bae","type":"route"},"geometry":{"type":"LineString","coordinates":[[120.171445,23.0491124],[120.1704463,23.0484361],[120.1704043,23.0484076],[120.16966,23.0479036],[120.1689195,23.0474021],[120.1685007,23.0471185],[120.1656336,23.0451769],[120.1609009,23.0419718],[120.16072,23.0418493]]}},{"type":"Feature","properties":{"from":"\u81fa\u5357\u706b\u8eca\u7ad9","name":"10\u8def(\u6b63\u7dda_\u5f80\u7a0b)","public_transport:version":"2","ref":"10","route":"bus","to":"\u9e7f\u8033\u9580\u5929\u540e\u5bae","type":"route"},"geometry":{"type":"LineString","coordinates":[[120.16072,23.0418493],[120.1604593,23.0416735]]}},{"type":"Feature","properties":{"from":"\u81fa\u5357\u706b\u8eca\u7ad9","name":"10\u8def(\u6b63\u7dda_\u5f80\u7a0b)","public_transport:version":"2","ref":"10","route":"bus","to":"\u9e7f\u8033\u9580\u5929\u540e\u5bae","type":"route"},"geometry":{"type":"LineString","coordinates":[[120.1604593,23.0416735],[120.1603543,23.0416034],[120.1584114,23.0403054],[120.1583022,23.0402325]]}},{"type":"Feature","properties":{"from":"\u81fa\u5357\u706b\u8eca\u7ad9","name":"10\u8def(\u6b63\u7dda_\u5f80\u7a0b)","public_transport:version":"2","ref":"10","route":"bus","to":"\u9e7f\u8033\u9580\u5929\u540e\u5bae","type":"route"},"geometry":{"type":"LineString","coordinates":[[120.1583022,23.0402325],[120.1580424,23.0401223],[120.1564133,23.0390283],[120.1562649,23.0389327],[120.1551483,23.0382137]]}},{"type":"Feature","properties":{"from":"\u81fa\u5357\u706b\u8eca\u7ad9","name":"10\u8def(\u6b63\u7dda_\u5f80\u7a0b)","public_transport:version":"2","ref":"10","route":"bus","to":"\u9e7f\u8033\u9580\u5929\u540e\u5bae","type":"route"},"geometry":{"type":"LineString","coordinates":[[120.1551483,23.0382137],[120.1542448,23.0388684]]}},{"type":"Feature","properties":{"from":"\u81fa\u5357\u706b\u8eca\u7ad9","name":"10\u8def(\u6b63\u7dda_\u5f80\u7a0b)","public_transport:version":"2","ref":"10","route":"bus","to":"\u9e7f\u8033\u9580\u5929\u540e\u5bae","type":"route"},"geometry":{"type":"LineString","coordinates":[[120.1542448,23.0388684],[120.1556431,23.04047],[120.1556727,23.0405938],[120.1556023,23.0407751],[120.1554974,23.0408759],[120.1526411,23.0429791]]}},{"type":"Feature","properties":{"from":"\u81fa\u5357\u706b\u8eca\u7ad9","name":"10\u8def(\u6b63\u7dda_\u5f80\u7a0b)","public_transport:version":"2","ref":"10","route":"bus","to":"\u9e7f\u8033\u9580\u5929\u540e\u5bae","type":"route"},"geometry":{"type":"LineString","coordinates":[[120.1526411,23.0429791],[120.1525201,23.0430588]]}},{"type":"Feature","properties":{"from":"\u81fa\u5357\u706b\u8eca\u7ad9","name":"10\u8def(\u6b63\u7dda_\u5f80\u7a0b)","public_transport:version":"2","ref":"10","route":"bus","to":"\u9e7f\u8033\u9580\u5929\u540e\u5bae","type":"route"},"geometry":{"type":"LineString","coordinates":[[120.1525201,23.0430588],[120.1487132,23.0458539],[120.1485073,23.0460081]]}},{"type":"Feature","properties":{"from":"\u81fa\u5357\u706b\u8eca\u7ad9","name":"10\u8def(\u6b63\u7dda_\u5f80\u7a0b)","public_transport:version":"2","ref":"10","route":"bus","to":"\u9e7f\u8033\u9580\u5929\u540e\u5bae","type":"route"},"geometry":{"type":"LineString","coordinates":[[120.1485073,23.0460081],[120.1481344,23.0462639]]}},{"type":"Feature","properties":{"from":"\u81fa\u5357\u706b\u8eca\u7ad9","name":"10\u8def(\u6b63\u7dda_\u5f80\u7a0b)","public_transport:version":"2","ref":"10","route":"bus","to":"\u9e7f\u8033\u9580\u5929\u540e\u5bae","type":"route"},"geometry":{"type":"LineString","coordinates":[[120.1481344,23.0462639],[120.1479001,23.0460267],[120.147785,23.0459612],[120.1476647,23.0459139],[120.1475183,23.0458667],[120.147378,23.0458178],[120.1472,23.0457455],[120.1470847,23.045645],[120.1462682,23.0446565],[120.146178,23.0445593]]}},{"type":"Feature","properties":{"from":"\u81fa\u5357\u706b\u8eca\u7ad9","name":"10\u8def(\u6b63\u7dda_\u5f80\u7a0b)","public_transport:version":"2","ref":"10","route":"bus","to":"\u9e7f\u8033\u9580\u5929\u540e\u5bae","type":"route"},"geometry":{"type":"LineString","coordinates":[[120.146178,23.0445593],[120.1471593,23.0439113],[120.1480525,23.043198],[120.1481064,23.043158],[120.1484359,23.0429137],[120.1500021,23.0417771],[120.1508993,23.0411293]]}},{"type":"Feature","properties":{"from":"\u81fa\u5357\u706b\u8eca\u7ad9","name":"10\u8def(\u6b63\u7dda_\u5f80\u7a0b)","public_transport:version":"2","ref":"10","route":"bus","to":"\u9e7f\u8033\u9580\u5929\u540e\u5bae","type":"route"},"geometry":{"type":"LineString","coordinates":[[120.1508993,23.0411293],[120.1510098,23.0410554],[120.1528518,23.0396937],[120.154168,23.0387805]]}},{"type":"Feature","properties":{"from":"\u81fa\u5357\u706b\u8eca\u7ad9","name":"10\u8def(\u6b63\u7dda_\u5f80\u7a0b)","public_transport:version":"2","ref":"10","route":"bus","to":"\u9e7f\u8033\u9580\u5929\u540e\u5bae","type":"route"},"geometry":{"type":"LineString","coordinates":[[120.154168,23.0387805],[120.1550293,23.0381351]]}},{"type":"Feature","properties":{"from":"\u81fa\u5357\u706b\u8eca\u7ad9","name":"10\u8def(\u6b63\u7dda_\u5f80\u7a0b)","public_transport:version":"2","ref":"10","route":"bus","to":"\u9e7f\u8033\u9580\u5929\u540e\u5bae","type":"route"},"geometry":{"type":"LineString","coordinates":[[120.1550293,23.0381351],[120.1535521,23.0371873],[120.1520979,23.0362201],[120.1520126,23.036163],[120.1519217,23.0361015],[120.1494554,23.0344786]]}},{"type":"Feature","properties":{"from":"\u81fa\u5357\u706b\u8eca\u7ad9","name":"10\u8def(\u6b63\u7dda_\u5f80\u7a0b)","public_transport:version":"2","ref":"10","route":"bus","to":"\u9e7f\u8033\u9580\u5929\u540e\u5bae","type":"route"},"geometry":{"type":"LineString","coordinates":[[120.1494554,23.0344786],[120.1493014,23.034685],[120.1487881,23.0352778]]}},{"type":"Feature","properties":{"from":"\u81fa\u5357\u706b\u8eca\u7ad9","name":"10\u8def(\u6b63\u7dda_\u5f80\u7a0b)","public_transport:version":"2","ref":"10","route":"bus","to":"\u9e7f\u8033\u9580\u5929\u540e\u5bae","type":"route"},"geometry":{"type":"LineString","coordinates":[[120.1487881,23.0352778],[120.1487238,23.0352231]]}},{"type":"Feature","properties":{"from":"\u81fa\u5357\u706b\u8eca\u7ad9","name":"10\u8def(\u6b63\u7dda_\u5f80\u7a0b)","public_transport:version":"2","ref":"10","route":"bus","to":"\u9e7f\u8033\u9580\u5929\u540e\u5bae","type":"route"},"geometry":{"type":"LineString","coordinates":[[120.1487238,23.0352231],[120.1474709,23.0343738],[120.1474139,23.0343352],[120.1473538,23.0342947],[120.146731,23.0338749],[120.146216,23.0335802],[120.1456567,23.0333194],[120.1450207,23.0330834],[120.1449283,23.0330588],[120.1443502,23.0329088],[120.1442036,23.0328779],[120.1437983,23.0327924],[120.1435164,23.0327509],[120.1420049,23.0325285],[120.1419444,23.0325242],[120.141697,23.0325145],[120.1413364,23.0325004],[120.1397085,23.0324365],[120.1396438,23.032434],[120.1380149,23.0323841]]}},{"type":"Feature","properties":{"from":"\u81fa\u5357\u706b\u8eca\u7ad9","name":"10\u8def(\u6b63\u7dda_\u5f80\u7a0b)","public_transport:version":"2","ref":"10","route":"bus","to":"\u9e7f\u8033\u9580\u5929\u540e\u5bae","type":"route"},"geometry":{"type":"LineString","coordinates":[[120.1380149,23.0323841],[120.137861,23.0324092]]}},{"type":"Feature","properties":{"from":"\u81fa\u5357\u706b\u8eca\u7ad9","name":"10\u8def(\u6b63\u7dda_\u5f80\u7a0b)","public_transport:version":"2","ref":"10","route":"bus","to":"\u9e7f\u8033\u9580\u5929\u540e\u5bae","type":"route"},"geometry":{"type":"LineString","coordinates":[[120.137861,23.0324092],[120.1378464,23.0323396],[120.1377221,23.0314183],[120.1375094,23.0302873],[120.1375393,23.0301341]]}},{"type":"Feature","properties":{"from":"\u81fa\u5357\u706b\u8eca\u7ad9","name":"10\u8def(\u6b63\u7dda_\u5f80\u7a0b)","public_transport:version":"2","ref":"10","route":"bus","to":"\u9e7f\u8033\u9580\u5929\u540e\u5bae","type":"route"},"geometry":{"type":"LineString","coordinates":[[120.1375393,23.0301341],[120.1376587,23.0301659],[120.1381727,23.0303026]]}},{"type":"Feature","properties":{"from":"\u81fa\u5357\u706b\u8eca\u7ad9","name":"10\u8def(\u6b63\u7dda_\u5f80\u7a0b)","public_transport:version":"2","ref":"10","route":"bus","to":"\u9e7f\u8033\u9580\u5929\u540e\u5bae","type":"route"},"geometry":{"type":"LineString","coordinates":[[120.1381727,23.0303026],[120.1379296,23.0299032],[120.1374256,23.0265652]]}},{"type":"Feature","properties":{"from":"\u81fa\u5357\u706b\u8eca\u7ad9","name":"10\u8def(\u6b63\u7dda_\u5f80\u7a0b)","public_transport:version":"2","ref":"10","route":"bus","to":"\u9e7f\u8033\u9580\u5929\u540e\u5bae","type":"route"},"geometry":{"type":"LineString","coordinates":[[120.1374256,23.0265652],[120.1365718,23.0210377],[120.1365122,23.0206515],[120.1363482,23.0196378],[120.1362815,23.0195131],[120.136178,23.0194488],[120.1358109,23.0193675],[120.1355607,23.019326],[120.1348405,23.0192589],[120.1347007,23.0192458],[120.1346016,23.0192366],[120.1344207,23.0191979],[120.1339726,23.0190326],[120.1326753,23.0185765],[120.1325772,23.0185059]]}},{"type":"Feature","properties":{"from":"\u81fa\u5357\u706b\u8eca\u7ad9","name":"10\u8def(\u6b63\u7dda_\u5f80\u7a0b)","public_transport:version":"2","ref":"10","route":"bus","to":"\u9e7f\u8033\u9580\u5929\u540e\u5bae","type":"route"},"geometry":{"type":"LineString","coordinates":[[120.1325772,23.0185059],[120.1324486,23.0184502],[120.1322846,23.0184107]]}},{"type":"Feature","properties":{"from":"\u81fa\u5357\u706b\u8eca\u7ad9","name":"10\u8def(\u6b63\u7dda_\u5f80\u7a0b)","public_transport:version":"2","ref":"10","route":"bus","to":"\u9e7f\u8033\u9580\u5929\u540e\u5bae","type":"route"},"geometry":{"type":"LineString","coordinates":[[120.1322846,23.0184107],[120.1318354,23.0182741],[120.1315224,23.018179],[120.1309699,23.0180886],[120.1302188,23.017946],[120.1298862,23.017872],[120.1295764,23.0178078],[120.129453,23.017772],[120.1293712,23.017735],[120.1286568,23.0170582],[120.128369,23.016816]]}},{"type":"Feature","properties":{"from":"\u81fa\u5357\u706b\u8eca\u7ad9","name":"10\u8def(\u6b63\u7dda_\u5f80\u7a0b)","public_transport:version":"2","ref":"10","route":"bus","to":"\u9e7f\u8033\u9580\u5929\u540e\u5bae","type":"route"},"geometry":{"type":"LineString","coordinates":[[120.128369,23.016816],[120.1275215,23.01749],[120.1267835,23.0181643],[120.1265917,23.0183533],[120.1264431,23.0184652],[120.1262775,23.0185766],[120.1261997,23.01867],[120.1261452,23.0188436],[120.1260922,23.0189121],[120.1257341,23.0192391],[120.1247135,23.0201722],[120.1245968,23.0202315],[120.1239943,23.0203814],[120.1239165,23.0204123],[120.123821,23.020548]]}},{"type":"Feature","properties":{"from":"\u81fa\u5357\u706b\u8eca\u7ad9","name":"10\u8def(\u6b63\u7dda_\u5f80\u7a0b)","public_transport:version":"2","ref":"10","route":"bus","to":"\u9e7f\u8033\u9580\u5929\u540e\u5bae","type":"route"},"geometry":{"type":"LineString","coordinates":[[120.123821,23.020548],[120.1239293,23.0208381],[120.1240441,23.021122],[120.124223,23.0218589],[120.1243035,23.0222403],[120.1243517,23.0224353],[120.1243837,23.0226138],[120.1243705,23.0226957],[120.1243308,23.0227855],[120.1241577,23.0229625],[120.123936,23.0231759],[120.1237164,23.0233911],[120.1232775,23.0237967],[120.1228485,23.0241715],[120.1224283,23.0246592],[120.1223682,23.0247199],[120.1223356,23.024764],[120.1221974,23.0247169],[120.1221157,23.0246763]]}},{"type":"Feature","properties":{"from":"\u81fa\u5357\u706b\u8eca\u7ad9","name":"10\u8def(\u6b63\u7dda_\u5f80\u7a0b)","public_transport:version":"2","ref":"10","route":"bus","to":"\u9e7f\u8033\u9580\u5929\u540e\u5bae","type":"route"},"geometry":{"type":"LineString","coordinates":[[120.1221157,23.0246763],[120.1219932,23.0257024],[120.1220073,23.0261227],[120.122037,23.0264778],[120.1220992,23.0268201],[120.12223,23.027297],[120.1223287,23.0275641],[120.1225101,23.027986],[120.1227004,23.0283482],[120.1232084,23.029243],[120.1234758,23.0296374],[120.1254918,23.0328487],[120.1256448,23.0330778],[120.1257315,23.0331757]]}},{"type":"Feature","properties":{"from":"\u81fa\u5357\u706b\u8eca\u7ad9","name":"10\u8def(\u6b63\u7dda_\u5f80\u7a0b)","public_transport:version":"2","ref":"10","route":"bus","to":"\u9e7f\u8033\u9580\u5929\u540e\u5bae","type":"route"},"geometry":{"type":"LineString","coordinates":[[120.1257315,23.0331757],[120.1263787,23.0342043],[120.1271484,23.0354311],[120.127422,23.035789],[120.1275734,23.0359615]]}},{"type":"Feature","properties":{"from":"\u81fa\u5357\u706b\u8eca\u7ad9","name":"10\u8def(\u6b63\u7dda_\u5f80\u7a0b)","public_transport:version":"2","ref":"10","route":"bus","to":"\u9e7f\u8033\u9580\u5929\u540e\u5bae","type":"route"},"geometry":{"type":"LineString","coordinates":[[120.1275734,23.0359615],[120.1280986,23.0364191],[120.1286109,23.0369177],[120.1290575,23.0373299],[120.1294049,23.0376853],[120.1297804,23.0382135],[120.1301331,23.0388183],[120.1307674,23.0399117],[120.1311062,23.0404275]]}},{"type":"Feature","properties":{"from":"\u81fa\u5357\u706b\u8eca\u7ad9","name":"10\u8def(\u6b63\u7dda_\u5f80\u7a0b)","public_transport:version":"2","ref":"10","route":"bus","to":"\u9e7f\u8033\u9580\u5929\u540e\u5bae","type":"route"},"geometry":{"type":"LineString","coordinates":[[120.1311062,23.0404275],[120.1309933,23.0404883]]}},{"type":"Feature","properties":{"from":"\u81fa\u5357\u706b\u8eca\u7ad9","name":"10\u8def(\u6b63\u7dda_\u5f80\u7a0b)","public_transport:version":"2","ref":"10","route":"bus","to":"\u9e7f\u8033\u9580\u5929\u540e\u5bae","type":"route"},"geometry":{"type":"LineString","coordinates":[[120.1309933,23.0404883],[120.1303175,23.0401813],[120.1295613,23.0397289],[120.1284753,23.0390139],[120.128263,23.0388698],[120.1280826,23.0387689],[120.1278692,23.0387105],[120.1275752,23.0386394],[120.1272773,23.0385674],[120.1271533,23.0385262],[120.1270486,23.0384914],[120.126886,23.0384154],[120.1267272,23.0382918],[120.1265828,23.0381794],[120.1264507,23.0379837],[120.1262919,23.0378294],[120.1259259,23.0375355],[120.125827,23.0374721],[120.1256456,23.0373806],[120.1254909,23.0373276],[120.1249303,23.0370982],[120.1249195,23.0370072],[120.1249571,23.0367085]]}},{"type":"Feature","properties":{"bus":"yes","highway":"bus_stop","name":"\u9e7f\u8033\u9580\u5929\u540e\u5bae","name:en":"Luermen-Ma Temple","name:zh":"\u9e7f\u8033\u9580\u5929\u540e\u5bae","network":"\u81fa\u5357\u5e02\u516c\u8eca","operator":"\u81fa\u5357\u5e02\u516c\u8eca","public_transport":"platform","ref":"1000"},"geometry":{"type":"Point","coordinates":[120.1249445,23.037006]}},{"type":"Feature","properties":{"bus":"yes","highway":"bus_stop","name":"\u5abd\u7956\u5bae","network":"\u81fa\u5357\u5e02\u516c\u8eca","operator":"\u81fa\u5357\u5e02\u516c\u8eca","public_transport":"platform"},"geometry":{"type":"Point","coordinates":[120.1275833,23.0385972]}},{"type":"Feature","properties":{"bus":"yes","highway":"bus_stop","name":"\u986f\u5bae\u6d3e\u51fa\u6240","network":"\u81fa\u5357\u5e02\u516c\u8eca","operator":"\u81fa\u5357\u5e02\u516c\u8eca","public_transport":"platform"},"geometry":{"type":"Point","coordinates":[120.1296623,23.0397598]}},{"type":"Feature","properties":{"bus":"yes","highway":"bus_stop","name":"\u9e7f\u8033\u9580\u6a4b","network":"\u81fa\u5357\u5e02\u516c\u8eca","operator":"\u81fa\u5357\u5e02\u516c\u8eca","public_transport":"platform"},"geometry":{"type":"Point","coordinates":[120.1280279,23.0366659]}},{"type":"Feature","properties":{"bus":"yes","highway":"bus_stop","name":"\u56db\u8349\u8def\u53e3","network":"\u81fa\u5357\u5e02\u516c\u8eca","operator":"\u81fa\u5357\u5e02\u516c\u8eca","public_transport":"platform"},"geometry":{"type":"Point","coordinates":[120.1244724,23.0202155]}},{"type":"Feature","properties":{"bus":"yes","highway":"bus_stop","name":"\u5d19\u4ed4\u8173","network":"\u81fa\u5357\u5e02\u516c\u8eca","operator":"\u81fa\u5357\u5e02\u516c\u8eca","public_transport":"platform"},"geometry":{"type":"Point","coordinates":[120.1264288,23.0183787]}},{"type":"Feature","properties":{"bus":"yes","highway":"bus_stop","name":"\u56db\u8349","network":"\u81fa\u5357\u5e02\u516c\u8eca","operator":"\u81fa\u5357\u5e02\u516c\u8eca","public_transport":"platform"},"geometry":{"type":"Point","coordinates":[120.1285884,23.0169294]}},{"type":"Feature","properties":{"bus":"yes","highway":"bus_stop","name":"\u5927\u793e\u89d2","network":"\u81fa\u5357\u5e02\u516c\u8eca","operator":"\u81fa\u5357\u5e02\u516c\u8eca","public_transport":"platform"},"geometry":{"type":"Point","coordinates":[120.1310709,23.018081]}},{"type":"Feature","properties":{"bus":"yes","highway":"bus_stop","name":"\u56db\u8349\u751f\u614b\u6587\u5316\u5712\u5340(\u5927\u773e\u5edf)","network":"\u81fa\u5357\u5e02\u516c\u8eca","operator":"\u81fa\u5357\u5e02\u516c\u8eca","public_transport":"platform"},"geometry":{"type":"Point","coordinates":[120.1347029,23.0191992]}},{"type":"Feature","properties":{"bus":"yes","highway":"bus_stop","name":"\u56db\u8349\u91ce\u751f\u52d5\u7269\u4fdd\u8b77\u5340","network":"\u81fa\u5357\u5e02\u516c\u8eca","operator":"\u81fa\u5357\u5e02\u516c\u8eca","public_transport":"platform"},"geometry":{"type":"Point","coordinates":[120.1374695,23.0264409]}},{"type":"Feature","properties":{"bus":"yes","highway":"bus_stop","name":"\u7d05\u6a39\u6797\u793e\u5340","network":"\u81fa\u5357\u5e02\u516c\u8eca","operator":"\u81fa\u5357\u5e02\u516c\u8eca","public_transport":"platform"},"geometry":{"type":"Point","coordinates":[120.1401266,23.0324104]}},{"type":"Feature","properties":{"bus":"yes","highway":"bus_stop","name":"\u9e7d\u7530\u793e\u5340","network":"\u81fa\u5357\u5e02\u516c\u8eca","operator":"\u81fa\u5357\u5e02\u516c\u8eca","public_transport":"platform"},"geometry":{"type":"Point","coordinates":[120.1453547,23.0331546]}},{"type":"Feature","properties":{"bus":"yes","highway":"bus_stop","name":"\u9e7d\u7530\u8def","network":"\u81fa\u5357\u5e02\u516c\u8eca","operator":"\u81fa\u5357\u5e02\u516c\u8eca","public_transport":"platform"},"geometry":{"type":"Point","coordinates":[120.1476324,23.0344585]}},{"type":"Feature","properties":{"bus":"yes","highway":"bus_stop","name":"\u5de5\u696d\u4e09\u8def\u53e3","network":"\u81fa\u5357\u5e02\u516c\u8eca","operator":"\u81fa\u5357\u5e02\u516c\u8eca","public_transport":"platform"},"geometry":{"type":"Point","coordinates":[120.1533888,23.0367964]}},{"type":"Feature","properties":{"bus":"yes","highway":"bus_stop","name":"\u81fa\u5357\u79d1\u5de5\u5340\u670d\u52d9\u4e2d\u5fc3","network":"\u81fa\u5357\u5e02\u516c\u8eca","operator":"\u81fa\u5357\u5e02\u516c\u8eca","public_transport":"platform"},"geometry":{"type":"Point","coordinates":[120.1481543,23.0449443]}},{"type":"Feature","properties":{"bus":"yes","highway":"bus_stop","name":"\u79d1\u6280\u4e00\u8def","network":"\u81fa\u5357\u5e02\u516c\u8eca","operator":"\u81fa\u5357\u5e02\u516c\u8eca","public_transport":"platform"},"geometry":{"type":"Point","coordinates":[120.1529771,23.0425282]}},{"type":"Feature","properties":{"bus":"yes","highway":"bus_stop","name":"\u5de5\u696d\u4e8c\u8def\u53e3","network":"\u81fa\u5357\u5e02\u516c\u8eca","operator":"\u81fa\u5357\u5e02\u516c\u8eca","public_transport":"platform"},"geometry":{"type":"Point","coordinates":[120.1560408,23.0386059]}},{"type":"Feature","properties":{"bus":"yes","highway":"bus_stop","name":"\u81fa\u5357\u9e7d\u5834","network":"\u81fa\u5357\u5e02\u516c\u8eca","operator":"\u81fa\u5357\u5e02\u516c\u8eca","public_transport":"platform"},"geometry":{"type":"Point","coordinates":[120.1601582,23.0414063]}},{"type":"Feature","properties":{"bus":"yes","highway":"bus_stop","name":"\u4e2d\u592e\u96fb\u53f0","network":"\u81fa\u5357\u5e02\u516c\u8eca","operator":"\u81fa\u5357\u5e02\u516c\u8eca","public_transport":"platform"},"geometry":{"type":"Point","coordinates":[120.1683816,23.0470492]}},{"type":"Feature","properties":{"bus":"yes","highway":"bus_stop","name":"\u672c\u6df5\u5bee","network":"\u81fa\u5357\u5e02\u516c\u8eca","operator":"\u81fa\u5357\u5e02\u516c\u8eca","public_transport":"platform"},"geometry":{"type":"Point","coordinates":[120.171763,23.0493163]}},{"type":"Feature","properties":{"bus":"yes","highway":"bus_stop","name":"\u672c\u6df5\u5e02\u5834","network":"\u81fa\u5357\u5e02\u516c\u8eca","operator":"\u81fa\u5357\u5e02\u516c\u8eca","public_transport":"platform"},"geometry":{"type":"Point","coordinates":[120.1735602,23.0502164]}},{"type":"Feature","properties":{"bus":"yes","highway":"bus_stop","name":"\u5b89\u5357\u885b\u751f\u6240","network":"\u81fa\u5357\u5e02\u516c\u8eca","operator":"\u81fa\u5357\u5e02\u516c\u8eca","public_transport":"platform"},"geometry":{"type":"Point","coordinates":[120.1759123,23.0500596]}},{"type":"Feature","properties":{"bus":"yes","highway":"bus_stop","name":"\u4ec1\u5b89\u8def","network":"\u81fa\u5357\u5e02\u516c\u8eca","operator":"\u81fa\u5357\u5e02\u516c\u8eca","public_transport":"platform"},"geometry":{"type":"Point","coordinates":[120.178514,23.0512211]}},{"type":"Feature","properties":{"bus":"yes","highway":"bus_stop","name":"\u4ec1\u5b89\u56db\u8857\u53e3","network":"\u81fa\u5357\u5e02\u516c\u8eca","operator":"\u81fa\u5357\u5e02\u516c\u8eca","public_transport":"platform"},"geometry":{"type":"Point","coordinates":[120.1809078,23.050496]}},{"type":"Feature","properties":{"bus":"yes","highway":"bus_stop","name":"\u6d77\u4f43\u8def\u4e09\u6bb5","network":"\u81fa\u5357\u5e02\u516c\u8eca","operator":"\u81fa\u5357\u5e02\u516c\u8eca","public_transport":"platform"},"geometry":{"type":"Point","coordinates":[120.1832966,23.0477477]}},{"type":"Feature","properties":{"bus":"yes","highway":"bus_stop","name":"\u6eaa\u5fc3\u91cc","network":"\u81fa\u5357\u5e02\u516c\u8eca","operator":"\u81fa\u5357\u5e02\u516c\u8eca","public_transport":"platform"},"geometry":{"type":"Point","coordinates":[120.1857598,23.0445078]}},{"type":"Feature","properties":{"bus":"yes","highway":"bus_stop","name":"\u5357\u6d77\u5c3e","network":"\u81fa\u5357\u5e02\u516c\u8eca","operator":"\u81fa\u5357\u5e02\u516c\u8eca","public_transport":"platform"},"geometry":{"type":"Point","coordinates":[120.1870219,23.042348]}},{"type":"Feature","properties":{"bus":"yes","highway":"bus_stop","name":"\u6d77\u6771\u91cc","network":"\u81fa\u5357\u5e02\u516c\u8eca","operator":"\u81fa\u5357\u5e02\u516c\u8eca","public_transport":"platform"},"geometry":{"type":"Point","coordinates":[120.1877233,23.0392308]}},{"type":"Feature","properties":{"bus":"yes","highway":"bus_stop","name":"\u540c\u5b89\u8def\u53e3","network":"\u81fa\u5357\u5e02\u516c\u8eca","operator":"\u81fa\u5357\u5e02\u516c\u8eca","public_transport":"platform"},"geometry":{"type":"Point","coordinates":[120.1880383,23.0381297]}},{"type":"Feature","properties":{"bus":"yes","highway":"bus_stop","name":"\u6d77\u5c3e\u524d","network":"\u81fa\u5357\u5e02\u516c\u8eca","operator":"\u81fa\u5357\u5e02\u516c\u8eca","public_transport":"platform"},"geometry":{"type":"Point","coordinates":[120.1887507,23.0358907]}},{"type":"Feature","properties":{"bus":"yes","highway":"bus_stop","name":"\u7406\u60f3\u793e\u5340","network":"\u81fa\u5357\u5e02\u516c\u8eca","operator":"\u81fa\u5357\u5e02\u516c\u8eca","public_transport":"platform"},"geometry":{"type":"Point","coordinates":[120.1897889,23.0327461]}},{"type":"Feature","properties":{"bus":"yes","highway":"bus_stop","name":"\u6d77\u6771\u6a4b","network":"\u81fa\u5357\u5e02\u516c\u8eca","operator":"\u81fa\u5357\u5e02\u516c\u8eca","public_transport":"platform"},"geometry":{"type":"Point","coordinates":[120.1901479,23.0304326]}},{"type":"Feature","properties":{"bus":"yes","highway":"bus_stop","name":"\u4e2d\u83ef\u793e\u5340","network":"\u81fa\u5357\u5e02\u516c\u8eca","operator":"\u81fa\u5357\u5e02\u516c\u8eca","public_transport":"platform"},"geometry":{"type":"Point","coordinates":[120.1907151,23.0275363]}},{"type":"Feature","properties":{"bus":"yes","highway":"bus_stop","name":"\u6d77\u4f43\u8def\u4e00\u6bb5","network":"\u81fa\u5357\u5e02\u516c\u8eca","operator":"\u81fa\u5357\u5e02\u516c\u8eca","public_transport":"platform"},"geometry":{"type":"Point","coordinates":[120.1911975,23.0255181]}},{"type":"Feature","properties":{"bus":"yes","highway":"bus_stop","name":"\u5354\u6210\u793e\u5340","network":"\u81fa\u5357\u5e02\u516c\u8eca","operator":"\u81fa\u5357\u5e02\u516c\u8eca","public_transport":"platform"},"geometry":{"type":"Point","coordinates":[120.1916768,23.0231374]}},{"type":"Feature","properties":{"bus":"yes","highway":"bus_stop","name":"\u6eaa\u4ed4\u5898\u793e\u5340","network":"\u81fa\u5357\u5e02\u516c\u8eca","operator":"\u81fa\u5357\u5e02\u516c\u8eca","public_transport":"platform","ref":"0357"},"geometry":{"type":"Point","coordinates":[120.1921817,23.0206428]}},{"type":"Feature","properties":{"bus":"yes","highway":"bus_stop","name":"\u6587\u5143\u5bee","network":"\u81fa\u5357\u5e02\u516c\u8eca","operator":"\u81fa\u5357\u5e02\u516c\u8eca","public_transport":"platform"},"geometry":{"type":"Point","coordinates":[120.1934906,23.0152619]}},{"type":"Feature","properties":{"bus":"yes","highway":"bus_stop","name":"\u5927\u8208\u8857\u53e3","network":"\u81fa\u5357\u5e02\u516c\u8eca","operator":"\u81fa\u5357\u5e02\u516c\u8eca","public_transport":"platform"},"geometry":{"type":"Point","coordinates":[120.1936702,23.0136301]}},{"type":"Feature","properties":{"bus":"yes","highway":"bus_stop","name":"\u7279\u529b\u5c4b\/\u597d\u5e02\u591a","network":"\u81fa\u5357\u5e02\u516c\u8eca","operator":"\u81fa\u5357\u5e02\u516c\u8eca","public_transport":"platform"},"geometry":{"type":"Point","coordinates":[120.193725,23.0102669]}},{"type":"Feature","properties":{"bus":"yes","highway":"bus_stop","name":"\u548c\u7def\u8def\u56db\u6bb5","network":"\u81fa\u5357\u5e02\u516c\u8eca","operator":"\u81fa\u5357\u5e02\u516c\u8eca","public_transport":"platform"},"geometry":{"type":"Point","coordinates":[120.1917113,23.0093386]}},{"type":"Feature","properties":{"bus":"yes","highway":"bus_stop","name":"\u6b66\u8056\u8def\u53e3","network":"\u81fa\u5357\u5e02\u516c\u8eca","operator":"\u81fa\u5357\u5e02\u516c\u8eca","public_transport":"platform"},"geometry":{"type":"Point","coordinates":[120.1872926,23.0074022]}},{"type":"Feature","properties":{"bus":"yes","highway":"bus_stop","name":"\u4e2d\u83ef\u897f\u8def\u4e8c\u6bb5","network":"\u81fa\u5357\u5e02\u516c\u8eca","operator":"\u81fa\u5357\u5e02\u516c\u8eca","public_transport":"platform"},"geometry":{"type":"Point","coordinates":[120.1864391,23.0051158]}},{"type":"Feature","properties":{"bus":"yes","highway":"bus_stop","name":"\u6e56\u7f8e\u8857\u53e3","network":"\u81fa\u5357\u5e02\u516c\u8eca","operator":"\u81fa\u5357\u5e02\u516c\u8eca","public_transport":"platform"},"geometry":{"type":"Point","coordinates":[120.1867709,23.0030957]}},{"type":"Feature","properties":{"bus":"yes","highway":"bus_stop","name":"\u6c11\u6b0a\u8def\u53e3","network":"\u81fa\u5357\u5e02\u516c\u8eca","operator":"\u81fa\u5357\u5e02\u516c\u8eca","public_transport":"platform"},"geometry":{"type":"Point","coordinates":[120.1866182,22.9995892]}},{"type":"Feature","properties":{"bus":"yes","highway":"bus_stop","name":"\u505c\u4e8c\u505c\u8eca\u5834","network":"\u81fa\u5357\u5e02\u516c\u8eca","operator":"\u81fa\u5357\u5e02\u516c\u8eca","public_transport":"platform"},"geometry":{"type":"Point","coordinates":[120.1862032,22.9961489]}},{"type":"Feature","properties":{"bench":"no","bus":"yes","highway":"bus_stop","name":"\u6c38\u83ef\u5e02\u653f\u4e2d\u5fc3(\u5e9c\u524d\u8def)","network":"\u81fa\u5357\u5e02\u516c\u8eca","operator":"\u81fa\u5357\u5e02\u516c\u8eca","public_transport":"platform","ref":"1430","shelter":"no"},"geometry":{"type":"Point","coordinates":[120.1851385,22.993072]}},{"type":"Feature","properties":{"bus":"yes","highway":"bus_stop","name":"\u4e8c\u4e8c\u516b\u516c\u5712","network":"\u81fa\u5357\u5e02\u516c\u8eca","operator":"\u81fa\u5357\u5e02\u516c\u8eca","public_transport":"platform"},"geometry":{"type":"Point","coordinates":[120.1826793,22.9911505]}},{"type":"Feature","properties":{"bench":"yes","bus":"yes","highway":"bus_stop","name":"\u5357\u53f0\u5225\u9662","network":"\u81fa\u5357\u5e02\u516c\u8eca","operator":"\u81fa\u5357\u5e02\u516c\u8eca","public_transport":"platform","shelter":"yes"},"geometry":{"type":"Point","coordinates":[120.1829115,22.9894576]}},{"type":"Feature","properties":{"bus":"yes","highway":"bus_stop","name":"\u5bb6\u6a02\u798f","network":"\u81fa\u5357\u5e02\u516c\u8eca","operator":"\u81fa\u5357\u5e02\u516c\u8eca","public_transport":"platform","ref":"0666"},"geometry":{"type":"Point","coordinates":[120.1876014,22.9887598]}},{"type":"Feature","properties":{"bench":"yes","bus":"yes","highway":"bus_stop","name":"\u6587\u5357\u8def\u53e3","network":"\u81fa\u5357\u5e02\u516c\u8eca","operator":"\u81fa\u5357\u5e02\u516c\u8eca","public_transport":"platform","ref":"0667","shelter":"yes"},"geometry":{"type":"Point","coordinates":[120.189694,22.9885297]}},{"type":"Feature","properties":{"bench":"yes","bus":"yes","highway":"bus_stop","name":"\u6c34\u840d\u586d\u516c\u5712(\u6c38\u83ef\u8def)","network":"\u81fa\u5357\u5e02\u516c\u8eca","operator":"\u81fa\u5357\u5e02\u516c\u8eca","public_transport":"platform","ref":"5103","shelter":"yes"},"geometry":{"type":"Point","coordinates":[120.1927405,22.987951]}},{"type":"Feature","properties":{"bench":"yes","bus":"yes","highway":"bus_stop","name":"\u6c38\u83ef\u7ad9","network":"\u81fa\u5357\u5e02\u516c\u8eca","operator":"\u81fa\u5357\u5e02\u516c\u8eca","public_transport":"platform","ref":"1043","shelter":"no"},"geometry":{"type":"Point","coordinates":[120.1966855,22.9873472]}},{"type":"Feature","properties":{"bench":"yes","bus":"yes","highway":"bus_stop","name":"\u5c0f\u897f\u9580(\u5927\u5104\u9e97\u7dfb)","network":"\u81fa\u5357\u5e02\u516c\u8eca","operator":"\u81fa\u5357\u5e02\u516c\u8eca","public_transport":"platform","ref":"9281","shelter":"no"},"geometry":{"type":"Point","coordinates":[120.1975906,22.9888382]}},{"type":"Feature","properties":{"bench":"no","bus":"yes","highway":"bus_stop","name":"\u897f\u9580\u3001\u53cb\u611b\u8857\u53e3","name:en":"Intersection of Simen Rd. & Youai St.","network":"\u81fa\u5357\u5e02\u516c\u8eca","operator":"\u81fa\u5357\u5e02\u516c\u8eca","public_transport":"platform","ref":"9205","shelter":"no"},"geometry":{"type":"Point","coordinates":[120.198188,22.9914232]}},{"type":"Feature","properties":{"bus":"yes","highway":"bus_stop","name":"\u4e2d\u83ef\u96fb\u4fe1","network":"\u81fa\u5357\u5e02\u516c\u8eca","operator":"\u81fa\u5357\u5e02\u516c\u8eca","public_transport":"platform"},"geometry":{"type":"Point","coordinates":[120.2027141,22.9933243]}},{"type":"Feature","properties":{"bus":"yes","highway":"bus_stop","name":"\u6c11\u751f\u7da0\u5712","network":"\u81fa\u5357\u5e02\u516c\u8eca","operator":"\u81fa\u5357\u5e02\u516c\u8eca","public_transport":"platform","ref":"0285"},"geometry":{"type":"Point","coordinates":[120.206068,22.9930896]}},{"type":"Feature","properties":{"bus":"yes","highway":"bus_stop","name":"\u4e2d\u5c71\u3001\u6c11\u6b0a\u8def\u53e3","network":"\u81fa\u5357\u5e02\u516c\u8eca","operator":"\u81fa\u5357\u5e02\u516c\u8eca","public_transport":"platform"},"geometry":{"type":"Point","coordinates":[120.2070652,22.9937357]}},{"type":"Feature","properties":{"bench":"no","bus":"yes","highway":"bus_stop","name":"\u53f0\u5357\u91ab\u9662","network":"\u81fa\u5357\u5e02\u516c\u8eca","operator":"\u81fa\u5357\u5e02\u516c\u8eca","public_transport":"platform","shelter":"no"},"geometry":{"type":"Point","coordinates":[120.2093875,22.9952946]}},{"type":"Feature","properties":{"from":"\u9e7f\u8033\u9580\u5929\u540e\u5bae","name":"10\u8def(\u6b63\u7dda_\u8fd4\u7a0b)","public_transport:version":"2","ref":"10","route":"bus","to":"\u81fa\u5357\u706b\u8eca\u7ad9","type":"route"},"geometry":{"type":"LineString","coordinates":[[120.1309933,23.0404883],[120.1303175,23.0401813],[120.1295613,23.0397289],[120.1284753,23.0390139],[120.128263,23.0388698],[120.1280826,23.0387689],[120.1278692,23.0387105],[120.1275752,23.0386394],[120.1272773,23.0385674],[120.1271533,23.0385262],[120.1270486,23.0384914],[120.126886,23.0384154],[120.1267272,23.0382918],[120.1265828,23.0381794],[120.1264507,23.0379837],[120.1262919,23.0378294],[120.1259259,23.0375355],[120.125827,23.0374721],[120.1256456,23.0373806],[120.1254909,23.0373276],[120.1249303,23.0370982],[120.1249195,23.0370072],[120.1249571,23.0367085]]}},{"type":"Feature","properties":{"from":"\u9e7f\u8033\u9580\u5929\u540e\u5bae","name":"10\u8def(\u6b63\u7dda_\u8fd4\u7a0b)","public_transport:version":"2","ref":"10","route":"bus","to":"\u81fa\u5357\u706b\u8eca\u7ad9","type":"route"},"geometry":{"type":"LineString","coordinates":[[120.1309933,23.0404883],[120.1307081,23.0400331],[120.1300563,23.0389815],[120.1296406,23.0382459],[120.129308,23.037767],[120.1288882,23.037324],[120.1279816,23.0365082],[120.1274836,23.0360439]]}},{"type":"Feature","properties":{"from":"\u9e7f\u8033\u9580\u5929\u540e\u5bae","name":"10\u8def(\u6b63\u7dda_\u8fd4\u7a0b)","public_transport:version":"2","ref":"10","route":"bus","to":"\u81fa\u5357\u706b\u8eca\u7ad9","type":"route"},"geometry":{"type":"LineString","coordinates":[[120.1274836,23.0360439],[120.1271974,23.0357243],[120.1270163,23.0354416],[120.1265314,23.0346652],[120.1262586,23.0342634],[120.125613,23.0332556]]}},{"type":"Feature","properties":{"from":"\u9e7f\u8033\u9580\u5929\u540e\u5bae","name":"10\u8def(\u6b63\u7dda_\u8fd4\u7a0b)","public_transport:version":"2","ref":"10","route":"bus","to":"\u81fa\u5357\u706b\u8eca\u7ad9","type":"route"},"geometry":{"type":"LineString","coordinates":[[120.125613,23.0332556],[120.1255349,23.0331368]]}},{"type":"Feature","properties":{"from":"\u9e7f\u8033\u9580\u5929\u540e\u5bae","name":"10\u8def(\u6b63\u7dda_\u8fd4\u7a0b)","public_transport:version":"2","ref":"10","route":"bus","to":"\u81fa\u5357\u706b\u8eca\u7ad9","type":"route"},"geometry":{"type":"LineString","coordinates":[[120.1255349,23.0331368],[120.1254003,23.0329233],[120.1233645,23.0297134],[120.1231228,23.0293368],[120.1226726,23.0286173],[120.1225488,23.0284195],[120.1223405,23.0280351],[120.1221476,23.0275922],[120.1220456,23.0272565],[120.1219982,23.0270562],[120.1219368,23.0267972],[120.1218809,23.0264287],[120.1218453,23.0260712],[120.1218508,23.0257101],[120.1219518,23.024623]]}},{"type":"Feature","properties":{"from":"\u9e7f\u8033\u9580\u5929\u540e\u5bae","name":"10\u8def(\u6b63\u7dda_\u8fd4\u7a0b)","public_transport:version":"2","ref":"10","route":"bus","to":"\u81fa\u5357\u706b\u8eca\u7ad9","type":"route"},"geometry":{"type":"LineString","coordinates":[[120.1219518,23.024623],[120.1221157,23.0246763]]}},{"type":"Feature","properties":{"from":"\u9e7f\u8033\u9580\u5929\u540e\u5bae","name":"10\u8def(\u6b63\u7dda_\u8fd4\u7a0b)","public_transport:version":"2","ref":"10","route":"bus","to":"\u81fa\u5357\u706b\u8eca\u7ad9","type":"route"},"geometry":{"type":"LineString","coordinates":[[120.123821,23.020548],[120.1239293,23.0208381],[120.1240441,23.021122],[120.124223,23.0218589],[120.1243035,23.0222403],[120.1243517,23.0224353],[120.1243837,23.0226138],[120.1243705,23.0226957],[120.1243308,23.0227855],[120.1241577,23.0229625],[120.123936,23.0231759],[120.1237164,23.0233911],[120.1232775,23.0237967],[120.1228485,23.0241715],[120.1224283,23.0246592],[120.1223682,23.0247199],[120.1223356,23.024764],[120.1221974,23.0247169],[120.1221157,23.0246763]]}},{"type":"Feature","properties":{"from":"\u9e7f\u8033\u9580\u5929\u540e\u5bae","name":"10\u8def(\u6b63\u7dda_\u8fd4\u7a0b)","public_transport:version":"2","ref":"10","route":"bus","to":"\u81fa\u5357\u706b\u8eca\u7ad9","type":"route"},"geometry":{"type":"LineString","coordinates":[[120.128369,23.016816],[120.1275215,23.01749],[120.1267835,23.0181643],[120.1265917,23.0183533],[120.1264431,23.0184652],[120.1262775,23.0185766],[120.1261997,23.01867],[120.1261452,23.0188436],[120.1260922,23.0189121],[120.1257341,23.0192391],[120.1247135,23.0201722],[120.1245968,23.0202315],[120.1239943,23.0203814],[120.1239165,23.0204123],[120.123821,23.020548]]}},{"type":"Feature","properties":{"from":"\u9e7f\u8033\u9580\u5929\u540e\u5bae","name":"10\u8def(\u6b63\u7dda_\u8fd4\u7a0b)","public_transport:version":"2","ref":"10","route":"bus","to":"\u81fa\u5357\u706b\u8eca\u7ad9","type":"route"},"geometry":{"type":"LineString","coordinates":[[120.1322846,23.0184107],[120.1318354,23.0182741],[120.1315224,23.018179],[120.1309699,23.0180886],[120.1302188,23.017946],[120.1298862,23.017872],[120.1295764,23.0178078],[120.129453,23.017772],[120.1293712,23.017735],[120.1286568,23.0170582],[120.128369,23.016816]]}},{"type":"Feature","properties":{"from":"\u9e7f\u8033\u9580\u5929\u540e\u5bae","name":"10\u8def(\u6b63\u7dda_\u8fd4\u7a0b)","public_transport:version":"2","ref":"10","route":"bus","to":"\u81fa\u5357\u706b\u8eca\u7ad9","type":"route"},"geometry":{"type":"LineString","coordinates":[[120.1325772,23.0185059],[120.1324486,23.0184502],[120.1322846,23.0184107]]}},{"type":"Feature","properties":{"from":"\u9e7f\u8033\u9580\u5929\u540e\u5bae","name":"10\u8def(\u6b63\u7dda_\u8fd4\u7a0b)","public_transport:version":"2","ref":"10","route":"bus","to":"\u81fa\u5357\u706b\u8eca\u7ad9","type":"route"},"geometry":{"type":"LineString","coordinates":[[120.1374256,23.0265652],[120.1365718,23.0210377],[120.1365122,23.0206515],[120.1363482,23.0196378],[120.1362815,23.0195131],[120.136178,23.0194488],[120.1358109,23.0193675],[120.1355607,23.019326],[120.1348405,23.0192589],[120.1347007,23.0192458],[120.1346016,23.0192366],[120.1344207,23.0191979],[120.1339726,23.0190326],[120.1326753,23.0185765],[120.1325772,23.0185059]]}},{"type":"Feature","properties":{"from":"\u9e7f\u8033\u9580\u5929\u540e\u5bae","name":"10\u8def(\u6b63\u7dda_\u8fd4\u7a0b)","public_transport:version":"2","ref":"10","route":"bus","to":"\u81fa\u5357\u706b\u8eca\u7ad9","type":"route"},"geometry":{"type":"LineString","coordinates":[[120.1381727,23.0303026],[120.1379296,23.0299032],[120.1374256,23.0265652]]}},{"type":"Feature","properties":{"from":"\u9e7f\u8033\u9580\u5929\u540e\u5bae","name":"10\u8def(\u6b63\u7dda_\u8fd4\u7a0b)","public_transport:version":"2","ref":"10","route":"bus","to":"\u81fa\u5357\u706b\u8eca\u7ad9","type":"route"},"geometry":{"type":"LineString","coordinates":[[120.1381727,23.0303026],[120.1381695,23.0304357]]}},{"type":"Feature","properties":{"from":"\u9e7f\u8033\u9580\u5929\u540e\u5bae","name":"10\u8def(\u6b63\u7dda_\u8fd4\u7a0b)","public_transport:version":"2","ref":"10","route":"bus","to":"\u81fa\u5357\u706b\u8eca\u7ad9","type":"route"},"geometry":{"type":"LineString","coordinates":[[120.1381695,23.0304357],[120.1376424,23.0303092]]}},{"type":"Feature","properties":{"from":"\u9e7f\u8033\u9580\u5929\u540e\u5bae","name":"10\u8def(\u6b63\u7dda_\u8fd4\u7a0b)","public_transport:version":"2","ref":"10","route":"bus","to":"\u81fa\u5357\u706b\u8eca\u7ad9","type":"route"},"geometry":{"type":"LineString","coordinates":[[120.1376424,23.0303092],[120.1380149,23.0323841]]}},{"type":"Feature","properties":{"from":"\u9e7f\u8033\u9580\u5929\u540e\u5bae","name":"10\u8def(\u6b63\u7dda_\u8fd4\u7a0b)","public_transport:version":"2","ref":"10","route":"bus","to":"\u81fa\u5357\u706b\u8eca\u7ad9","type":"route"},"geometry":{"type":"LineString","coordinates":[[120.1487238,23.0352231],[120.1474709,23.0343738],[120.1474139,23.0343352],[120.1473538,23.0342947],[120.146731,23.0338749],[120.146216,23.0335802],[120.1456567,23.0333194],[120.1450207,23.0330834],[120.1449283,23.0330588],[120.1443502,23.0329088],[120.1442036,23.0328779],[120.1437983,23.0327924],[120.1435164,23.0327509],[120.1420049,23.0325285],[120.1419444,23.0325242],[120.141697,23.0325145],[120.1413364,23.0325004],[120.1397085,23.0324365],[120.1396438,23.032434],[120.1380149,23.0323841]]}},{"type":"Feature","properties":{"from":"\u9e7f\u8033\u9580\u5929\u540e\u5bae","name":"10\u8def(\u6b63\u7dda_\u8fd4\u7a0b)","public_transport:version":"2","ref":"10","route":"bus","to":"\u81fa\u5357\u706b\u8eca\u7ad9","type":"route"},"geometry":{"type":"LineString","coordinates":[[120.1487238,23.0352231],[120.1492228,23.034639],[120.1493736,23.0344231],[120.149456,23.034283]]}},{"type":"Feature","properties":{"from":"\u9e7f\u8033\u9580\u5929\u540e\u5bae","name":"10\u8def(\u6b63\u7dda_\u8fd4\u7a0b)","public_transport:version":"2","ref":"10","route":"bus","to":"\u81fa\u5357\u706b\u8eca\u7ad9","type":"route"},"geometry":{"type":"LineString","coordinates":[[120.149456,23.034283],[120.1495477,23.0343437],[120.1514053,23.0355745],[120.1520444,23.0359979],[120.1552101,23.0380952]]}},{"type":"Feature","properties":{"from":"\u9e7f\u8033\u9580\u5929\u540e\u5bae","name":"10\u8def(\u6b63\u7dda_\u8fd4\u7a0b)","public_transport:version":"2","ref":"10","route":"bus","to":"\u81fa\u5357\u706b\u8eca\u7ad9","type":"route"},"geometry":{"type":"LineString","coordinates":[[120.1552101,23.0380952],[120.1551483,23.0382137]]}},{"type":"Feature","properties":{"from":"\u9e7f\u8033\u9580\u5929\u540e\u5bae","name":"10\u8def(\u6b63\u7dda_\u8fd4\u7a0b)","public_transport:version":"2","ref":"10","route":"bus","to":"\u81fa\u5357\u706b\u8eca\u7ad9","type":"route"},"geometry":{"type":"LineString","coordinates":[[120.1551483,23.0382137],[120.1542448,23.0388684]]}},{"type":"Feature","properties":{"from":"\u9e7f\u8033\u9580\u5929\u540e\u5bae","name":"10\u8def(\u6b63\u7dda_\u8fd4\u7a0b)","public_transport:version":"2","ref":"10","route":"bus","to":"\u81fa\u5357\u706b\u8eca\u7ad9","type":"route"},"geometry":{"type":"LineString","coordinates":[[120.1542448,23.0388684],[120.1520903,23.0403938],[120.1510907,23.0411578]]}},{"type":"Feature","properties":{"from":"\u9e7f\u8033\u9580\u5929\u540e\u5bae","name":"10\u8def(\u6b63\u7dda_\u8fd4\u7a0b)","public_transport:version":"2","ref":"10","route":"bus","to":"\u81fa\u5357\u706b\u8eca\u7ad9","type":"route"},"geometry":{"type":"LineString","coordinates":[[120.1510907,23.0411578],[120.150983,23.0412358],[120.148828,23.0427841],[120.148204,23.0432498],[120.148143,23.0432945],[120.1477815,23.04358],[120.147273,23.0440073]]}},{"type":"Feature","properties":{"from":"\u9e7f\u8033\u9580\u5929\u540e\u5bae","name":"10\u8def(\u6b63\u7dda_\u8fd4\u7a0b)","public_transport:version":"2","ref":"10","route":"bus","to":"\u81fa\u5357\u706b\u8eca\u7ad9","type":"route"},"geometry":{"type":"LineString","coordinates":[[120.147273,23.0440073],[120.1480144,23.0449035],[120.1480661,23.0449588],[120.1481084,23.0450441],[120.1481297,23.0451058],[120.1481724,23.0452469],[120.1482259,23.0455209],[120.1482463,23.045623],[120.1482629,23.0457262],[120.1483129,23.0458167],[120.1485073,23.0460081]]}},{"type":"Feature","properties":{"from":"\u9e7f\u8033\u9580\u5929\u540e\u5bae","name":"10\u8def(\u6b63\u7dda_\u8fd4\u7a0b)","public_transport:version":"2","ref":"10","route":"bus","to":"\u81fa\u5357\u706b\u8eca\u7ad9","type":"route"},"geometry":{"type":"LineString","coordinates":[[120.1525201,23.0430588],[120.1487132,23.0458539],[120.1485073,23.0460081]]}},{"type":"Feature","properties":{"from":"\u9e7f\u8033\u9580\u5929\u540e\u5bae","name":"10\u8def(\u6b63\u7dda_\u8fd4\u7a0b)","public_transport:version":"2","ref":"10","route":"bus","to":"\u81fa\u5357\u706b\u8eca\u7ad9","type":"route"},"geometry":{"type":"LineString","coordinates":[[120.1526411,23.0429791],[120.1525201,23.0430588]]}},{"type":"Feature","properties":{"from":"\u9e7f\u8033\u9580\u5929\u540e\u5bae","name":"10\u8def(\u6b63\u7dda_\u8fd4\u7a0b)","public_transport:version":"2","ref":"10","route":"bus","to":"\u81fa\u5357\u706b\u8eca\u7ad9","type":"route"},"geometry":{"type":"LineString","coordinates":[[120.1542448,23.0388684],[120.1556431,23.04047],[120.1556727,23.0405938],[120.1556023,23.0407751],[120.1554974,23.0408759],[120.1526411,23.0429791]]}},{"type":"Feature","properties":{"from":"\u9e7f\u8033\u9580\u5929\u540e\u5bae","name":"10\u8def(\u6b63\u7dda_\u8fd4\u7a0b)","public_transport:version":"2","ref":"10","route":"bus","to":"\u81fa\u5357\u706b\u8eca\u7ad9","type":"route"},"geometry":{"type":"LineString","coordinates":[[120.1542448,23.0388684],[120.154168,23.0387805]]}},{"type":"Feature","properties":{"from":"\u9e7f\u8033\u9580\u5929\u540e\u5bae","name":"10\u8def(\u6b63\u7dda_\u8fd4\u7a0b)","public_transport:version":"2","ref":"10","route":"bus","to":"\u81fa\u5357\u706b\u8eca\u7ad9","type":"route"},"geometry":{"type":"LineString","coordinates":[[120.154168,23.0387805],[120.1550293,23.0381351]]}},{"type":"Feature","properties":{"from":"\u9e7f\u8033\u9580\u5929\u540e\u5bae","name":"10\u8def(\u6b63\u7dda_\u8fd4\u7a0b)","public_transport:version":"2","ref":"10","route":"bus","to":"\u81fa\u5357\u706b\u8eca\u7ad9","type":"route"},"geometry":{"type":"LineString","coordinates":[[120.1550293,23.0381351],[120.1552101,23.0380952]]}},{"type":"Feature","properties":{"from":"\u9e7f\u8033\u9580\u5929\u540e\u5bae","name":"10\u8def(\u6b63\u7dda_\u8fd4\u7a0b)","public_transport:version":"2","ref":"10","route":"bus","to":"\u81fa\u5357\u706b\u8eca\u7ad9","type":"route"},"geometry":{"type":"LineString","coordinates":[[120.1552101,23.0380952],[120.1581237,23.0400197],[120.1583022,23.0402325]]}},{"type":"Feature","properties":{"from":"\u9e7f\u8033\u9580\u5929\u540e\u5bae","name":"10\u8def(\u6b63\u7dda_\u8fd4\u7a0b)","public_transport:version":"2","ref":"10","route":"bus","to":"\u81fa\u5357\u706b\u8eca\u7ad9","type":"route"},"geometry":{"type":"LineString","coordinates":[[120.1604593,23.0416735],[120.1603543,23.0416034],[120.1584114,23.0403054],[120.1583022,23.0402325]]}},{"type":"Feature","properties":{"from":"\u9e7f\u8033\u9580\u5929\u540e\u5bae","name":"10\u8def(\u6b63\u7dda_\u8fd4\u7a0b)","public_transport:version":"2","ref":"10","route":"bus","to":"\u81fa\u5357\u706b\u8eca\u7ad9","type":"route"},"geometry":{"type":"LineString","coordinates":[[120.16072,23.0418493],[120.1604593,23.0416735]]}},{"type":"Feature","properties":{"from":"\u9e7f\u8033\u9580\u5929\u540e\u5bae","name":"10\u8def(\u6b63\u7dda_\u8fd4\u7a0b)","public_transport:version":"2","ref":"10","route":"bus","to":"\u81fa\u5357\u706b\u8eca\u7ad9","type":"route"},"geometry":{"type":"LineString","coordinates":[[120.171445,23.0491124],[120.1704463,23.0484361],[120.1704043,23.0484076],[120.16966,23.0479036],[120.1689195,23.0474021],[120.1685007,23.0471185],[120.1656336,23.0451769],[120.1609009,23.0419718],[120.16072,23.0418493]]}},{"type":"Feature","properties":{"from":"\u9e7f\u8033\u9580\u5929\u540e\u5bae","name":"10\u8def(\u6b63\u7dda_\u8fd4\u7a0b)","public_transport:version":"2","ref":"10","route":"bus","to":"\u81fa\u5357\u706b\u8eca\u7ad9","type":"route"},"geometry":{"type":"LineString","coordinates":[[120.1735898,23.050559],[120.1734442,23.0505539],[120.1719129,23.0494749],[120.1717425,23.0493429],[120.171445,23.0491124]]}},{"type":"Feature","properties":{"from":"\u9e7f\u8033\u9580\u5929\u540e\u5bae","name":"10\u8def(\u6b63\u7dda_\u8fd4\u7a0b)","public_transport:version":"2","ref":"10","route":"bus","to":"\u81fa\u5357\u706b\u8eca\u7ad9","type":"route"},"geometry":{"type":"LineString","coordinates":[[120.1747706,23.0492161],[120.1746984,23.0493262],[120.1742936,23.049667],[120.1737238,23.0501638],[120.1735898,23.050559]]}},{"type":"Feature","properties":{"from":"\u9e7f\u8033\u9580\u5929\u540e\u5bae","name":"10\u8def(\u6b63\u7dda_\u8fd4\u7a0b)","public_transport:version":"2","ref":"10","route":"bus","to":"\u81fa\u5357\u706b\u8eca\u7ad9","type":"route"},"geometry":{"type":"LineString","coordinates":[[120.1747588,23.049109],[120.1747706,23.0492161]]}},{"type":"Feature","properties":{"from":"\u9e7f\u8033\u9580\u5929\u540e\u5bae","name":"10\u8def(\u6b63\u7dda_\u8fd4\u7a0b)","public_transport:version":"2","ref":"10","route":"bus","to":"\u81fa\u5357\u706b\u8eca\u7ad9","type":"route"},"geometry":{"type":"LineString","coordinates":[[120.1747588,23.049109],[120.1756044,23.0488924],[120.1759152,23.0488086]]}},{"type":"Feature","properties":{"from":"\u9e7f\u8033\u9580\u5929\u540e\u5bae","name":"10\u8def(\u6b63\u7dda_\u8fd4\u7a0b)","public_transport:version":"2","ref":"10","route":"bus","to":"\u81fa\u5357\u706b\u8eca\u7ad9","type":"route"},"geometry":{"type":"LineString","coordinates":[[120.1759152,23.0488086],[120.175936,23.0489163]]}},{"type":"Feature","properties":{"from":"\u9e7f\u8033\u9580\u5929\u540e\u5bae","name":"10\u8def(\u6b63\u7dda_\u8fd4\u7a0b)","public_transport:version":"2","ref":"10","route":"bus","to":"\u81fa\u5357\u706b\u8eca\u7ad9","type":"route"},"geometry":{"type":"LineString","coordinates":[[120.1754422,23.0497182],[120.1757286,23.0492532],[120.175936,23.0489163]]}},{"type":"Feature","properties":{"from":"\u9e7f\u8033\u9580\u5929\u540e\u5bae","name":"10\u8def(\u6b63\u7dda_\u8fd4\u7a0b)","public_transport:version":"2","ref":"10","route":"bus","to":"\u81fa\u5357\u706b\u8eca\u7ad9","type":"route"},"geometry":{"type":"LineString","coordinates":[[120.1799122,23.0517948],[120.179017,23.0514587],[120.1784116,23.0512315],[120.1777453,23.0509814],[120.1768212,23.0506631],[120.1764021,23.0505067],[120.1760475,23.0502159],[120.1754422,23.0497182]]}},{"type":"Feature","properties":{"from":"\u9e7f\u8033\u9580\u5929\u540e\u5bae","name":"10\u8def(\u6b63\u7dda_\u8fd4\u7a0b)","public_transport:version":"2","ref":"10","route":"bus","to":"\u81fa\u5357\u706b\u8eca\u7ad9","type":"route"},"geometry":{"type":"LineString","coordinates":[[120.1839587,23.0471812],[120.1834681,23.0477336],[120.1832697,23.0479459],[120.1826612,23.0486601],[120.1819439,23.0494799],[120.181199,23.0503266],[120.1806498,23.0509717],[120.1799122,23.0517948]]}},{"type":"Feature","properties":{"from":"\u9e7f\u8033\u9580\u5929\u540e\u5bae","name":"10\u8def(\u6b63\u7dda_\u8fd4\u7a0b)","public_transport:version":"2","ref":"10","route":"bus","to":"\u81fa\u5357\u706b\u8eca\u7ad9","type":"route"},"geometry":{"type":"LineString","coordinates":[[120.1840373,23.0470743],[120.1839587,23.0471812]]}},{"type":"Feature","properties":{"from":"\u9e7f\u8033\u9580\u5929\u540e\u5bae","name":"10\u8def(\u6b63\u7dda_\u8fd4\u7a0b)","public_transport:version":"2","ref":"10","route":"bus","to":"\u81fa\u5357\u706b\u8eca\u7ad9","type":"route"},"geometry":{"type":"LineString","coordinates":[[120.1840373,23.0470743],[120.1841241,23.0469558],[120.1850677,23.0456675],[120.1863046,23.0439787],[120.1865434,23.0436526],[120.1867156,23.0432737],[120.1870429,23.0425533],[120.1873257,23.0419309],[120.1874366,23.0416869]]}},{"type":"Feature","properties":{"from":"\u9e7f\u8033\u9580\u5929\u540e\u5bae","name":"10\u8def(\u6b63\u7dda_\u8fd4\u7a0b)","public_transport:version":"2","ref":"10","route":"bus","to":"\u81fa\u5357\u706b\u8eca\u7ad9","type":"route"},"geometry":{"type":"LineString","coordinates":[[120.1874366,23.0416869],[120.1874004,23.0414413],[120.1874085,23.0412784],[120.1874697,23.0409576],[120.1875582,23.04058],[120.1877669,23.039592],[120.1879813,23.038751],[120.188263,23.0378439],[120.1885996,23.0368171],[120.1889382,23.0357236],[120.1892802,23.0346894],[120.1895444,23.0338082],[120.1899916,23.0324975],[120.1901918,23.0311965],[120.190207,23.0310522],[120.1902477,23.0306665],[120.1903694,23.02985]]}},{"type":"Feature","properties":{"from":"\u9e7f\u8033\u9580\u5929\u540e\u5bae","name":"10\u8def(\u6b63\u7dda_\u8fd4\u7a0b)","public_transport:version":"2","ref":"10","route":"bus","to":"\u81fa\u5357\u706b\u8eca\u7ad9","type":"route"},"geometry":{"type":"LineString","coordinates":[[120.1903694,23.02985],[120.1903818,23.0297795]]}},{"type":"Feature","properties":{"from":"\u9e7f\u8033\u9580\u5929\u540e\u5bae","name":"10\u8def(\u6b63\u7dda_\u8fd4\u7a0b)","public_transport:version":"2","ref":"10","route":"bus","to":"\u81fa\u5357\u706b\u8eca\u7ad9","type":"route"},"geometry":{"type":"LineString","coordinates":[[120.1903818,23.0297795],[120.1905463,23.0288651]]}},{"type":"Feature","properties":{"from":"\u9e7f\u8033\u9580\u5929\u540e\u5bae","name":"10\u8def(\u6b63\u7dda_\u8fd4\u7a0b)","public_transport:version":"2","ref":"10","route":"bus","to":"\u81fa\u5357\u706b\u8eca\u7ad9","type":"route"},"geometry":{"type":"LineString","coordinates":[[120.1905463,23.0288651],[120.1905634,23.0287919]]}},{"type":"Feature","properties":{"from":"\u9e7f\u8033\u9580\u5929\u540e\u5bae","name":"10\u8def(\u6b63\u7dda_\u8fd4\u7a0b)","public_transport:version":"2","ref":"10","route":"bus","to":"\u81fa\u5357\u706b\u8eca\u7ad9","type":"route"},"geometry":{"type":"LineString","coordinates":[[120.1905634,23.0287919],[120.1907841,23.0277708],[120.1909437,23.0270326],[120.1911817,23.0259318],[120.191229,23.025713],[120.1913177,23.0253026],[120.1914197,23.0248305],[120.1915715,23.0241335],[120.1916138,23.0239328],[120.1917091,23.0234917],[120.1918468,23.022855],[120.1920246,23.0220324],[120.1924336,23.0201403],[120.1924451,23.0200872]]}},{"type":"Feature","properties":{"from":"\u9e7f\u8033\u9580\u5929\u540e\u5bae","name":"10\u8def(\u6b63\u7dda_\u8fd4\u7a0b)","public_transport:version":"2","ref":"10","route":"bus","to":"\u81fa\u5357\u706b\u8eca\u7ad9","type":"route"},"geometry":{"type":"LineString","coordinates":[[120.1924451,23.0200872],[120.1931137,23.0182917]]}},{"type":"Feature","properties":{"from":"\u9e7f\u8033\u9580\u5929\u540e\u5bae","name":"10\u8def(\u6b63\u7dda_\u8fd4\u7a0b)","public_transport:version":"2","ref":"10","route":"bus","to":"\u81fa\u5357\u706b\u8eca\u7ad9","type":"route"},"geometry":{"type":"LineString","coordinates":[[120.1931137,23.0182917],[120.1931804,23.0181665]]}},{"type":"Feature","properties":{"from":"\u9e7f\u8033\u9580\u5929\u540e\u5bae","name":"10\u8def(\u6b63\u7dda_\u8fd4\u7a0b)","public_transport:version":"2","ref":"10","route":"bus","to":"\u81fa\u5357\u706b\u8eca\u7ad9","type":"route"},"geometry":{"type":"LineString","coordinates":[[120.1931804,23.0181665],[120.193198,23.0180497],[120.1932739,23.0175479],[120.1933735,23.0168886],[120.1934665,23.0162728],[120.1936364,23.0151483],[120.1936622,23.0149776],[120.1937169,23.014638],[120.1937769,23.0142187],[120.1938038,23.0140403],[120.1938114,23.0132239],[120.1938289,23.0129665],[120.193839,23.0128176],[120.1938696,23.0123683],[120.1938886,23.0120879],[120.1938925,23.0111966],[120.1938939,23.0108614],[120.1938957,23.0104633],[120.1938985,23.0097976]]}},{"type":"Feature","properties":{"from":"\u9e7f\u8033\u9580\u5929\u540e\u5bae","name":"10\u8def(\u6b63\u7dda_\u8fd4\u7a0b)","public_transport:version":"2","ref":"10","route":"bus","to":"\u81fa\u5357\u706b\u8eca\u7ad9","type":"route"},"geometry":{"type":"LineString","coordinates":[[120.1938985,23.0097976],[120.1934902,23.0097936],[120.193171,23.0097763],[120.1929243,23.0097294],[120.1926393,23.0096232],[120.1889689,23.0080204],[120.1878609,23.0075368],[120.1863025,23.0068567]]}},{"type":"Feature","properties":{"from":"\u9e7f\u8033\u9580\u5929\u540e\u5bae","name":"10\u8def(\u6b63\u7dda_\u8fd4\u7a0b)","public_transport:version":"2","ref":"10","route":"bus","to":"\u81fa\u5357\u706b\u8eca\u7ad9","type":"route"},"geometry":{"type":"LineString","coordinates":[[120.1863025,23.0068567],[120.1861982,23.0068113]]}},{"type":"Feature","properties":{"from":"\u9e7f\u8033\u9580\u5929\u540e\u5bae","name":"10\u8def(\u6b63\u7dda_\u8fd4\u7a0b)","public_transport:version":"2","ref":"10","route":"bus","to":"\u81fa\u5357\u706b\u8eca\u7ad9","type":"route"},"geometry":{"type":"LineString","coordinates":[[120.1861982,23.0068113],[120.1862293,23.0067072]]}},{"type":"Feature","properties":{"from":"\u9e7f\u8033\u9580\u5929\u540e\u5bae","name":"10\u8def(\u6b63\u7dda_\u8fd4\u7a0b)","public_transport:version":"2","ref":"10","route":"bus","to":"\u81fa\u5357\u706b\u8eca\u7ad9","type":"route"},"geometry":{"type":"LineString","coordinates":[[120.1862293,23.0067072],[120.1863455,23.0061192],[120.1866566,23.0047506],[120.1867561,23.0042173],[120.1868573,23.0033608],[120.1869255,23.0028425],[120.1869587,23.0022623],[120.1869601,23.0019271],[120.1869607,23.0017973],[120.1869473,23.0015115],[120.1868659,23.0004114],[120.1867069,22.998929],[120.1866994,22.9988499],[120.1865819,22.9978666]]}},{"type":"Feature","properties":{"from":"\u9e7f\u8033\u9580\u5929\u540e\u5bae","name":"10\u8def(\u6b63\u7dda_\u8fd4\u7a0b)","public_transport:version":"2","ref":"10","route":"bus","to":"\u81fa\u5357\u706b\u8eca\u7ad9","type":"route"},"geometry":{"type":"LineString","coordinates":[[120.1865819,22.9978666],[120.1865583,22.9977616],[120.186551,22.9977305]]}},{"type":"Feature","properties":{"from":"\u9e7f\u8033\u9580\u5929\u540e\u5bae","name":"10\u8def(\u6b63\u7dda_\u8fd4\u7a0b)","public_transport:version":"2","ref":"10","route":"bus","to":"\u81fa\u5357\u706b\u8eca\u7ad9","type":"route"},"geometry":{"type":"LineString","coordinates":[[120.186551,22.9977305],[120.1864638,22.9971444]]}},{"type":"Feature","properties":{"from":"\u9e7f\u8033\u9580\u5929\u540e\u5bae","name":"10\u8def(\u6b63\u7dda_\u8fd4\u7a0b)","public_transport:version":"2","ref":"10","route":"bus","to":"\u81fa\u5357\u706b\u8eca\u7ad9","type":"route"},"geometry":{"type":"LineString","coordinates":[[120.1864638,22.9971444],[120.186454,22.9970347],[120.1864458,22.9969487],[120.1863854,22.996565],[120.1862999,22.9957827],[120.1862758,22.9956037],[120.1862771,22.9954728],[120.1862744,22.9952654],[120.1862945,22.9949827],[120.1863334,22.994642],[120.1863686,22.9944716],[120.1864233,22.9942951],[120.1865131,22.9940297],[120.1866124,22.993821],[120.1866959,22.9935988],[120.1867304,22.9933951],[120.1867937,22.9927086]]}},{"type":"Feature","properties":{"from":"\u9e7f\u8033\u9580\u5929\u540e\u5bae","name":"10\u8def(\u6b63\u7dda_\u8fd4\u7a0b)","public_transport:version":"2","ref":"10","route":"bus","to":"\u81fa\u5357\u706b\u8eca\u7ad9","type":"route"},"geometry":{"type":"LineString","coordinates":[[120.1847734,22.9931129],[120.1857578,22.9929159],[120.1861622,22.992835],[120.1867937,22.9927086]]}},{"type":"Feature","properties":{"from":"\u9e7f\u8033\u9580\u5929\u540e\u5bae","name":"10\u8def(\u6b63\u7dda_\u8fd4\u7a0b)","public_transport:version":"2","ref":"10","route":"bus","to":"\u81fa\u5357\u706b\u8eca\u7ad9","type":"route"},"geometry":{"type":"LineString","coordinates":[[120.1834395,22.9933798],[120.1846603,22.9931355],[120.1847734,22.9931129]]}},{"type":"Feature","properties":{"from":"\u9e7f\u8033\u9580\u5929\u540e\u5bae","name":"10\u8def(\u6b63\u7dda_\u8fd4\u7a0b)","public_transport:version":"2","ref":"10","route":"bus","to":"\u81fa\u5357\u706b\u8eca\u7ad9","type":"route"},"geometry":{"type":"LineString","coordinates":[[120.1834395,22.9933798],[120.1833611,22.9933926]]}},{"type":"Feature","properties":{"from":"\u9e7f\u8033\u9580\u5929\u540e\u5bae","name":"10\u8def(\u6b63\u7dda_\u8fd4\u7a0b)","public_transport:version":"2","ref":"10","route":"bus","to":"\u81fa\u5357\u706b\u8eca\u7ad9","type":"route"},"geometry":{"type":"LineString","coordinates":[[120.1833611,22.9933926],[120.1831892,22.9927144],[120.183054,22.9921555],[120.1828977,22.9914959],[120.1827343,22.9908296],[120.182607,22.9903086],[120.1824542,22.9896778],[120.1824265,22.9895642]]}},{"type":"Feature","properties":{"from":"\u9e7f\u8033\u9580\u5929\u540e\u5bae","name":"10\u8def(\u6b63\u7dda_\u8fd4\u7a0b)","public_transport:version":"2","ref":"10","route":"bus","to":"\u81fa\u5357\u706b\u8eca\u7ad9","type":"route"},"geometry":{"type":"LineString","coordinates":[[120.1824265,22.9895642],[120.1825089,22.989556]]}},{"type":"Feature","properties":{"from":"\u9e7f\u8033\u9580\u5929\u540e\u5bae","name":"10\u8def(\u6b63\u7dda_\u8fd4\u7a0b)","public_transport:version":"2","ref":"10","route":"bus","to":"\u81fa\u5357\u706b\u8eca\u7ad9","type":"route"},"geometry":{"type":"LineString","coordinates":[[120.1825089,22.989556],[120.184565,22.9892982],[120.1868894,22.9890067]]}},{"type":"Feature","properties":{"from":"\u9e7f\u8033\u9580\u5929\u540e\u5bae","name":"10\u8def(\u6b63\u7dda_\u8fd4\u7a0b)","public_transport:version":"2","ref":"10","route":"bus","to":"\u81fa\u5357\u706b\u8eca\u7ad9","type":"route"},"geometry":{"type":"LineString","coordinates":[[120.1868894,22.9890067],[120.1869937,22.9889873]]}},{"type":"Feature","properties":{"from":"\u9e7f\u8033\u9580\u5929\u540e\u5bae","name":"10\u8def(\u6b63\u7dda_\u8fd4\u7a0b)","public_transport:version":"2","ref":"10","route":"bus","to":"\u81fa\u5357\u706b\u8eca\u7ad9","type":"route"},"geometry":{"type":"LineString","coordinates":[[120.1869937,22.9889873],[120.1878961,22.9887958],[120.1882761,22.9887719],[120.1883478,22.98877],[120.1885877,22.9887585],[120.1887556,22.9887665]]}},{"type":"Feature","properties":{"from":"\u9e7f\u8033\u9580\u5929\u540e\u5bae","name":"10\u8def(\u6b63\u7dda_\u8fd4\u7a0b)","public_transport:version":"2","ref":"10","route":"bus","to":"\u81fa\u5357\u706b\u8eca\u7ad9","type":"route"},"geometry":{"type":"LineString","coordinates":[[120.1889353,22.9887244],[120.1887556,22.9887665]]}},{"type":"Feature","properties":{"from":"\u9e7f\u8033\u9580\u5929\u540e\u5bae","name":"10\u8def(\u6b63\u7dda_\u8fd4\u7a0b)","public_transport:version":"2","ref":"10","route":"bus","to":"\u81fa\u5357\u706b\u8eca\u7ad9","type":"route"},"geometry":{"type":"LineString","coordinates":[[120.1894549,22.9886251],[120.1889353,22.9887244]]}},{"type":"Feature","properties":{"from":"\u9e7f\u8033\u9580\u5929\u540e\u5bae","name":"10\u8def(\u6b63\u7dda_\u8fd4\u7a0b)","public_transport:version":"2","ref":"10","route":"bus","to":"\u81fa\u5357\u706b\u8eca\u7ad9","type":"route"},"geometry":{"type":"LineString","coordinates":[[120.1920183,22.9881239],[120.1916003,22.9882071],[120.1912476,22.9882758],[120.1910018,22.9883237],[120.1903998,22.988441],[120.1902475,22.988468],[120.1894794,22.9886203],[120.1894549,22.9886251]]}},{"type":"Feature","properties":{"from":"\u9e7f\u8033\u9580\u5929\u540e\u5bae","name":"10\u8def(\u6b63\u7dda_\u8fd4\u7a0b)","public_transport:version":"2","ref":"10","route":"bus","to":"\u81fa\u5357\u706b\u8eca\u7ad9","type":"route"},"geometry":{"type":"LineString","coordinates":[[120.1947336,22.9875797],[120.194679,22.9876],[120.1938818,22.987756],[120.1934225,22.9878471],[120.193091,22.9879129],[120.1926908,22.9879923],[120.1923634,22.9880572],[120.1920183,22.9881239]]}},{"type":"Feature","properties":{"from":"\u9e7f\u8033\u9580\u5929\u540e\u5bae","name":"10\u8def(\u6b63\u7dda_\u8fd4\u7a0b)","public_transport:version":"2","ref":"10","route":"bus","to":"\u81fa\u5357\u706b\u8eca\u7ad9","type":"route"},"geometry":{"type":"LineString","coordinates":[[120.1948961,22.9875247],[120.1947336,22.9875797]]}},{"type":"Feature","properties":{"from":"\u9e7f\u8033\u9580\u5929\u540e\u5bae","name":"10\u8def(\u6b63\u7dda_\u8fd4\u7a0b)","public_transport:version":"2","ref":"10","route":"bus","to":"\u81fa\u5357\u706b\u8eca\u7ad9","type":"route"},"geometry":{"type":"LineString","coordinates":[[120.1963657,22.9874324],[120.1957636,22.9874333],[120.1950645,22.9874945],[120.1948961,22.9875247]]}},{"type":"Feature","properties":{"from":"\u9e7f\u8033\u9580\u5929\u540e\u5bae","name":"10\u8def(\u6b63\u7dda_\u8fd4\u7a0b)","public_transport:version":"2","ref":"10","route":"bus","to":"\u81fa\u5357\u706b\u8eca\u7ad9","type":"route"},"geometry":{"type":"LineString","coordinates":[[120.1975112,22.9873957],[120.1968435,22.9874171],[120.1963657,22.9874324]]}},{"type":"Feature","properties":{"from":"\u9e7f\u8033\u9580\u5929\u540e\u5bae","name":"10\u8def(\u6b63\u7dda_\u8fd4\u7a0b)","public_transport:version":"2","ref":"10","route":"bus","to":"\u81fa\u5357\u706b\u8eca\u7ad9","type":"route"},"geometry":{"type":"LineString","coordinates":[[120.1975112,22.9873957],[120.1975817,22.9873959]]}},{"type":"Feature","properties":{"from":"\u9e7f\u8033\u9580\u5929\u540e\u5bae","name":"10\u8def(\u6b63\u7dda_\u8fd4\u7a0b)","public_transport:version":"2","ref":"10","route":"bus","to":"\u81fa\u5357\u706b\u8eca\u7ad9","type":"route"},"geometry":{"type":"LineString","coordinates":[[120.1975817,22.9873959],[120.1975847,22.987521],[120.1975715,22.9884723],[120.1975622,22.9890044],[120.197598,22.989384],[120.1976423,22.9896506],[120.1977194,22.9900223],[120.1977677,22.9902223],[120.1978455,22.9904173]]}},{"type":"Feature","properties":{"from":"\u9e7f\u8033\u9580\u5929\u540e\u5bae","name":"10\u8def(\u6b63\u7dda_\u8fd4\u7a0b)","public_transport:version":"2","ref":"10","route":"bus","to":"\u81fa\u5357\u706b\u8eca\u7ad9","type":"route"},"geometry":{"type":"LineString","coordinates":[[120.1978455,22.9904173],[120.1979802,22.9908039],[120.1980517,22.991009],[120.1980616,22.9910374],[120.198305,22.9917429]]}},{"type":"Feature","properties":{"from":"\u9e7f\u8033\u9580\u5929\u540e\u5bae","name":"10\u8def(\u6b63\u7dda_\u8fd4\u7a0b)","public_transport:version":"2","ref":"10","route":"bus","to":"\u81fa\u5357\u706b\u8eca\u7ad9","type":"route"},"geometry":{"type":"LineString","coordinates":[[120.198305,22.9917429],[120.1985449,22.9923602],[120.1986702,22.992687]]}},{"type":"Feature","properties":{"from":"\u9e7f\u8033\u9580\u5929\u540e\u5bae","name":"10\u8def(\u6b63\u7dda_\u8fd4\u7a0b)","public_transport:version":"2","ref":"10","route":"bus","to":"\u81fa\u5357\u706b\u8eca\u7ad9","type":"route"},"geometry":{"type":"LineString","coordinates":[[120.1986702,22.992687],[120.1986852,22.9927806]]}},{"type":"Feature","properties":{"from":"\u9e7f\u8033\u9580\u5929\u540e\u5bae","name":"10\u8def(\u6b63\u7dda_\u8fd4\u7a0b)","public_transport:version":"2","ref":"10","route":"bus","to":"\u81fa\u5357\u706b\u8eca\u7ad9","type":"route"},"geometry":{"type":"LineString","coordinates":[[120.1986852,22.9927806],[120.1988503,22.9932705],[120.1990122,22.9937506],[120.1990909,22.993984],[120.199246,22.9944439]]}},{"type":"Feature","properties":{"from":"\u9e7f\u8033\u9580\u5929\u540e\u5bae","name":"10\u8def(\u6b63\u7dda_\u8fd4\u7a0b)","public_transport:version":"2","ref":"10","route":"bus","to":"\u81fa\u5357\u706b\u8eca\u7ad9","type":"route"},"geometry":{"type":"LineString","coordinates":[[120.199246,22.9944439],[120.1996646,22.9943105],[120.200007,22.9941915],[120.200105,22.9941611],[120.20078,22.9939396],[120.2012391,22.9937907]]}},{"type":"Feature","properties":{"from":"\u9e7f\u8033\u9580\u5929\u540e\u5bae","name":"10\u8def(\u6b63\u7dda_\u8fd4\u7a0b)","public_transport:version":"2","ref":"10","route":"bus","to":"\u81fa\u5357\u706b\u8eca\u7ad9","type":"route"},"geometry":{"type":"LineString","coordinates":[[120.2012391,22.9937907],[120.202411,22.9934277],[120.2030485,22.9932874]]}},{"type":"Feature","properties":{"from":"\u9e7f\u8033\u9580\u5929\u540e\u5bae","name":"10\u8def(\u6b63\u7dda_\u8fd4\u7a0b)","public_transport:version":"2","ref":"10","route":"bus","to":"\u81fa\u5357\u706b\u8eca\u7ad9","type":"route"},"geometry":{"type":"LineString","coordinates":[[120.2030485,22.9932874],[120.2041311,22.9930039],[120.2045783,22.9926941]]}},{"type":"Feature","properties":{"from":"\u9e7f\u8033\u9580\u5929\u540e\u5bae","name":"10\u8def(\u6b63\u7dda_\u8fd4\u7a0b)","public_transport:version":"2","ref":"10","route":"bus","to":"\u81fa\u5357\u706b\u8eca\u7ad9","type":"route"},"geometry":{"type":"LineString","coordinates":[[120.2045626,22.9925558],[120.2045725,22.9924866],[120.2045858,22.9924409],[120.2046043,22.9923967],[120.2046508,22.9923216],[120.2047122,22.9922561],[120.2047861,22.9922028],[120.2048698,22.9921635],[120.2049601,22.9921398],[120.2050693,22.9921331],[120.2051773,22.992149],[120.2052787,22.9921868],[120.2053684,22.9922445],[120.2054218,22.9922955],[120.2054659,22.9923536],[120.2054993,22.9924174],[120.2055285,22.9925234],[120.2055288,22.9926328],[120.2055002,22.992739],[120.2054416,22.9928393],[120.2053673,22.9929148],[120.2052763,22.9929729],[120.2051734,22.9930104],[120.2050622,22.9930256],[120.2049501,22.9930168],[120.2048432,22.9929845],[120.2047473,22.9929303],[120.2046675,22.9928573],[120.2046081,22.9927693],[120.2045783,22.9926941],[120.2045646,22.9926255],[120.2045626,22.9925558]]}},{"type":"Feature","properties":{"from":"\u9e7f\u8033\u9580\u5929\u540e\u5bae","name":"10\u8def(\u6b63\u7dda_\u8fd4\u7a0b)","public_transport:version":"2","ref":"10","route":"bus","to":"\u81fa\u5357\u706b\u8eca\u7ad9","type":"route"},"geometry":{"type":"LineString","coordinates":[[120.2055002,22.992739],[120.20583,22.9929633],[120.2067533,22.9935741]]}},{"type":"Feature","properties":{"from":"\u9e7f\u8033\u9580\u5929\u540e\u5bae","name":"10\u8def(\u6b63\u7dda_\u8fd4\u7a0b)","public_transport:version":"2","ref":"10","route":"bus","to":"\u81fa\u5357\u706b\u8eca\u7ad9","type":"route"},"geometry":{"type":"LineString","coordinates":[[120.2067533,22.9935741],[120.2072062,22.9938731],[120.2073212,22.993949],[120.2085273,22.9947453]]}},{"type":"Feature","properties":{"from":"\u9e7f\u8033\u9580\u5929\u540e\u5bae","name":"10\u8def(\u6b63\u7dda_\u8fd4\u7a0b)","public_transport:version":"2","ref":"10","route":"bus","to":"\u81fa\u5357\u706b\u8eca\u7ad9","type":"route"},"geometry":{"type":"LineString","coordinates":[[120.2085273,22.9947453],[120.2098146,22.9955869],[120.2098838,22.9956321],[120.2103014,22.9959051],[120.211632,22.9967749],[120.2116717,22.9968407]]}},{"type":"Feature","properties":{"from":"\u9e7f\u8033\u9580\u5929\u540e\u5bae","name":"10\u8def(\u6b63\u7dda_\u8fd4\u7a0b)","public_transport:version":"2","ref":"10","route":"bus","to":"\u81fa\u5357\u706b\u8eca\u7ad9","type":"route"},"geometry":{"type":"LineString","coordinates":[[120.2116717,22.9968407],[120.2117548,22.9968827],[120.212069,22.9968492]]}},{"type":"Feature","properties":{"from":"\u9e7f\u8033\u9580\u5929\u540e\u5bae","name":"10\u8def(\u6b63\u7dda_\u8fd4\u7a0b)","public_transport:version":"2","ref":"10","route":"bus","to":"\u81fa\u5357\u706b\u8eca\u7ad9","type":"route"},"geometry":{"type":"LineString","coordinates":[[120.212069,22.9968492],[120.2121649,22.9970622]]}},{"type":"Feature","properties":{"from":"\u9e7f\u8033\u9580\u5929\u540e\u5bae","name":"10\u8def(\u6b63\u7dda_\u8fd4\u7a0b)","public_transport:version":"2","ref":"10","route":"bus","to":"\u81fa\u5357\u706b\u8eca\u7ad9","type":"route"},"geometry":{"type":"LineString","coordinates":[[120.2121649,22.9970622],[120.2122133,22.9972959],[120.212168,22.9973563],[120.2121286,22.9973921],[120.2120959,22.9974181],[120.2120524,22.997444],[120.2120074,22.9974624],[120.2119414,22.9974731],[120.2118275,22.9974837],[120.2117686,22.9974926],[120.2116821,22.99749],[120.2116207,22.9974678],[120.2115602,22.9973916],[120.2115296,22.9973406],[120.2115066,22.997283],[120.2115271,22.9971846],[120.2115746,22.9971088],[120.2116146,22.9970518],[120.21172,22.9970226],[120.2118512,22.9969848],[120.2120278,22.9969658],[120.2120928,22.9969906],[120.2121649,22.9970622]]}},{"type":"Feature","properties":{"from":"\u9e7f\u8033\u9580\u5929\u540e\u5bae","name":"10\u8def(\u6b63\u7dda_\u8fd4\u7a0b)","public_transport:version":"2","ref":"10","route":"bus","to":"\u81fa\u5357\u706b\u8eca\u7ad9","type":"route"},"geometry":{"type":"LineString","coordinates":[[120.2122133,22.9972959],[120.2122397,22.9974216],[120.2122751,22.997603]]}},{"type":"Feature","properties":{"from":"\u9e7f\u8033\u9580\u5929\u540e\u5bae","name":"10\u8def(\u6b63\u7dda_\u8fd4\u7a0b)","public_transport:version":"2","ref":"10","route":"bus","to":"\u81fa\u5357\u706b\u8eca\u7ad9","type":"route"},"geometry":{"type":"LineString","coordinates":[[120.2122751,22.997603],[120.2119739,22.9975969],[120.2117832,22.9976462],[120.2115914,22.9976739],[120.2115028,22.9976448],[120.2114348,22.9976192],[120.2113762,22.9975758],[120.211274,22.9974909],[120.211253,22.9974282],[120.2112366,22.9973829]]}},{"type":"Feature","properties":{"from":"\u9e7f\u8033\u9580\u5929\u540e\u5bae","name":"10\u8def(\u6b63\u7dda_\u8fd4\u7a0b)","public_transport:version":"2","ref":"10","route":"bus","to":"\u81fa\u5357\u706b\u8eca\u7ad9","type":"route"},"geometry":{"type":"LineString","coordinates":[[120.2112366,22.9973829],[120.2112224,22.9973263]]}}]}