{"type":"FeatureCollection","features":[{"type":"Feature","properties":{"bus":"yes","highway":"bus_stop","name":"\u6d77\u6771\u570b\u5c0f","network":"\u81fa\u5357\u5e02\u516c\u8eca","operator":"\u81fa\u5357\u5e02\u516c\u8eca","public_transport":"platform"},"geometry":{"type":"Point","coordinates":[120.1754279,23.0488524]}},{"type":"Feature","properties":{"bus":"yes","highway":"bus_stop","name":"\u5b89\u5357\u570b\u4e2d","network":"\u81fa\u5357\u5e02\u516c\u8eca","operator":"\u81fa\u5357\u5e02\u516c\u8eca","public_transport":"platform"},"geometry":{"type":"Point","coordinates":[120.1782521,23.048257]}},{"type":"Feature","properties":{"bus":"yes","highway":"bus_stop","name":"\u7a05\u52d9\u5c40\u5b89\u5357\u5206\u5c40","network":"\u81fa\u5357\u5e02\u516c\u8eca","operator":"\u81fa\u5357\u5e02\u516c\u8eca","public_transport":"platform"},"geometry":{"type":"Point","coordinates":[120.1809081,23.0476873]}},{"type":"Feature","properties":{"bus":"yes","highway":"bus_stop","name":"\u5b89\u4e2d\u8def\u4e09\u6bb5","network":"\u81fa\u5357\u5e02\u516c\u8eca","operator":"\u81fa\u5357\u5e02\u516c\u8eca","public_transport":"platform"},"geometry":{"type":"Point","coordinates":[120.1832759,23.0471964]}},{"type":"Feature","properties":{"bus":"yes","highway":"bus_stop","name":"\u6021\u5b89\u8def\u4e8c\u6bb5","network":"\u81fa\u5357\u5e02\u516c\u8eca","operator":"\u81fa\u5357\u5e02\u516c\u8eca","public_transport":"platform"},"geometry":{"type":"Point","coordinates":[120.1931736,23.0450734]}},{"type":"Feature","properties":{"bus":"yes","highway":"bus_stop","name":"\u8fb2\u7522\u54c1\u6279\u767c\u5e02\u5834","network":"\u81fa\u5357\u5e02\u516c\u8eca","operator":"\u81fa\u5357\u5e02\u516c\u8eca","public_transport":"platform"},"geometry":{"type":"Point","coordinates":[120.1993748,23.0436715]}},{"type":"Feature","properties":{"bus":"yes","highway":"bus_stop","name":"\u6021\u5b89\u8def\u4e00\u6bb5","network":"\u81fa\u5357\u5e02\u516c\u8eca","operator":"\u81fa\u5357\u5e02\u516c\u8eca","public_transport":"platform"},"geometry":{"type":"Point","coordinates":[120.2059409,23.0421708]}},{"type":"Feature","properties":{"bus":"yes","highway":"bus_stop","name":"\u6176\u5b89\u8def\u53e3","network":"\u81fa\u5357\u5e02\u516c\u8eca","operator":"\u81fa\u5357\u5e02\u516c\u8eca","public_transport":"platform"},"geometry":{"type":"Point","coordinates":[120.2132606,23.0404949]}},{"type":"Feature","properties":{"bus":"yes","highway":"bus_stop","name":"\u4e03\u865f\u6a4b","network":"\u81fa\u5357\u5e02\u516c\u8eca","operator":"\u81fa\u5357\u5e02\u516c\u8eca","public_transport":"platform"},"geometry":{"type":"Point","coordinates":[120.2156574,23.0409183]}},{"type":"Feature","properties":{"bus":"yes","highway":"bus_stop","name":"\u653f\u5b89\u8def\u53e3","network":"\u81fa\u5357\u5e02\u516c\u8eca","operator":"\u81fa\u5357\u5e02\u516c\u8eca","public_transport":"platform"},"geometry":{"type":"Point","coordinates":[120.2162273,23.0422938]}},{"type":"Feature","properties":{"bus":"yes","highway":"bus_stop","name":"\u65b0\u548c\u9806","network":"\u81fa\u5357\u5e02\u516c\u8eca","operator":"\u81fa\u5357\u5e02\u516c\u8eca","public_transport":"platform"},"geometry":{"type":"Point","coordinates":[120.2171491,23.0444257]}},{"type":"Feature","properties":{"bus":"yes","highway":"bus_stop","name":"\u5b89\u9806\u570b\u5c0f","network":"\u81fa\u5357\u5e02\u516c\u8eca","operator":"\u81fa\u5357\u5e02\u516c\u8eca","public_transport":"platform"},"geometry":{"type":"Point","coordinates":[120.2183479,23.0478891]}},{"type":"Feature","properties":{"bus":"yes","highway":"bus_stop","name":"\u5b89\u9806\u570b\u4e2d","network":"\u81fa\u5357\u5e02\u516c\u8eca","operator":"\u81fa\u5357\u5e02\u516c\u8eca","public_transport":"platform"},"geometry":{"type":"Point","coordinates":[120.218922,23.0500394]}},{"type":"Feature","properties":{"bus":"yes","highway":"bus_stop","name":"\u820a\u548c\u9806\u5317","network":"\u81fa\u5357\u5e02\u516c\u8eca","operator":"\u81fa\u5357\u5e02\u516c\u8eca","public_transport":"platform"},"geometry":{"type":"Point","coordinates":[120.2187118,23.0532829]}},{"type":"Feature","properties":{"bus":"yes","highway":"bus_stop","name":"\u5927\u8056\u5edf","network":"\u81fa\u5357\u5e02\u516c\u8eca","operator":"\u81fa\u5357\u5e02\u516c\u8eca","public_transport":"platform"},"geometry":{"type":"Point","coordinates":[120.2186355,23.0566334]}},{"type":"Feature","properties":{"bus":"yes","highway":"bus_stop","name":"\u4e2d\u6d32\u5bee","network":"\u81fa\u5357\u5e02\u516c\u8eca","operator":"\u81fa\u5357\u5e02\u516c\u8eca","public_transport":"platform"},"geometry":{"type":"Point","coordinates":[120.2187185,23.0583241]}},{"type":"Feature","properties":{"bus":"yes","highway":"bus_stop","name":"\u798f\u570b\u5bfa","network":"\u81fa\u5357\u5e02\u516c\u8eca","operator":"\u81fa\u5357\u5e02\u516c\u8eca","public_transport":"platform"},"geometry":{"type":"Point","coordinates":[120.2187396,23.0609496]}},{"type":"Feature","properties":{"bus":"yes","highway":"bus_stop","name":"\u548c\u9806","network":"\u81fa\u5357\u5e02\u516c\u8eca","operator":"\u81fa\u5357\u5e02\u516c\u8eca","public_transport":"platform"},"geometry":{"type":"Point","coordinates":[120.2186929,23.0636299]}},{"type":"Feature","properties":{"bus":"yes","highway":"bus_stop","name":"\u5b89\u548c\u8def\u4e94\u6bb5","network":"\u81fa\u5357\u5e02\u516c\u8eca","operator":"\u81fa\u5357\u5e02\u516c\u8eca","public_transport":"platform"},"geometry":{"type":"Point","coordinates":[120.2185212,23.0649913]}},{"type":"Feature","properties":{"bus":"yes","highway":"bus_stop","name":"\u548c\u9806\u570b\u5c0f","network":"\u81fa\u5357\u5e02\u516c\u8eca","operator":"\u81fa\u5357\u5e02\u516c\u8eca","public_transport":"platform"},"geometry":{"type":"Point","coordinates":[120.2176899,23.0665966]}},{"type":"Feature","properties":{"bus":"yes","highway":"bus_stop","name":"\u5317\u548c\u9806","network":"\u81fa\u5357\u5e02\u516c\u8eca","operator":"\u81fa\u5357\u5e02\u516c\u8eca","public_transport":"platform"},"geometry":{"type":"Point","coordinates":[120.2163984,23.0688438]}},{"type":"Feature","properties":{"bus":"yes","highway":"bus_stop","name":"\u5609\u7da0\u5bf6\u793e\u5340","network":"\u81fa\u5357\u5e02\u516c\u8eca","operator":"\u81fa\u5357\u5e02\u516c\u8eca","public_transport":"platform"},"geometry":{"type":"Point","coordinates":[120.2176161,23.0696429]}},{"type":"Feature","properties":{"bus":"yes","highway":"bus_stop","name":"\u5b89\u660c\u8857\u53e3","network":"\u81fa\u5357\u5e02\u516c\u8eca","operator":"\u81fa\u5357\u5e02\u516c\u8eca","public_transport":"platform"},"geometry":{"type":"Point","coordinates":[120.2193652,23.0696813]}},{"type":"Feature","properties":{"bus":"yes","highway":"bus_stop","name":"\u586d\u5357\u91cc","network":"\u81fa\u5357\u5e02\u516c\u8eca","operator":"\u81fa\u5357\u5e02\u516c\u8eca","public_transport":"platform"},"geometry":{"type":"Point","coordinates":[120.2212549,23.0697035]}},{"type":"Feature","properties":{"bus":"yes","highway":"bus_stop","name":"\u548c\u9806\u570b\u4e2d","network":"\u81fa\u5357\u5e02\u516c\u8eca","operator":"\u81fa\u5357\u5e02\u516c\u8eca","public_transport":"platform"},"geometry":{"type":"Point","coordinates":[120.2229202,23.0688587]}},{"type":"Feature","properties":{"bus":"yes","highway":"bus_stop","name":"\u5b89\u5357\u91ab\u9662","network":"\u81fa\u5357\u5e02\u516c\u8eca","operator":"\u81fa\u5357\u5e02\u516c\u8eca","public_transport":"platform"},"geometry":{"type":"Point","coordinates":[120.2232094,23.064527]}},{"type":"Feature","properties":{"bus":"yes","highway":"bus_stop","name":"\u6771\u548c\u91cc","network":"\u81fa\u5357\u5e02\u516c\u8eca","operator":"\u81fa\u5357\u5e02\u516c\u8eca","public_transport":"platform"},"geometry":{"type":"Point","coordinates":[120.2274308,23.0628007]}},{"type":"Feature","properties":{"bus":"yes","highway":"bus_stop","name":"\u74b0\u9928\u5317\u8def(\u53f2\u535a\u9928\u7279\u5340)","network":"\u81fa\u5357\u5e02\u516c\u8eca","operator":"\u81fa\u5357\u5e02\u516c\u8eca","public_transport":"platform"},"geometry":{"type":"Point","coordinates":[120.2293914,23.0634205]}},{"type":"Feature","properties":{"bus":"yes","highway":"bus_stop","name":"\u74b0\u9928\u4e09\u8def","network":"\u81fa\u5357\u5e02\u516c\u8eca","operator":"\u81fa\u5357\u5e02\u516c\u8eca","public_transport":"platform"},"geometry":{"type":"Point","coordinates":[120.2344957,23.0643484]}},{"type":"Feature","properties":{"bus":"yes","highway":"bus_stop","name":"\u81fa\u7063\u6b77\u53f2\u535a\u7269\u9928(\u9577\u548c\u8def)","network":"\u81fa\u5357\u5e02\u516c\u8eca","operator":"\u81fa\u5357\u5e02\u516c\u8eca","public_transport":"platform"},"geometry":{"type":"Point","coordinates":[120.2320664,23.0584933]}},{"type":"Feature","properties":{"bus":"yes","highway":"bus_stop","name":"\u4ec1\u611b\u8857","network":"\u81fa\u5357\u5e02\u516c\u8eca","operator":"\u81fa\u5357\u5e02\u516c\u8eca","public_transport":"platform"},"geometry":{"type":"Point","coordinates":[120.2387001,23.0436668]}},{"type":"Feature","properties":{"bus":"yes","highway":"bus_stop","name":"\u9e7d\u884c","network":"\u81fa\u5357\u5e02\u516c\u8eca","operator":"\u81fa\u5357\u5e02\u516c\u8eca","public_transport":"platform"},"geometry":{"type":"Point","coordinates":[120.2365051,23.0408937]}},{"type":"Feature","properties":{"highway":"bus_stop","name":"\u53f0\u5357\u61c9\u7528\u79d1\u6280\u5927\u5b78","network":"\u81fa\u5357\u5e02\u516c\u8eca","operator":"\u81fa\u5357\u5e02\u516c\u8eca","public_transport":"platform"},"geometry":{"type":"Point","coordinates":[120.2379953,23.0368492]}},{"type":"Feature","properties":{"bus":"yes","highway":"bus_stop","name":"\u5357\u61c9\u5927\u99a8\u5712","network":"\u81fa\u5357\u5e02\u516c\u8eca","operator":"\u81fa\u5357\u5e02\u516c\u8eca","public_transport":"platform"},"geometry":{"type":"Point","coordinates":[120.2379095,23.0356516]}},{"type":"Feature","properties":{"bus":"yes","highway":"bus_stop","name":"\u65b0\u4e2d\u8857","network":"\u81fa\u5357\u5e02\u516c\u8eca","operator":"\u81fa\u5357\u5e02\u516c\u8eca","public_transport":"platform"},"geometry":{"type":"Point","coordinates":[120.2394682,23.0356913]}},{"type":"Feature","properties":{"bus":"yes","highway":"bus_stop","name":"\u6b50\u6d32\u4e16\u754c\u793e\u5340","network":"\u81fa\u5357\u5e02\u516c\u8eca","operator":"\u81fa\u5357\u5e02\u516c\u8eca","public_transport":"platform","ref":"8456"},"geometry":{"type":"Point","coordinates":[120.2527574,23.0306601]}},{"type":"Feature","properties":{"bus":"yes","highway":"bus_stop","name":"\u56db\u7dad\u8857","network":"\u81fa\u5357\u5e02\u516c\u8eca","operator":"\u81fa\u5357\u5e02\u516c\u8eca","public_transport":"platform"},"geometry":{"type":"Point","coordinates":[120.2520593,23.0341919]}},{"type":"Feature","properties":{"bus":"yes","highway":"bus_stop","name":"\u6c38\u5eb7\u706b\u8eca\u7ad9","network":"\u81fa\u5357\u5e02\u516c\u8eca","operator":"\u81fa\u5357\u5e02\u516c\u8eca","public_transport":"platform"},"geometry":{"type":"Point","coordinates":[120.2541971,23.0367819]}},{"type":"Feature","properties":{"bus":"yes","highway":"bus_stop","name":"\u57d4\u5712\u91cc","network":"\u81fa\u5357\u5e02\u516c\u8eca","operator":"\u81fa\u5357\u5e02\u516c\u8eca","public_transport":"platform"},"geometry":{"type":"Point","coordinates":[120.2593772,23.0343681]}},{"type":"Feature","properties":{"bus":"yes","highway":"bus_stop","name":"\u6c38\u5927\u8def\u57d4\u8056\u8857\u53e3","network":"\u81fa\u5357\u5e02\u516c\u8eca","operator":"\u81fa\u5357\u5e02\u516c\u8eca","public_transport":"platform"},"geometry":{"type":"Point","coordinates":[120.2603166,23.0285058]}},{"type":"Feature","properties":{"bus":"yes","highway":"bus_stop","name":"\u6c38\u5eb7(\u6c38\u5927\u8def)","network":"\u81fa\u5357\u5e02\u516c\u8eca","operator":"\u81fa\u5357\u5e02\u516c\u8eca","public_transport":"platform"},"geometry":{"type":"Point","coordinates":[120.2608186,23.0242201]}},{"type":"Feature","properties":{"bus":"yes","highway":"bus_stop","name":"\u570b\u901a\u6c7d\u8eca\u516c\u53f8","network":"\u81fa\u5357\u5e02\u516c\u8eca","operator":"\u81fa\u5357\u5e02\u516c\u8eca","public_transport":"platform"},"geometry":{"type":"Point","coordinates":[120.2612544,23.0216035]}},{"type":"Feature","properties":{"bus":"yes","highway":"bus_stop","name":"\u6c38\u5927\u591c\u5e02","network":"\u81fa\u5357\u5e02\u516c\u8eca","operator":"\u81fa\u5357\u5e02\u516c\u8eca","public_transport":"platform"},"geometry":{"type":"Point","coordinates":[120.2622006,23.0188635]}},{"type":"Feature","properties":{"bench":"no","bus":"yes","highway":"bus_stop","name":"\u6c38\u5927\u516c\u5712","network":"\u81fa\u5357\u5e02\u516c\u8eca","operator":"\u5e9c\u57ce\u5ba2\u904b","public_transport":"platform","shelter":"no"},"geometry":{"type":"Point","coordinates":[120.2636256,23.0134709]}},{"type":"Feature","properties":{"bus":"yes","highway":"bus_stop","name":"\u694a\u6176\u7965\u4e2d\u91ab\u8a3a\u6240","network":"\u81fa\u5357\u5e02\u516c\u8eca","operator":"\u81fa\u5357\u5e02\u516c\u8eca","public_transport":"platform"},"geometry":{"type":"Point","coordinates":[120.2623766,23.0090602]}},{"type":"Feature","properties":{"bus":"yes","highway":"bus_stop","name":"\u4e0b\u5df7\u4ed4","network":"\u81fa\u5357\u5e02\u516c\u8eca","operator":"\u81fa\u5357\u5e02\u516c\u8eca","public_transport":"platform"},"geometry":{"type":"Point","coordinates":[120.2612327,23.0054173]}},{"type":"Feature","properties":{"bus":"yes","highway":"bus_stop","name":"\u5927\u7063\u5929\u516c\u5edf","network":"\u81fa\u5357\u5e02\u516c\u8eca","operator":"\u81fa\u5357\u5e02\u516c\u8eca","public_transport":"platform"},"geometry":{"type":"Point","coordinates":[120.2607979,23.0043767]}},{"type":"Feature","properties":{"bus":"yes","highway":"bus_stop","name":"\u5927\u7063","network":"\u81fa\u5357\u5e02\u516c\u8eca","operator":"\u81fa\u5357\u5e02\u516c\u8eca","public_transport":"platform"},"geometry":{"type":"Point","coordinates":[120.2594524,23.0010109]}},{"type":"Feature","properties":{"bus":"yes","highway":"bus_stop","name":"\u5929\u516c\u5edf","network":"\u81fa\u5357\u5e02\u516c\u8eca","operator":"\u81fa\u5357\u5e02\u516c\u8eca","public_transport":"platform"},"geometry":{"type":"Point","coordinates":[120.2581342,23.000118]}},{"type":"Feature","properties":{"bus":"yes","highway":"bus_stop","name":"\u5d11\u5c71\u793e\u5340","network":"\u81fa\u5357\u5e02\u516c\u8eca","operator":"\u81fa\u5357\u5e02\u516c\u8eca","public_transport":"platform"},"geometry":{"type":"Point","coordinates":[120.2549803,22.9994677]}},{"type":"Feature","properties":{"bus":"yes","highway":"bus_stop","name":"\u5d11\u5c71\u79d1\u5927","network":"\u81fa\u5357\u5e02\u516c\u8eca","operator":"\u81fa\u5357\u5e02\u516c\u8eca","public_transport":"platform"},"geometry":{"type":"Point","coordinates":[120.2527575,22.9990838]}},{"type":"Feature","properties":{"bus":"yes","highway":"bus_stop","name":"\u5efa\u570b\u91cc","network":"\u81fa\u5357\u5e02\u516c\u8eca","operator":"\u81fa\u5357\u5e02\u516c\u8eca","public_transport":"platform"},"geometry":{"type":"Point","coordinates":[120.2498402,22.9987105]}},{"type":"Feature","properties":{"bus":"yes","highway":"bus_stop","name":"\u6f22\u8072\u96fb\u53f0","network":"\u81fa\u5357\u5e02\u516c\u8eca","operator":"\u81fa\u5357\u5e02\u516c\u8eca","public_transport":"platform"},"geometry":{"type":"Point","coordinates":[120.2462118,22.9987015]}},{"type":"Feature","properties":{"bus":"yes","highway":"bus_stop","name":"\u5f71\u5287\u4e09\u6751","network":"\u81fa\u5357\u5e02\u516c\u8eca","operator":"\u81fa\u5357\u5e02\u516c\u8eca","public_transport":"platform"},"geometry":{"type":"Point","coordinates":[120.2423684,22.9987277]}},{"type":"Feature","properties":{"bus":"yes","highway":"bus_stop","name":"\u69ae\u6c11\u91ab\u9662","network":"\u81fa\u5357\u5e02\u516c\u8eca","operator":"\u81fa\u5357\u5e02\u516c\u8eca","public_transport":"platform"},"geometry":{"type":"Point","coordinates":[120.2391521,22.998626]}},{"type":"Feature","properties":{"bus":"yes","highway":"bus_stop","name":"\u570b\u8cd3\u5f71\u57ce","network":"\u81fa\u5357\u5e02\u516c\u8eca","operator":"\u81fa\u5357\u5e02\u516c\u8eca","public_transport":"platform"},"geometry":{"type":"Point","coordinates":[120.234296,22.9965567]}},{"type":"Feature","properties":{"bus":"yes","highway":"bus_stop","name":"\u5357\u7d21\u8cfc\u7269\u4e2d\u5fc3","network":"\u81fa\u5357\u5e02\u516c\u8eca","operator":"\u81fa\u5357\u5e02\u516c\u8eca","public_transport":"platform","ref":"0804"},"geometry":{"type":"Point","coordinates":[120.2335426,22.9899831]}},{"type":"Feature","properties":{"bus":"yes","highway":"bus_stop","name":"\u5357\u7d21\u8cfc\u7269\u4e2d\u5fc3(\u6771\u5149\u8def)","network":"\u81fa\u5357\u5e02\u516c\u8eca","operator":"\u81fa\u5357\u5e02\u516c\u8eca","public_transport":"platform"},"geometry":{"type":"Point","coordinates":[120.2310112,22.991419]}},{"type":"Feature","properties":{"from":"\u6d77\u6771\u570b\u5c0f","name":"20\u8def(\u6b63\u7dda_\u8fd4\u7a0b)","public_transport:version":"2","ref":"20","route":"bus","to":"\u5357\u7d21\u8cfc\u7269\u4e2d\u5fc3","type":"route"},"geometry":{"type":"LineString","coordinates":[[120.1747588,23.049109],[120.1756044,23.0488924],[120.1759152,23.0488086]]}},{"type":"Feature","properties":{"from":"\u6d77\u6771\u570b\u5c0f","name":"20\u8def(\u6b63\u7dda_\u8fd4\u7a0b)","public_transport:version":"2","ref":"20","route":"bus","to":"\u5357\u7d21\u8cfc\u7269\u4e2d\u5fc3","type":"route"},"geometry":{"type":"LineString","coordinates":[[120.1759152,23.0488086],[120.1764738,23.0486876],[120.1769176,23.0485943],[120.1769999,23.0485769],[120.1776115,23.0484479],[120.1778442,23.0483967],[120.1787252,23.0482086],[120.1803037,23.0478716],[120.1813778,23.047645],[120.181808,23.0475537],[120.1826026,23.0473807],[120.1835718,23.0471737],[120.1838222,23.0471202],[120.1840373,23.0470743]]}},{"type":"Feature","properties":{"from":"\u6d77\u6771\u570b\u5c0f","name":"20\u8def(\u6b63\u7dda_\u8fd4\u7a0b)","public_transport:version":"2","ref":"20","route":"bus","to":"\u5357\u7d21\u8cfc\u7269\u4e2d\u5fc3","type":"route"},"geometry":{"type":"LineString","coordinates":[[120.1840373,23.0470743],[120.185605,23.0467344],[120.1873718,23.0463513],[120.1883939,23.0461297],[120.1884991,23.0461069],[120.1897135,23.0458435],[120.1905282,23.0456669],[120.1905952,23.0456524]]}},{"type":"Feature","properties":{"from":"\u6d77\u6771\u570b\u5c0f","name":"20\u8def(\u6b63\u7dda_\u8fd4\u7a0b)","public_transport:version":"2","ref":"20","route":"bus","to":"\u5357\u7d21\u8cfc\u7269\u4e2d\u5fc3","type":"route"},"geometry":{"type":"LineString","coordinates":[[120.1905952,23.0456524],[120.1908053,23.0456088],[120.1914734,23.0454648]]}},{"type":"Feature","properties":{"from":"\u6d77\u6771\u570b\u5c0f","name":"20\u8def(\u6b63\u7dda_\u8fd4\u7a0b)","public_transport:version":"2","ref":"20","route":"bus","to":"\u5357\u7d21\u8cfc\u7269\u4e2d\u5fc3","type":"route"},"geometry":{"type":"LineString","coordinates":[[120.1914734,23.0454648],[120.1933919,23.0450426],[120.1937295,23.0449678],[120.1943604,23.0448279],[120.1953885,23.0446],[120.1956983,23.0445313],[120.1967969,23.0442877],[120.1981025,23.0439982],[120.19974,23.0436352],[120.2000041,23.0435766],[120.2006918,23.0434242],[120.2026913,23.0429808],[120.203114,23.0428871],[120.2033631,23.0428319],[120.2034815,23.0428057]]}},{"type":"Feature","properties":{"from":"\u6d77\u6771\u570b\u5c0f","name":"20\u8def(\u6b63\u7dda_\u8fd4\u7a0b)","public_transport:version":"2","ref":"20","route":"bus","to":"\u5357\u7d21\u8cfc\u7269\u4e2d\u5fc3","type":"route"},"geometry":{"type":"LineString","coordinates":[[120.2034815,23.0428057],[120.2039183,23.0427088],[120.2054568,23.0423429],[120.2069791,23.0419809],[120.2076833,23.0418134],[120.2078673,23.0417697],[120.2079544,23.041749],[120.208035,23.0417298],[120.2081714,23.0416974],[120.2088445,23.0415373],[120.2092497,23.0414409],[120.2099355,23.0412778],[120.2100284,23.0412557],[120.2113235,23.0409477],[120.2123893,23.0406943],[120.2129072,23.0405711],[120.2137457,23.0403717],[120.2146485,23.040157],[120.2152961,23.040003]]}},{"type":"Feature","properties":{"from":"\u6d77\u6771\u570b\u5c0f","name":"20\u8def(\u6b63\u7dda_\u8fd4\u7a0b)","public_transport:version":"2","ref":"20","route":"bus","to":"\u5357\u7d21\u8cfc\u7269\u4e2d\u5fc3","type":"route"},"geometry":{"type":"LineString","coordinates":[[120.2152961,23.040003],[120.2153422,23.0401064]]}},{"type":"Feature","properties":{"from":"\u6d77\u6771\u570b\u5c0f","name":"20\u8def(\u6b63\u7dda_\u8fd4\u7a0b)","public_transport:version":"2","ref":"20","route":"bus","to":"\u5357\u7d21\u8cfc\u7269\u4e2d\u5fc3","type":"route"},"geometry":{"type":"LineString","coordinates":[[120.2153422,23.0401064],[120.2155555,23.0406016],[120.2157392,23.0410619],[120.2160114,23.0417197],[120.2160541,23.0418299],[120.216454,23.0428625],[120.2166699,23.0434129]]}},{"type":"Feature","properties":{"from":"\u6d77\u6771\u570b\u5c0f","name":"20\u8def(\u6b63\u7dda_\u8fd4\u7a0b)","public_transport:version":"2","ref":"20","route":"bus","to":"\u5357\u7d21\u8cfc\u7269\u4e2d\u5fc3","type":"route"},"geometry":{"type":"LineString","coordinates":[[120.2166699,23.0434129],[120.2169529,23.0440805],[120.2171634,23.0445692],[120.2171969,23.0446494],[120.2174008,23.0451221],[120.217665,23.0457033],[120.2177783,23.0460014],[120.2178876,23.0463241],[120.2181459,23.0472013],[120.2182578,23.0475581],[120.2183838,23.0480394],[120.2185378,23.0486125],[120.2186199,23.048918],[120.2189766,23.0505366]]}},{"type":"Feature","properties":{"from":"\u6d77\u6771\u570b\u5c0f","name":"20\u8def(\u6b63\u7dda_\u8fd4\u7a0b)","public_transport:version":"2","ref":"20","route":"bus","to":"\u5357\u7d21\u8cfc\u7269\u4e2d\u5fc3","type":"route"},"geometry":{"type":"LineString","coordinates":[[120.2189766,23.0505366],[120.2189938,23.0507534],[120.2189852,23.0510912],[120.2188378,23.0519379],[120.2187751,23.0523102],[120.218757,23.0524861],[120.2187443,23.0525391],[120.2187154,23.0528544],[120.2186738,23.0533665],[120.218639,23.0539638],[120.218592,23.0544834],[120.2185837,23.0545701],[120.2185545,23.0548769],[120.2185518,23.0554014],[120.2185531,23.0555976],[120.2186376,23.0565144],[120.2186541,23.058172],[120.218694,23.0591477],[120.2186909,23.0605278],[120.2186869,23.0615569],[120.218699,23.0626292],[120.218707,23.0633235]]}},{"type":"Feature","properties":{"from":"\u6d77\u6771\u570b\u5c0f","name":"20\u8def(\u6b63\u7dda_\u8fd4\u7a0b)","public_transport:version":"2","ref":"20","route":"bus","to":"\u5357\u7d21\u8cfc\u7269\u4e2d\u5fc3","type":"route"},"geometry":{"type":"LineString","coordinates":[[120.218707,23.0633235],[120.218695,23.0636175],[120.2186507,23.0640654],[120.2185952,23.0644494],[120.218534,23.064828],[120.2184187,23.0652808],[120.2182779,23.0656362],[120.2181585,23.0658743],[120.2180254,23.0661042],[120.2179533,23.0662186],[120.2178286,23.0663827],[120.2175644,23.0667121],[120.2172613,23.0671267],[120.2170025,23.067566],[120.2167675,23.0680587],[120.2162195,23.0691286],[120.2160796,23.0694219]]}},{"type":"Feature","properties":{"from":"\u6d77\u6771\u570b\u5c0f","name":"20\u8def(\u6b63\u7dda_\u8fd4\u7a0b)","public_transport:version":"2","ref":"20","route":"bus","to":"\u5357\u7d21\u8cfc\u7269\u4e2d\u5fc3","type":"route"},"geometry":{"type":"LineString","coordinates":[[120.2188973,23.0697002],[120.218506,23.0696952],[120.2182684,23.0696922],[120.2176089,23.069684],[120.217266,23.0696796],[120.2170146,23.0696765],[120.2168564,23.0696745],[120.2166778,23.0696722],[120.2165474,23.0696414],[120.2163518,23.0695397],[120.2160796,23.0694219]]}},{"type":"Feature","properties":{"from":"\u6d77\u6771\u570b\u5c0f","name":"20\u8def(\u6b63\u7dda_\u8fd4\u7a0b)","public_transport:version":"2","ref":"20","route":"bus","to":"\u5357\u7d21\u8cfc\u7269\u4e2d\u5fc3","type":"route"},"geometry":{"type":"LineString","coordinates":[[120.2217813,23.0697494],[120.2203159,23.0697244],[120.219274,23.0697066],[120.2188973,23.0697002]]}},{"type":"Feature","properties":{"from":"\u6d77\u6771\u570b\u5c0f","name":"20\u8def(\u6b63\u7dda_\u8fd4\u7a0b)","public_transport:version":"2","ref":"20","route":"bus","to":"\u5357\u7d21\u8cfc\u7269\u4e2d\u5fc3","type":"route"},"geometry":{"type":"LineString","coordinates":[[120.2230167,23.0697705],[120.2217813,23.0697494]]}},{"type":"Feature","properties":{"from":"\u6d77\u6771\u570b\u5c0f","name":"20\u8def(\u6b63\u7dda_\u8fd4\u7a0b)","public_transport:version":"2","ref":"20","route":"bus","to":"\u5357\u7d21\u8cfc\u7269\u4e2d\u5fc3","type":"route"},"geometry":{"type":"LineString","coordinates":[[120.2230453,23.0680382],[120.2230706,23.068114],[120.2230563,23.0686139],[120.2230367,23.0692267],[120.2230167,23.0697705]]}},{"type":"Feature","properties":{"from":"\u6d77\u6771\u570b\u5c0f","name":"20\u8def(\u6b63\u7dda_\u8fd4\u7a0b)","public_transport:version":"2","ref":"20","route":"bus","to":"\u5357\u7d21\u8cfc\u7269\u4e2d\u5fc3","type":"route"},"geometry":{"type":"LineString","coordinates":[[120.2230453,23.0680382],[120.2230844,23.0679415],[120.2235225,23.0669636],[120.2237612,23.0665244],[120.2239409,23.0661419],[120.2241313,23.0657643],[120.2242742,23.0652842],[120.2246274,23.0642425]]}},{"type":"Feature","properties":{"from":"\u6d77\u6771\u570b\u5c0f","name":"20\u8def(\u6b63\u7dda_\u8fd4\u7a0b)","public_transport:version":"2","ref":"20","route":"bus","to":"\u5357\u7d21\u8cfc\u7269\u4e2d\u5fc3","type":"route"},"geometry":{"type":"LineString","coordinates":[[120.2246274,23.0642425],[120.2237959,23.0641462]]}},{"type":"Feature","properties":{"from":"\u6d77\u6771\u570b\u5c0f","name":"20\u8def(\u6b63\u7dda_\u8fd4\u7a0b)","public_transport:version":"2","ref":"20","route":"bus","to":"\u5357\u7d21\u8cfc\u7269\u4e2d\u5fc3","type":"route"},"geometry":{"type":"LineString","coordinates":[[120.2237959,23.0641462],[120.2237627,23.0644865],[120.2234366,23.0644579]]}},{"type":"Feature","properties":{"from":"\u6d77\u6771\u570b\u5c0f","name":"20\u8def(\u6b63\u7dda_\u8fd4\u7a0b)","public_transport:version":"2","ref":"20","route":"bus","to":"\u5357\u7d21\u8cfc\u7269\u4e2d\u5fc3","type":"route"},"geometry":{"type":"LineString","coordinates":[[120.2234366,23.0644579],[120.2233343,23.0644795],[120.2231277,23.0644669],[120.2230078,23.0644238]]}},{"type":"Feature","properties":{"from":"\u6d77\u6771\u570b\u5c0f","name":"20\u8def(\u6b63\u7dda_\u8fd4\u7a0b)","public_transport:version":"2","ref":"20","route":"bus","to":"\u5357\u7d21\u8cfc\u7269\u4e2d\u5fc3","type":"route"},"geometry":{"type":"LineString","coordinates":[[120.2230078,23.0644238],[120.2230987,23.064375],[120.223156,23.0643303],[120.2232507,23.0643114],[120.2233205,23.0643372],[120.2233731,23.0643821],[120.2234366,23.0644579]]}},{"type":"Feature","properties":{"from":"\u6d77\u6771\u570b\u5c0f","name":"20\u8def(\u6b63\u7dda_\u8fd4\u7a0b)","public_transport:version":"2","ref":"20","route":"bus","to":"\u5357\u7d21\u8cfc\u7269\u4e2d\u5fc3","type":"route"},"geometry":{"type":"LineString","coordinates":[[120.2248084,23.0641845],[120.2247239,23.0642289],[120.2246274,23.0642425]]}},{"type":"Feature","properties":{"from":"\u6d77\u6771\u570b\u5c0f","name":"20\u8def(\u6b63\u7dda_\u8fd4\u7a0b)","public_transport:version":"2","ref":"20","route":"bus","to":"\u5357\u7d21\u8cfc\u7269\u4e2d\u5fc3","type":"route"},"geometry":{"type":"LineString","coordinates":[[120.2248084,23.0641845],[120.2250498,23.0640667]]}},{"type":"Feature","properties":{"from":"\u6d77\u6771\u570b\u5c0f","name":"20\u8def(\u6b63\u7dda_\u8fd4\u7a0b)","public_transport:version":"2","ref":"20","route":"bus","to":"\u5357\u7d21\u8cfc\u7269\u4e2d\u5fc3","type":"route"},"geometry":{"type":"LineString","coordinates":[[120.2282296,23.0624903],[120.2274665,23.0628593],[120.225998,23.0635749],[120.225137,23.0640222],[120.2250498,23.0640667]]}},{"type":"Feature","properties":{"from":"\u6d77\u6771\u570b\u5c0f","name":"20\u8def(\u6b63\u7dda_\u8fd4\u7a0b)","public_transport:version":"2","ref":"20","route":"bus","to":"\u5357\u7d21\u8cfc\u7269\u4e2d\u5fc3","type":"route"},"geometry":{"type":"LineString","coordinates":[[120.2345481,23.0652265],[120.2333432,23.065076],[120.2326592,23.0648736],[120.2319994,23.0647083],[120.2309587,23.0643209],[120.2305188,23.0641407],[120.2297168,23.0636842],[120.2291187,23.0633238],[120.2283386,23.0626907],[120.2282296,23.0624903]]}},{"type":"Feature","properties":{"from":"\u6d77\u6771\u570b\u5c0f","name":"20\u8def(\u6b63\u7dda_\u8fd4\u7a0b)","public_transport:version":"2","ref":"20","route":"bus","to":"\u5357\u7d21\u8cfc\u7269\u4e2d\u5fc3","type":"route"},"geometry":{"type":"LineString","coordinates":[[120.2346833,23.0633722],[120.2345481,23.0652265]]}},{"type":"Feature","properties":{"from":"\u6d77\u6771\u570b\u5c0f","name":"20\u8def(\u6b63\u7dda_\u8fd4\u7a0b)","public_transport:version":"2","ref":"20","route":"bus","to":"\u5357\u7d21\u8cfc\u7269\u4e2d\u5fc3","type":"route"},"geometry":{"type":"LineString","coordinates":[[120.2346833,23.0633722],[120.2338751,23.0632541],[120.233457,23.0631764],[120.233344,23.0631554],[120.2327679,23.0629977],[120.2318219,23.062663],[120.2313034,23.0624203],[120.2308528,23.0621636],[120.2302896,23.0617786],[120.2296304,23.0612886],[120.2295391,23.0612073]]}},{"type":"Feature","properties":{"from":"\u6d77\u6771\u570b\u5c0f","name":"20\u8def(\u6b63\u7dda_\u8fd4\u7a0b)","public_transport:version":"2","ref":"20","route":"bus","to":"\u5357\u7d21\u8cfc\u7269\u4e2d\u5fc3","type":"route"},"geometry":{"type":"LineString","coordinates":[[120.2295391,23.0612073],[120.2296176,23.0611269],[120.2307522,23.0599896],[120.2324725,23.0582971],[120.2343501,23.0564705],[120.2348511,23.0559765],[120.2350864,23.0557532],[120.235176,23.055725]]}},{"type":"Feature","properties":{"from":"\u6d77\u6771\u570b\u5c0f","name":"20\u8def(\u6b63\u7dda_\u8fd4\u7a0b)","public_transport:version":"2","ref":"20","route":"bus","to":"\u5357\u7d21\u8cfc\u7269\u4e2d\u5fc3","type":"route"},"geometry":{"type":"LineString","coordinates":[[120.235176,23.055725],[120.2355633,23.0553547]]}},{"type":"Feature","properties":{"from":"\u6d77\u6771\u570b\u5c0f","name":"20\u8def(\u6b63\u7dda_\u8fd4\u7a0b)","public_transport:version":"2","ref":"20","route":"bus","to":"\u5357\u7d21\u8cfc\u7269\u4e2d\u5fc3","type":"route"},"geometry":{"type":"LineString","coordinates":[[120.2355633,23.0553547],[120.2356484,23.0552082],[120.2379216,23.0532304],[120.2385013,23.0524842],[120.238614,23.0524003]]}},{"type":"Feature","properties":{"from":"\u6d77\u6771\u570b\u5c0f","name":"20\u8def(\u6b63\u7dda_\u8fd4\u7a0b)","public_transport:version":"2","ref":"20","route":"bus","to":"\u5357\u7d21\u8cfc\u7269\u4e2d\u5fc3","type":"route"},"geometry":{"type":"LineString","coordinates":[[120.2386798,23.0523087],[120.238614,23.0524003]]}},{"type":"Feature","properties":{"from":"\u6d77\u6771\u570b\u5c0f","name":"20\u8def(\u6b63\u7dda_\u8fd4\u7a0b)","public_transport:version":"2","ref":"20","route":"bus","to":"\u5357\u7d21\u8cfc\u7269\u4e2d\u5fc3","type":"route"},"geometry":{"type":"LineString","coordinates":[[120.2386798,23.0523087],[120.2400785,23.0505195]]}},{"type":"Feature","properties":{"from":"\u6d77\u6771\u570b\u5c0f","name":"20\u8def(\u6b63\u7dda_\u8fd4\u7a0b)","public_transport:version":"2","ref":"20","route":"bus","to":"\u5357\u7d21\u8cfc\u7269\u4e2d\u5fc3","type":"route"},"geometry":{"type":"LineString","coordinates":[[120.2400785,23.0505195],[120.2401124,23.0504734],[120.2413557,23.0488669]]}},{"type":"Feature","properties":{"from":"\u6d77\u6771\u570b\u5c0f","name":"20\u8def(\u6b63\u7dda_\u8fd4\u7a0b)","public_transport:version":"2","ref":"20","route":"bus","to":"\u5357\u7d21\u8cfc\u7269\u4e2d\u5fc3","type":"route"},"geometry":{"type":"LineString","coordinates":[[120.2373565,23.0412519],[120.2372425,23.041413],[120.2373015,23.0415056],[120.2376756,23.0418129],[120.2379667,23.042109],[120.238133,23.0422818],[120.2382979,23.0424928],[120.2384602,23.042736],[120.2386088,23.0430918],[120.2387659,23.0434684],[120.2388444,23.0436566],[120.2391079,23.0441996],[120.2394432,23.0448932],[120.2395237,23.0450943],[120.2397255,23.0455472],[120.2400185,23.0461112],[120.2402345,23.0466098],[120.2407074,23.0475417],[120.2409547,23.0480289],[120.2413557,23.0488669]]}},{"type":"Feature","properties":{"from":"\u6d77\u6771\u570b\u5c0f","name":"20\u8def(\u6b63\u7dda_\u8fd4\u7a0b)","public_transport:version":"2","ref":"20","route":"bus","to":"\u5357\u7d21\u8cfc\u7269\u4e2d\u5fc3","type":"route"},"geometry":{"type":"LineString","coordinates":[[120.2373565,23.0412519],[120.2371794,23.0411779],[120.2368415,23.0410088],[120.236647,23.0408916],[120.236411,23.0407151],[120.2358826,23.0402437],[120.2353194,23.0397364],[120.2350042,23.0394884],[120.2346193,23.0391811],[120.2344624,23.0390182]]}},{"type":"Feature","properties":{"from":"\u6d77\u6771\u570b\u5c0f","name":"20\u8def(\u6b63\u7dda_\u8fd4\u7a0b)","public_transport:version":"2","ref":"20","route":"bus","to":"\u5357\u7d21\u8cfc\u7269\u4e2d\u5fc3","type":"route"},"geometry":{"type":"LineString","coordinates":[[120.2344624,23.0390182],[120.2345509,23.0389565]]}},{"type":"Feature","properties":{"from":"\u6d77\u6771\u570b\u5c0f","name":"20\u8def(\u6b63\u7dda_\u8fd4\u7a0b)","public_transport:version":"2","ref":"20","route":"bus","to":"\u5357\u7d21\u8cfc\u7269\u4e2d\u5fc3","type":"route"},"geometry":{"type":"LineString","coordinates":[[120.2345509,23.0389565],[120.234783,23.038764],[120.2367765,23.0368978],[120.2372848,23.0363844],[120.2373059,23.0363639]]}},{"type":"Feature","properties":{"from":"\u6d77\u6771\u570b\u5c0f","name":"20\u8def(\u6b63\u7dda_\u8fd4\u7a0b)","public_transport:version":"2","ref":"20","route":"bus","to":"\u5357\u7d21\u8cfc\u7269\u4e2d\u5fc3","type":"route"},"geometry":{"type":"LineString","coordinates":[[120.2373059,23.0363639],[120.2374361,23.0363506],[120.2379671,23.0367801],[120.2378908,23.0368744],[120.2378733,23.0368961],[120.2377404,23.0367833],[120.2373696,23.036453],[120.2373059,23.0363639]]}},{"type":"Feature","properties":{"from":"\u6d77\u6771\u570b\u5c0f","name":"20\u8def(\u6b63\u7dda_\u8fd4\u7a0b)","public_transport:version":"2","ref":"20","route":"bus","to":"\u5357\u7d21\u8cfc\u7269\u4e2d\u5fc3","type":"route"},"geometry":{"type":"LineString","coordinates":[[120.2373059,23.0363639],[120.2377778,23.0359048],[120.2381674,23.0355611],[120.2385277,23.0351918]]}},{"type":"Feature","properties":{"from":"\u6d77\u6771\u570b\u5c0f","name":"20\u8def(\u6b63\u7dda_\u8fd4\u7a0b)","public_transport:version":"2","ref":"20","route":"bus","to":"\u5357\u7d21\u8cfc\u7269\u4e2d\u5fc3","type":"route"},"geometry":{"type":"LineString","coordinates":[[120.2385277,23.0351918],[120.241866,23.0370417]]}},{"type":"Feature","properties":{"from":"\u6d77\u6771\u570b\u5c0f","name":"20\u8def(\u6b63\u7dda_\u8fd4\u7a0b)","public_transport:version":"2","ref":"20","route":"bus","to":"\u5357\u7d21\u8cfc\u7269\u4e2d\u5fc3","type":"route"},"geometry":{"type":"LineString","coordinates":[[120.241866,23.0370417],[120.2426843,23.0363052],[120.243325,23.0357076],[120.2437596,23.0353151],[120.2441552,23.0349671],[120.2447184,23.0344524],[120.2451194,23.0340575],[120.2452428,23.0339526]]}},{"type":"Feature","properties":{"from":"\u6d77\u6771\u570b\u5c0f","name":"20\u8def(\u6b63\u7dda_\u8fd4\u7a0b)","public_transport:version":"2","ref":"20","route":"bus","to":"\u5357\u7d21\u8cfc\u7269\u4e2d\u5fc3","type":"route"},"geometry":{"type":"LineString","coordinates":[[120.2452428,23.0339526],[120.2457215,23.0334787],[120.2458719,23.033313],[120.2460732,23.0331994],[120.246316,23.0330034],[120.2465601,23.0328318],[120.24676,23.0327135],[120.2476624,23.0322877]]}},{"type":"Feature","properties":{"from":"\u6d77\u6771\u570b\u5c0f","name":"20\u8def(\u6b63\u7dda_\u8fd4\u7a0b)","public_transport:version":"2","ref":"20","route":"bus","to":"\u5357\u7d21\u8cfc\u7269\u4e2d\u5fc3","type":"route"},"geometry":{"type":"LineString","coordinates":[[120.2476624,23.0322877],[120.2479508,23.0321408],[120.2486221,23.0318002],[120.2489587,23.0316545],[120.2492309,23.0315225],[120.2496869,23.0312929],[120.2500664,23.0311374],[120.250509,23.0310115],[120.2509771,23.0308832],[120.2514719,23.0307721],[120.2518863,23.0307338],[120.2522806,23.030703],[120.2527996,23.030703]]}},{"type":"Feature","properties":{"from":"\u6d77\u6771\u570b\u5c0f","name":"20\u8def(\u6b63\u7dda_\u8fd4\u7a0b)","public_transport:version":"2","ref":"20","route":"bus","to":"\u5357\u7d21\u8cfc\u7269\u4e2d\u5fc3","type":"route"},"geometry":{"type":"LineString","coordinates":[[120.2527996,23.030703],[120.2532529,23.0307412]]}},{"type":"Feature","properties":{"from":"\u6d77\u6771\u570b\u5c0f","name":"20\u8def(\u6b63\u7dda_\u8fd4\u7a0b)","public_transport:version":"2","ref":"20","route":"bus","to":"\u5357\u7d21\u8cfc\u7269\u4e2d\u5fc3","type":"route"},"geometry":{"type":"LineString","coordinates":[[120.2532529,23.0307412],[120.2531989,23.0309532]]}},{"type":"Feature","properties":{"from":"\u6d77\u6771\u570b\u5c0f","name":"20\u8def(\u6b63\u7dda_\u8fd4\u7a0b)","public_transport:version":"2","ref":"20","route":"bus","to":"\u5357\u7d21\u8cfc\u7269\u4e2d\u5fc3","type":"route"},"geometry":{"type":"LineString","coordinates":[[120.2531989,23.0309532],[120.2531738,23.0310071],[120.2528575,23.0319117],[120.252736,23.0322823],[120.2524345,23.0330769],[120.2523952,23.0332018],[120.2519199,23.0343591],[120.2517535,23.0347758],[120.2517158,23.0348736],[120.2515779,23.035341]]}},{"type":"Feature","properties":{"from":"\u6d77\u6771\u570b\u5c0f","name":"20\u8def(\u6b63\u7dda_\u8fd4\u7a0b)","public_transport:version":"2","ref":"20","route":"bus","to":"\u5357\u7d21\u8cfc\u7269\u4e2d\u5fc3","type":"route"},"geometry":{"type":"LineString","coordinates":[[120.2512614,23.0362562],[120.2514444,23.0356977],[120.2515779,23.035341]]}},{"type":"Feature","properties":{"from":"\u6d77\u6771\u570b\u5c0f","name":"20\u8def(\u6b63\u7dda_\u8fd4\u7a0b)","public_transport:version":"2","ref":"20","route":"bus","to":"\u5357\u7d21\u8cfc\u7269\u4e2d\u5fc3","type":"route"},"geometry":{"type":"LineString","coordinates":[[120.2512614,23.0362562],[120.2518514,23.0364752],[120.2523698,23.0366028],[120.2528023,23.0367155],[120.25305,23.0367752],[120.2534957,23.0368665],[120.2537243,23.0369134],[120.2538321,23.0369355],[120.2541748,23.0370064]]}},{"type":"Feature","properties":{"from":"\u6d77\u6771\u570b\u5c0f","name":"20\u8def(\u6b63\u7dda_\u8fd4\u7a0b)","public_transport:version":"2","ref":"20","route":"bus","to":"\u5357\u7d21\u8cfc\u7269\u4e2d\u5fc3","type":"route"},"geometry":{"type":"LineString","coordinates":[[120.2547147,23.0351386],[120.2544379,23.0360568],[120.2542683,23.036669],[120.2541748,23.0370064]]}},{"type":"Feature","properties":{"from":"\u6d77\u6771\u570b\u5c0f","name":"20\u8def(\u6b63\u7dda_\u8fd4\u7a0b)","public_transport:version":"2","ref":"20","route":"bus","to":"\u5357\u7d21\u8cfc\u7269\u4e2d\u5fc3","type":"route"},"geometry":{"type":"LineString","coordinates":[[120.2547147,23.0351386],[120.2562033,23.0350038],[120.2568926,23.0349254],[120.258039,23.0347794],[120.258907,23.0346817],[120.2594493,23.0346426]]}},{"type":"Feature","properties":{"from":"\u6d77\u6771\u570b\u5c0f","name":"20\u8def(\u6b63\u7dda_\u8fd4\u7a0b)","public_transport:version":"2","ref":"20","route":"bus","to":"\u5357\u7d21\u8cfc\u7269\u4e2d\u5fc3","type":"route"},"geometry":{"type":"LineString","coordinates":[[120.2594493,23.0346426],[120.2595238,23.0340217],[120.2597459,23.0325939],[120.2600163,23.0306127],[120.2603467,23.0286852],[120.2604112,23.0283492],[120.2605757,23.0274034]]}},{"type":"Feature","properties":{"from":"\u6d77\u6771\u570b\u5c0f","name":"20\u8def(\u6b63\u7dda_\u8fd4\u7a0b)","public_transport:version":"2","ref":"20","route":"bus","to":"\u5357\u7d21\u8cfc\u7269\u4e2d\u5fc3","type":"route"},"geometry":{"type":"LineString","coordinates":[[120.2605757,23.0274034],[120.2606814,23.0263601],[120.2608379,23.0246659]]}},{"type":"Feature","properties":{"from":"\u6d77\u6771\u570b\u5c0f","name":"20\u8def(\u6b63\u7dda_\u8fd4\u7a0b)","public_transport:version":"2","ref":"20","route":"bus","to":"\u5357\u7d21\u8cfc\u7269\u4e2d\u5fc3","type":"route"},"geometry":{"type":"LineString","coordinates":[[120.2608379,23.0246659],[120.2610833,23.0232165],[120.2611384,23.0227839],[120.2612716,23.021723],[120.2613768,23.0213725],[120.2616514,23.0207511],[120.2619363,23.0200234],[120.2620712,23.0195819],[120.2622123,23.0190342],[120.2624288,23.0182971],[120.2626498,23.0176751],[120.2627582,23.0172471],[120.2630275,23.0163938],[120.2634538,23.0148944],[120.263534,23.0146207],[120.2636983,23.0139962]]}},{"type":"Feature","properties":{"from":"\u6d77\u6771\u570b\u5c0f","name":"20\u8def(\u6b63\u7dda_\u8fd4\u7a0b)","public_transport:version":"2","ref":"20","route":"bus","to":"\u5357\u7d21\u8cfc\u7269\u4e2d\u5fc3","type":"route"},"geometry":{"type":"LineString","coordinates":[[120.2636983,23.0139962],[120.2637306,23.0138357],[120.2637233,23.0134882],[120.2636801,23.013298],[120.263559,23.0128465],[120.2634574,23.012439],[120.2634053,23.0123141],[120.2631631,23.0115155],[120.2629009,23.0106178],[120.2625455,23.0092594],[120.262412,23.0088015],[120.2622515,23.008332],[120.2621761,23.0079643],[120.261976,23.0073358],[120.2618483,23.006895]]}},{"type":"Feature","properties":{"from":"\u6d77\u6771\u570b\u5c0f","name":"20\u8def(\u6b63\u7dda_\u8fd4\u7a0b)","public_transport:version":"2","ref":"20","route":"bus","to":"\u5357\u7d21\u8cfc\u7269\u4e2d\u5fc3","type":"route"},"geometry":{"type":"LineString","coordinates":[[120.2618483,23.006895],[120.2615091,23.00599],[120.261136,23.0050238]]}},{"type":"Feature","properties":{"from":"\u6d77\u6771\u570b\u5c0f","name":"20\u8def(\u6b63\u7dda_\u8fd4\u7a0b)","public_transport:version":"2","ref":"20","route":"bus","to":"\u5357\u7d21\u8cfc\u7269\u4e2d\u5fc3","type":"route"},"geometry":{"type":"LineString","coordinates":[[120.261136,23.0050238],[120.2609006,23.0043965],[120.2608077,23.0041835],[120.2607141,23.0039685],[120.260464,23.0033294],[120.2603403,23.0030248],[120.2601031,23.0024512],[120.259756,23.001583],[120.2594032,23.0006856],[120.2592663,23.0003689],[120.2592089,23.0002062]]}},{"type":"Feature","properties":{"from":"\u6d77\u6771\u570b\u5c0f","name":"20\u8def(\u6b63\u7dda_\u8fd4\u7a0b)","public_transport:version":"2","ref":"20","route":"bus","to":"\u5357\u7d21\u8cfc\u7269\u4e2d\u5fc3","type":"route"},"geometry":{"type":"LineString","coordinates":[[120.2592089,23.0002062],[120.2589966,23.0001659],[120.2588174,23.0001267],[120.2580471,22.9999827],[120.2569921,22.9997863],[120.2551117,22.9994227],[120.2548668,22.9993736],[120.2545921,22.9993221],[120.2542599,22.9992539],[120.2533414,22.9990795]]}},{"type":"Feature","properties":{"from":"\u6d77\u6771\u570b\u5c0f","name":"20\u8def(\u6b63\u7dda_\u8fd4\u7a0b)","public_transport:version":"2","ref":"20","route":"bus","to":"\u5357\u7d21\u8cfc\u7269\u4e2d\u5fc3","type":"route"},"geometry":{"type":"LineString","coordinates":[[120.2533414,22.9990795],[120.2522095,22.9988709],[120.2519539,22.9987755]]}},{"type":"Feature","properties":{"from":"\u6d77\u6771\u570b\u5c0f","name":"20\u8def(\u6b63\u7dda_\u8fd4\u7a0b)","public_transport:version":"2","ref":"20","route":"bus","to":"\u5357\u7d21\u8cfc\u7269\u4e2d\u5fc3","type":"route"},"geometry":{"type":"LineString","coordinates":[[120.2519539,22.9987755],[120.2518778,22.9987997],[120.251627,22.9988059],[120.2508597,22.9986579]]}},{"type":"Feature","properties":{"from":"\u6d77\u6771\u570b\u5c0f","name":"20\u8def(\u6b63\u7dda_\u8fd4\u7a0b)","public_transport:version":"2","ref":"20","route":"bus","to":"\u5357\u7d21\u8cfc\u7269\u4e2d\u5fc3","type":"route"},"geometry":{"type":"LineString","coordinates":[[120.2508597,22.9986579],[120.2506428,22.9986579],[120.2504687,22.998658],[120.2496675,22.9986581],[120.2489575,22.9986583],[120.2484435,22.9986584],[120.247859,22.9986585],[120.2467658,22.9986587],[120.2463706,22.9986588],[120.2454653,22.998659],[120.2448646,22.9986591],[120.2442236,22.9986592],[120.2435329,22.9986593],[120.2412774,22.9986598],[120.2399683,22.9986039]]}},{"type":"Feature","properties":{"from":"\u6d77\u6771\u570b\u5c0f","name":"20\u8def(\u6b63\u7dda_\u8fd4\u7a0b)","public_transport:version":"2","ref":"20","route":"bus","to":"\u5357\u7d21\u8cfc\u7269\u4e2d\u5fc3","type":"route"},"geometry":{"type":"LineString","coordinates":[[120.2399683,22.9986039],[120.2394754,22.9985863],[120.2385626,22.9985542],[120.2380937,22.9985434],[120.2372369,22.9985365],[120.2364498,22.9985201],[120.2353466,22.9985187],[120.2347942,22.998523],[120.2346511,22.9985384]]}},{"type":"Feature","properties":{"from":"\u6d77\u6771\u570b\u5c0f","name":"20\u8def(\u6b63\u7dda_\u8fd4\u7a0b)","public_transport:version":"2","ref":"20","route":"bus","to":"\u5357\u7d21\u8cfc\u7269\u4e2d\u5fc3","type":"route"},"geometry":{"type":"LineString","coordinates":[[120.2346511,22.9985384],[120.2346363,22.9983735]]}},{"type":"Feature","properties":{"from":"\u6d77\u6771\u570b\u5c0f","name":"20\u8def(\u6b63\u7dda_\u8fd4\u7a0b)","public_transport:version":"2","ref":"20","route":"bus","to":"\u5357\u7d21\u8cfc\u7269\u4e2d\u5fc3","type":"route"},"geometry":{"type":"LineString","coordinates":[[120.2346363,22.9983735],[120.2345944,22.9981559],[120.2345908,22.9981235],[120.2345556,22.9978081],[120.2344421,22.9967881],[120.2343208,22.9957227],[120.2342093,22.9946833],[120.2341048,22.9937947],[120.2339863,22.992714]]}},{"type":"Feature","properties":{"from":"\u6d77\u6771\u570b\u5c0f","name":"20\u8def(\u6b63\u7dda_\u8fd4\u7a0b)","public_transport:version":"2","ref":"20","route":"bus","to":"\u5357\u7d21\u8cfc\u7269\u4e2d\u5fc3","type":"route"},"geometry":{"type":"LineString","coordinates":[[120.2339863,22.992714],[120.2337915,22.9908022],[120.2335608,22.9888728]]}},{"type":"Feature","properties":{"from":"\u6d77\u6771\u570b\u5c0f","name":"20\u8def(\u6b63\u7dda_\u8fd4\u7a0b)","public_transport:version":"2","ref":"20","route":"bus","to":"\u5357\u7d21\u8cfc\u7269\u4e2d\u5fc3","type":"route"},"geometry":{"type":"LineString","coordinates":[[120.2335608,22.9888728],[120.233469,22.9888642],[120.2333815,22.9888373],[120.2333026,22.9887934],[120.2332361,22.9887346],[120.2331853,22.9886637],[120.2331527,22.9885843],[120.2331423,22.988466]]}},{"type":"Feature","properties":{"from":"\u6d77\u6771\u570b\u5c0f","name":"20\u8def(\u6b63\u7dda_\u8fd4\u7a0b)","public_transport:version":"2","ref":"20","route":"bus","to":"\u5357\u7d21\u8cfc\u7269\u4e2d\u5fc3","type":"route"},"geometry":{"type":"LineString","coordinates":[[120.2331423,22.988466],[120.2328848,22.9885074]]}},{"type":"Feature","properties":{"from":"\u6d77\u6771\u570b\u5c0f","name":"20\u8def(\u6b63\u7dda_\u8fd4\u7a0b)","public_transport:version":"2","ref":"20","route":"bus","to":"\u5357\u7d21\u8cfc\u7269\u4e2d\u5fc3","type":"route"},"geometry":{"type":"LineString","coordinates":[[120.2328848,22.9885074],[120.2327055,22.9885591],[120.2323008,22.9886862],[120.2314659,22.9889483],[120.2313333,22.98899],[120.2308,22.9891574]]}},{"type":"Feature","properties":{"from":"\u6d77\u6771\u570b\u5c0f","name":"20\u8def(\u6b63\u7dda_\u8fd4\u7a0b)","public_transport:version":"2","ref":"20","route":"bus","to":"\u5357\u7d21\u8cfc\u7269\u4e2d\u5fc3","type":"route"},"geometry":{"type":"LineString","coordinates":[[120.2311463,22.9929788],[120.2311012,22.992481],[120.2309051,22.9903156],[120.2308865,22.9901109],[120.2308439,22.9896408],[120.2308138,22.9893094],[120.2308,22.9891574]]}},{"type":"Feature","properties":{"bus":"yes","highway":"bus_stop","name":"\u5357\u7d21\u8cfc\u7269\u4e2d\u5fc3(\u6771\u5149\u8def)","network":"\u81fa\u5357\u5e02\u516c\u8eca","operator":"\u81fa\u5357\u5e02\u516c\u8eca","public_transport":"platform"},"geometry":{"type":"Point","coordinates":[120.2308248,22.9912474]}},{"type":"Feature","properties":{"bus":"yes","highway":"bus_stop","name":"\u5357\u7d21\u8cfc\u7269\u4e2d\u5fc3","network":"\u81fa\u5357\u5e02\u516c\u8eca","operator":"\u81fa\u5357\u5e02\u516c\u8eca","public_transport":"platform","ref":"0823"},"geometry":{"type":"Point","coordinates":[120.2338533,22.9903142]}},{"type":"Feature","properties":{"bus":"yes","highway":"bus_stop","name":"\u570b\u8cd3\u5f71\u57ce","network":"\u81fa\u5357\u5e02\u516c\u8eca","operator":"\u81fa\u5357\u5e02\u516c\u8eca","public_transport":"platform"},"geometry":{"type":"Point","coordinates":[120.234561,22.9966107]}},{"type":"Feature","properties":{"bus":"yes","highway":"bus_stop","name":"\u69ae\u6c11\u91ab\u9662","network":"\u81fa\u5357\u5e02\u516c\u8eca","operator":"\u81fa\u5357\u5e02\u516c\u8eca","public_transport":"platform"},"geometry":{"type":"Point","coordinates":[120.2395733,22.9983843]}},{"type":"Feature","properties":{"bus":"yes","highway":"bus_stop","name":"\u5f71\u5287\u4e09\u6751","network":"\u81fa\u5357\u5e02\u516c\u8eca","operator":"\u81fa\u5357\u5e02\u516c\u8eca","public_transport":"platform"},"geometry":{"type":"Point","coordinates":[120.2426416,22.9984933]}},{"type":"Feature","properties":{"bus":"yes","highway":"bus_stop","name":"\u6f22\u8072\u96fb\u53f0","network":"\u81fa\u5357\u5e02\u516c\u8eca","operator":"\u81fa\u5357\u5e02\u516c\u8eca","public_transport":"platform"},"geometry":{"type":"Point","coordinates":[120.2460261,22.9984805]}},{"type":"Feature","properties":{"bus":"yes","highway":"bus_stop","name":"\u5efa\u570b\u91cc","network":"\u81fa\u5357\u5e02\u516c\u8eca","operator":"\u81fa\u5357\u5e02\u516c\u8eca","public_transport":"platform"},"geometry":{"type":"Point","coordinates":[120.2493674,22.9985074]}},{"type":"Feature","properties":{"bus":"yes","highway":"bus_stop","name":"\u5d11\u5c71\u79d1\u5927","network":"\u81fa\u5357\u5e02\u516c\u8eca","operator":"\u81fa\u5357\u5e02\u516c\u8eca","public_transport":"platform"},"geometry":{"type":"Point","coordinates":[120.2529017,22.9989398]}},{"type":"Feature","properties":{"bus":"yes","highway":"bus_stop","name":"\u5d11\u5c71\u793e\u5340","network":"\u81fa\u5357\u5e02\u516c\u8eca","operator":"\u81fa\u5357\u5e02\u516c\u8eca","public_transport":"platform"},"geometry":{"type":"Point","coordinates":[120.2550607,22.999364]}},{"type":"Feature","properties":{"bus":"yes","highway":"bus_stop","name":"\u5929\u516c\u5edf","network":"\u81fa\u5357\u5e02\u516c\u8eca","operator":"\u81fa\u5357\u5e02\u516c\u8eca","public_transport":"platform"},"geometry":{"type":"Point","coordinates":[120.2584655,23.0000559]}},{"type":"Feature","properties":{"bus":"yes","highway":"bus_stop","name":"\u5927\u7063\u5929\u516c\u5edf","network":"\u81fa\u5357\u5e02\u516c\u8eca","operator":"\u81fa\u5357\u5e02\u516c\u8eca","public_transport":"platform"},"geometry":{"type":"Point","coordinates":[120.2610157,23.0042073]}},{"type":"Feature","properties":{"bus":"yes","highway":"bus_stop","name":"\u4e0b\u5df7\u4ed4","network":"\u81fa\u5357\u5e02\u516c\u8eca","operator":"\u81fa\u5357\u5e02\u516c\u8eca","public_transport":"platform"},"geometry":{"type":"Point","coordinates":[120.2617297,23.0059877]}},{"type":"Feature","properties":{"bus":"yes","highway":"bus_stop","name":"\u694a\u6176\u7965\u4e2d\u91ab\u8a3a\u6240","network":"\u81fa\u5357\u5e02\u516c\u8eca","operator":"\u81fa\u5357\u5e02\u516c\u8eca","public_transport":"platform"},"geometry":{"type":"Point","coordinates":[120.2628967,23.0098819]}},{"type":"Feature","properties":{"bench":"no","bus":"yes","highway":"bus_stop","name":"\u6c38\u5927\u516c\u5712","network":"\u81fa\u5357\u5e02\u516c\u8eca","operator":"\u5e9c\u57ce\u5ba2\u904b","public_transport":"platform","shelter":"no"},"geometry":{"type":"Point","coordinates":[120.2638251,23.0131315]}},{"type":"Feature","properties":{"bus":"yes","highway":"bus_stop","name":"\u6c38\u5927\u591c\u5e02","network":"\u81fa\u5357\u5e02\u516c\u8eca","operator":"\u81fa\u5357\u5e02\u516c\u8eca","public_transport":"platform"},"geometry":{"type":"Point","coordinates":[120.2624956,23.0187397]}},{"type":"Feature","properties":{"bus":"yes","highway":"bus_stop","name":"\u570b\u901a\u6c7d\u8eca\u516c\u53f8","network":"\u81fa\u5357\u5e02\u516c\u8eca","operator":"\u81fa\u5357\u5e02\u516c\u8eca","public_transport":"platform"},"geometry":{"type":"Point","coordinates":[120.261443,23.0218012]}},{"type":"Feature","properties":{"bus":"yes","highway":"bus_stop","name":"\u6c38\u5eb7(\u6c38\u5927\u8def)","network":"\u81fa\u5357\u5e02\u516c\u8eca","operator":"\u81fa\u5357\u5e02\u516c\u8eca","public_transport":"platform"},"geometry":{"type":"Point","coordinates":[120.2609441,23.0251477]}},{"type":"Feature","properties":{"bus":"yes","highway":"bus_stop","name":"\u6c38\u5927\u8def\u57d4\u8056\u8857\u53e3","network":"\u81fa\u5357\u5e02\u516c\u8eca","operator":"\u81fa\u5357\u5e02\u516c\u8eca","public_transport":"platform"},"geometry":{"type":"Point","coordinates":[120.2605872,23.0284445]}},{"type":"Feature","properties":{"bus":"yes","highway":"bus_stop","name":"\u57d4\u5712\u91cc","network":"\u81fa\u5357\u5e02\u516c\u8eca","operator":"\u81fa\u5357\u5e02\u516c\u8eca","public_transport":"platform"},"geometry":{"type":"Point","coordinates":[120.259771,23.0338373]}},{"type":"Feature","properties":{"bus":"yes","highway":"bus_stop","name":"\u6c38\u5eb7\u706b\u8eca\u7ad9","network":"\u81fa\u5357\u5e02\u516c\u8eca","operator":"\u81fa\u5357\u5e02\u516c\u8eca","public_transport":"platform"},"geometry":{"type":"Point","coordinates":[120.254283,23.0368865]}},{"type":"Feature","properties":{"bus":"yes","highway":"bus_stop","name":"\u56db\u7dad\u8857","network":"\u81fa\u5357\u5e02\u516c\u8eca","operator":"\u81fa\u5357\u5e02\u516c\u8eca","public_transport":"platform"},"geometry":{"type":"Point","coordinates":[120.2518014,23.0345288]}},{"type":"Feature","properties":{"bus":"yes","highway":"bus_stop","name":"\u6b50\u6d32\u4e16\u754c\u793e\u5340","network":"\u81fa\u5357\u5e02\u516c\u8eca","operator":"\u81fa\u5357\u5e02\u516c\u8eca","public_transport":"platform","ref":"8449"},"geometry":{"type":"Point","coordinates":[120.2525049,23.030764]}},{"type":"Feature","properties":{"bus":"yes","highway":"bus_stop","name":"\u65b0\u4e2d\u8857","network":"\u81fa\u5357\u5e02\u516c\u8eca","operator":"\u81fa\u5357\u5e02\u516c\u8eca","public_transport":"platform"},"geometry":{"type":"Point","coordinates":[120.2403377,23.0363194]}},{"type":"Feature","properties":{"bus":"yes","highway":"bus_stop","name":"\u5357\u61c9\u5927\u99a8\u5712","network":"\u81fa\u5357\u5e02\u516c\u8eca","operator":"\u81fa\u5357\u5e02\u516c\u8eca","public_transport":"platform"},"geometry":{"type":"Point","coordinates":[120.2380965,23.0356571]}},{"type":"Feature","properties":{"highway":"bus_stop","name":"\u53f0\u5357\u61c9\u7528\u79d1\u6280\u5927\u5b78","network":"\u81fa\u5357\u5e02\u516c\u8eca","operator":"\u81fa\u5357\u5e02\u516c\u8eca","public_transport":"platform"},"geometry":{"type":"Point","coordinates":[120.2379953,23.0368492]}},{"type":"Feature","properties":{"bus":"yes","highway":"bus_stop","name":"\u9e7d\u884c","network":"\u81fa\u5357\u5e02\u516c\u8eca","operator":"\u81fa\u5357\u5e02\u516c\u8eca","public_transport":"platform"},"geometry":{"type":"Point","coordinates":[120.2369012,23.0408319]}},{"type":"Feature","properties":{"bus":"yes","highway":"bus_stop","name":"\u4ec1\u611b\u8857","network":"\u81fa\u5357\u5e02\u516c\u8eca","operator":"\u81fa\u5357\u5e02\u516c\u8eca","public_transport":"platform"},"geometry":{"type":"Point","coordinates":[120.238669,23.0432721]}},{"type":"Feature","properties":{"bus":"yes","highway":"bus_stop","name":"\u81fa\u7063\u6b77\u53f2\u535a\u7269\u9928(\u9577\u548c\u8def)","network":"\u81fa\u5357\u5e02\u516c\u8eca","operator":"\u81fa\u5357\u5e02\u516c\u8eca","public_transport":"platform"},"geometry":{"type":"Point","coordinates":[120.2328658,23.058205]}},{"type":"Feature","properties":{"bus":"yes","highway":"bus_stop","name":"\u74b0\u9928\u4e09\u8def","network":"\u81fa\u5357\u5e02\u516c\u8eca","operator":"\u81fa\u5357\u5e02\u516c\u8eca","public_transport":"platform"},"geometry":{"type":"Point","coordinates":[120.2346486,23.0642028]}},{"type":"Feature","properties":{"bus":"yes","highway":"bus_stop","name":"\u74b0\u9928\u5317\u8def(\u53f2\u535a\u9928\u7279\u5340)","network":"\u81fa\u5357\u5e02\u516c\u8eca","operator":"\u81fa\u5357\u5e02\u516c\u8eca","public_transport":"platform"},"geometry":{"type":"Point","coordinates":[120.2295953,23.0637635]}},{"type":"Feature","properties":{"bus":"yes","highway":"bus_stop","name":"\u6771\u548c\u91cc","network":"\u81fa\u5357\u5e02\u516c\u8eca","operator":"\u81fa\u5357\u5e02\u516c\u8eca","public_transport":"platform"},"geometry":{"type":"Point","coordinates":[120.2277063,23.0628405]}},{"type":"Feature","properties":{"bus":"yes","highway":"bus_stop","name":"\u5b89\u5357\u91ab\u9662","network":"\u81fa\u5357\u5e02\u516c\u8eca","operator":"\u81fa\u5357\u5e02\u516c\u8eca","public_transport":"platform"},"geometry":{"type":"Point","coordinates":[120.2232094,23.064527]}},{"type":"Feature","properties":{"bus":"yes","highway":"bus_stop","name":"\u548c\u9806\u570b\u4e2d","network":"\u81fa\u5357\u5e02\u516c\u8eca","operator":"\u81fa\u5357\u5e02\u516c\u8eca","public_transport":"platform"},"geometry":{"type":"Point","coordinates":[120.2231181,23.0689962]}},{"type":"Feature","properties":{"bus":"yes","highway":"bus_stop","name":"\u586d\u5357\u91cc","network":"\u81fa\u5357\u5e02\u516c\u8eca","operator":"\u81fa\u5357\u5e02\u516c\u8eca","public_transport":"platform"},"geometry":{"type":"Point","coordinates":[120.2209214,23.0697966]}},{"type":"Feature","properties":{"bus":"yes","highway":"bus_stop","name":"\u5b89\u660c\u8857\u53e3","network":"\u81fa\u5357\u5e02\u516c\u8eca","operator":"\u81fa\u5357\u5e02\u516c\u8eca","public_transport":"platform"},"geometry":{"type":"Point","coordinates":[120.2193519,23.0697673]}},{"type":"Feature","properties":{"bus":"yes","highway":"bus_stop","name":"\u5609\u7da0\u5bf6\u793e\u5340","network":"\u81fa\u5357\u5e02\u516c\u8eca","operator":"\u81fa\u5357\u5e02\u516c\u8eca","public_transport":"platform"},"geometry":{"type":"Point","coordinates":[120.217492,23.0697395]}},{"type":"Feature","properties":{"bus":"yes","highway":"bus_stop","name":"\u5317\u548c\u9806","network":"\u81fa\u5357\u5e02\u516c\u8eca","operator":"\u81fa\u5357\u5e02\u516c\u8eca","public_transport":"platform"},"geometry":{"type":"Point","coordinates":[120.216297,23.0686845]}},{"type":"Feature","properties":{"bus":"yes","highway":"bus_stop","name":"\u548c\u9806\u570b\u5c0f","network":"\u81fa\u5357\u5e02\u516c\u8eca","operator":"\u81fa\u5357\u5e02\u516c\u8eca","public_transport":"platform"},"geometry":{"type":"Point","coordinates":[120.2175093,23.0666057]}},{"type":"Feature","properties":{"bus":"yes","highway":"bus_stop","name":"\u5b89\u548c\u8def\u4e94\u6bb5","network":"\u81fa\u5357\u5e02\u516c\u8eca","operator":"\u81fa\u5357\u5e02\u516c\u8eca","public_transport":"platform"},"geometry":{"type":"Point","coordinates":[120.2183377,23.0650596]}},{"type":"Feature","properties":{"bus":"yes","highway":"bus_stop","name":"\u548c\u9806","network":"\u81fa\u5357\u5e02\u516c\u8eca","operator":"\u81fa\u5357\u5e02\u516c\u8eca","public_transport":"platform"},"geometry":{"type":"Point","coordinates":[120.218529,23.0637126]}},{"type":"Feature","properties":{"bus":"yes","highway":"bus_stop","name":"\u798f\u570b\u5bfa","network":"\u81fa\u5357\u5e02\u516c\u8eca","operator":"\u81fa\u5357\u5e02\u516c\u8eca","public_transport":"platform"},"geometry":{"type":"Point","coordinates":[120.2185491,23.0609851]}},{"type":"Feature","properties":{"bus":"yes","highway":"bus_stop","name":"\u4e2d\u6d32\u5bee","network":"\u81fa\u5357\u5e02\u516c\u8eca","operator":"\u81fa\u5357\u5e02\u516c\u8eca","public_transport":"platform"},"geometry":{"type":"Point","coordinates":[120.218528,23.0584206]}},{"type":"Feature","properties":{"bus":"yes","highway":"bus_stop","name":"\u5927\u8056\u5edf","network":"\u81fa\u5357\u5e02\u516c\u8eca","operator":"\u81fa\u5357\u5e02\u516c\u8eca","public_transport":"platform"},"geometry":{"type":"Point","coordinates":[120.2184809,23.0565851]}},{"type":"Feature","properties":{"bus":"yes","highway":"bus_stop","name":"\u820a\u548c\u9806\u5317","network":"\u81fa\u5357\u5e02\u516c\u8eca","operator":"\u81fa\u5357\u5e02\u516c\u8eca","public_transport":"platform"},"geometry":{"type":"Point","coordinates":[120.2185535,23.05316]}},{"type":"Feature","properties":{"bus":"yes","highway":"bus_stop","name":"\u5b89\u9806\u570b\u4e2d","network":"\u81fa\u5357\u5e02\u516c\u8eca","operator":"\u81fa\u5357\u5e02\u516c\u8eca","public_transport":"platform"},"geometry":{"type":"Point","coordinates":[120.2187812,23.0502299]}},{"type":"Feature","properties":{"bus":"yes","highway":"bus_stop","name":"\u5b89\u9806\u570b\u5c0f","network":"\u81fa\u5357\u5e02\u516c\u8eca","operator":"\u81fa\u5357\u5e02\u516c\u8eca","public_transport":"platform"},"geometry":{"type":"Point","coordinates":[120.218243,23.0480085]}},{"type":"Feature","properties":{"bus":"yes","highway":"bus_stop","name":"\u65b0\u548c\u9806","network":"\u81fa\u5357\u5e02\u516c\u8eca","operator":"\u81fa\u5357\u5e02\u516c\u8eca","public_transport":"platform"},"geometry":{"type":"Point","coordinates":[120.2169636,23.0444007]}},{"type":"Feature","properties":{"bus":"yes","highway":"bus_stop","name":"\u653f\u5b89\u8def\u53e3","network":"\u81fa\u5357\u5e02\u516c\u8eca","operator":"\u81fa\u5357\u5e02\u516c\u8eca","public_transport":"platform"},"geometry":{"type":"Point","coordinates":[120.2161649,23.0424985]}},{"type":"Feature","properties":{"bus":"yes","highway":"bus_stop","name":"\u4e03\u865f\u6a4b","network":"\u81fa\u5357\u5e02\u516c\u8eca","operator":"\u81fa\u5357\u5e02\u516c\u8eca","public_transport":"platform"},"geometry":{"type":"Point","coordinates":[120.2154393,23.0407888]}},{"type":"Feature","properties":{"bus":"yes","highway":"bus_stop","name":"\u6176\u5b89\u8def\u53e3","network":"\u81fa\u5357\u5e02\u516c\u8eca","operator":"\u81fa\u5357\u5e02\u516c\u8eca","public_transport":"platform"},"geometry":{"type":"Point","coordinates":[120.2131533,23.0406849]}},{"type":"Feature","properties":{"bus":"yes","highway":"bus_stop","name":"\u6021\u5b89\u8def\u4e00\u6bb5","network":"\u81fa\u5357\u5e02\u516c\u8eca","operator":"\u81fa\u5357\u5e02\u516c\u8eca","public_transport":"platform"},"geometry":{"type":"Point","coordinates":[120.2058953,23.0423831]}},{"type":"Feature","properties":{"bus":"yes","highway":"bus_stop","name":"\u8fb2\u7522\u54c1\u6279\u767c\u5e02\u5834","network":"\u81fa\u5357\u5e02\u516c\u8eca","operator":"\u81fa\u5357\u5e02\u516c\u8eca","public_transport":"platform"},"geometry":{"type":"Point","coordinates":[120.1994741,23.043827]}},{"type":"Feature","properties":{"bus":"yes","highway":"bus_stop","name":"\u6021\u5b89\u8def\u4e8c\u6bb5","network":"\u81fa\u5357\u5e02\u516c\u8eca","operator":"\u81fa\u5357\u5e02\u516c\u8eca","public_transport":"platform"},"geometry":{"type":"Point","coordinates":[120.1932607,23.0452165]}},{"type":"Feature","properties":{"bus":"yes","highway":"bus_stop","name":"\u5b89\u5357\u5340\u516c\u6240","network":"\u81fa\u5357\u5e02\u516c\u8eca","operator":"\u81fa\u5357\u5e02\u516c\u8eca","public_transport":"platform"},"geometry":{"type":"Point","coordinates":[120.1845805,23.0470745]}},{"type":"Feature","properties":{"bus":"yes","highway":"bus_stop","name":"\u5b89\u4e2d\u8def\u4e09\u6bb5","network":"\u81fa\u5357\u5e02\u516c\u8eca","operator":"\u81fa\u5357\u5e02\u516c\u8eca","public_transport":"platform"},"geometry":{"type":"Point","coordinates":[120.1835177,23.0472803]}},{"type":"Feature","properties":{"bus":"yes","highway":"bus_stop","name":"\u7a05\u52d9\u5c40\u5b89\u5357\u5206\u5c40","network":"\u81fa\u5357\u5e02\u516c\u8eca","operator":"\u81fa\u5357\u5e02\u516c\u8eca","public_transport":"platform"},"geometry":{"type":"Point","coordinates":[120.181025,23.0478004]}},{"type":"Feature","properties":{"bus":"yes","highway":"bus_stop","name":"\u5b89\u5357\u570b\u4e2d","network":"\u81fa\u5357\u5e02\u516c\u8eca","operator":"\u81fa\u5357\u5e02\u516c\u8eca","public_transport":"platform"},"geometry":{"type":"Point","coordinates":[120.1777525,23.0485197]}},{"type":"Feature","properties":{"bus":"yes","highway":"bus_stop","name":"\u6d77\u6771\u570b\u5c0f","network":"\u81fa\u5357\u5e02\u516c\u8eca","operator":"\u81fa\u5357\u5e02\u516c\u8eca","public_transport":"platform"},"geometry":{"type":"Point","coordinates":[120.1756677,23.0489692]}},{"type":"Feature","properties":{"from":"\u5357\u7d21\u8cfc\u7269\u4e2d\u5fc3","name":"20\u8def(\u6b63\u7dda_\u5f80\u7a0b)","public_transport:version":"2","ref":"20","route":"bus","to":"\u6d77\u6771\u570b\u5c0f","type":"route"},"geometry":{"type":"LineString","coordinates":[[120.2311463,22.9929788],[120.2311012,22.992481],[120.2309051,22.9903156],[120.2308865,22.9901109],[120.2308439,22.9896408],[120.2308138,22.9893094],[120.2308,22.9891574]]}},{"type":"Feature","properties":{"from":"\u5357\u7d21\u8cfc\u7269\u4e2d\u5fc3","name":"20\u8def(\u6b63\u7dda_\u5f80\u7a0b)","public_transport:version":"2","ref":"20","route":"bus","to":"\u6d77\u6771\u570b\u5c0f","type":"route"},"geometry":{"type":"LineString","coordinates":[[120.2328848,22.9885074],[120.2327055,22.9885591],[120.2323008,22.9886862],[120.2314659,22.9889483],[120.2313333,22.98899],[120.2308,22.9891574]]}},{"type":"Feature","properties":{"from":"\u5357\u7d21\u8cfc\u7269\u4e2d\u5fc3","name":"20\u8def(\u6b63\u7dda_\u5f80\u7a0b)","public_transport:version":"2","ref":"20","route":"bus","to":"\u6d77\u6771\u570b\u5c0f","type":"route"},"geometry":{"type":"LineString","coordinates":[[120.2331423,22.988466],[120.2328848,22.9885074]]}},{"type":"Feature","properties":{"from":"\u5357\u7d21\u8cfc\u7269\u4e2d\u5fc3","name":"20\u8def(\u6b63\u7dda_\u5f80\u7a0b)","public_transport:version":"2","ref":"20","route":"bus","to":"\u6d77\u6771\u570b\u5c0f","type":"route"},"geometry":{"type":"LineString","coordinates":[[120.2331423,22.988466],[120.233146,22.9884222],[120.2331692,22.9883471],[120.2332084,22.9882777],[120.2332621,22.9882172],[120.2333281,22.9881679],[120.2334035,22.988132],[120.2334852,22.9881108]]}},{"type":"Feature","properties":{"from":"\u5357\u7d21\u8cfc\u7269\u4e2d\u5fc3","name":"20\u8def(\u6b63\u7dda_\u5f80\u7a0b)","public_transport:version":"2","ref":"20","route":"bus","to":"\u6d77\u6771\u570b\u5c0f","type":"route"},"geometry":{"type":"LineString","coordinates":[[120.2334852,22.9881108],[120.2335672,22.9881053],[120.2336245,22.9881103],[120.2336805,22.9881225],[120.2337342,22.9881417],[120.2337844,22.9881676],[120.2338304,22.9881995],[120.2338711,22.988237],[120.2339058,22.9882793],[120.2339338,22.9883256],[120.2339551,22.9883762],[120.2339684,22.9884291],[120.2339734,22.9884831],[120.2339705,22.9885346],[120.2339601,22.9885853],[120.2339425,22.9886343],[120.2339178,22.9886806],[120.2338871,22.9887229],[120.2338507,22.988761],[120.233809,22.9887944],[120.233763,22.9888225],[120.2337133,22.9888446],[120.2336609,22.9888606]]}},{"type":"Feature","properties":{"from":"\u5357\u7d21\u8cfc\u7269\u4e2d\u5fc3","name":"20\u8def(\u6b63\u7dda_\u5f80\u7a0b)","public_transport:version":"2","ref":"20","route":"bus","to":"\u6d77\u6771\u570b\u5c0f","type":"route"},"geometry":{"type":"LineString","coordinates":[[120.2336609,22.9888606],[120.233784,22.9899347],[120.2337978,22.9900543],[120.2339391,22.9912869],[120.2339737,22.9915891],[120.2341067,22.9927171],[120.2342279,22.9938056],[120.2343298,22.9946945],[120.234449,22.9957207],[120.2345676,22.9967918],[120.234686,22.997801],[120.2347582,22.9983606]]}},{"type":"Feature","properties":{"from":"\u5357\u7d21\u8cfc\u7269\u4e2d\u5fc3","name":"20\u8def(\u6b63\u7dda_\u5f80\u7a0b)","public_transport:version":"2","ref":"20","route":"bus","to":"\u6d77\u6771\u570b\u5c0f","type":"route"},"geometry":{"type":"LineString","coordinates":[[120.2347582,22.9983606],[120.2354007,22.9983646],[120.2364484,22.9983704],[120.2380939,22.9983907],[120.2387552,22.9984052],[120.2399787,22.9984519]]}},{"type":"Feature","properties":{"from":"\u5357\u7d21\u8cfc\u7269\u4e2d\u5fc3","name":"20\u8def(\u6b63\u7dda_\u5f80\u7a0b)","public_transport:version":"2","ref":"20","route":"bus","to":"\u6d77\u6771\u570b\u5c0f","type":"route"},"geometry":{"type":"LineString","coordinates":[[120.2481178,22.9985542],[120.2478805,22.9985542],[120.2467418,22.9985542],[120.2448618,22.9985543],[120.2435327,22.9985543],[120.2426098,22.9985543],[120.2412432,22.9985383],[120.2399787,22.9984519]]}},{"type":"Feature","properties":{"from":"\u5357\u7d21\u8cfc\u7269\u4e2d\u5fc3","name":"20\u8def(\u6b63\u7dda_\u5f80\u7a0b)","public_transport:version":"2","ref":"20","route":"bus","to":"\u6d77\u6771\u570b\u5c0f","type":"route"},"geometry":{"type":"LineString","coordinates":[[120.2519658,22.998442],[120.2506839,22.9985315],[120.2504505,22.9985336],[120.2497079,22.9985401],[120.2484566,22.9985512],[120.2481178,22.9985542]]}},{"type":"Feature","properties":{"from":"\u5357\u7d21\u8cfc\u7269\u4e2d\u5fc3","name":"20\u8def(\u6b63\u7dda_\u5f80\u7a0b)","public_transport:version":"2","ref":"20","route":"bus","to":"\u6d77\u6771\u570b\u5c0f","type":"route"},"geometry":{"type":"LineString","coordinates":[[120.2519262,22.9986065],[120.2519658,22.998442]]}},{"type":"Feature","properties":{"from":"\u5357\u7d21\u8cfc\u7269\u4e2d\u5fc3","name":"20\u8def(\u6b63\u7dda_\u5f80\u7a0b)","public_transport:version":"2","ref":"20","route":"bus","to":"\u6d77\u6771\u570b\u5c0f","type":"route"},"geometry":{"type":"LineString","coordinates":[[120.2519539,22.9987755],[120.2519262,22.9986065]]}},{"type":"Feature","properties":{"from":"\u5357\u7d21\u8cfc\u7269\u4e2d\u5fc3","name":"20\u8def(\u6b63\u7dda_\u5f80\u7a0b)","public_transport:version":"2","ref":"20","route":"bus","to":"\u6d77\u6771\u570b\u5c0f","type":"route"},"geometry":{"type":"LineString","coordinates":[[120.2533414,22.9990795],[120.2522095,22.9988709],[120.2519539,22.9987755]]}},{"type":"Feature","properties":{"from":"\u5357\u7d21\u8cfc\u7269\u4e2d\u5fc3","name":"20\u8def(\u6b63\u7dda_\u5f80\u7a0b)","public_transport:version":"2","ref":"20","route":"bus","to":"\u6d77\u6771\u570b\u5c0f","type":"route"},"geometry":{"type":"LineString","coordinates":[[120.2592089,23.0002062],[120.2589966,23.0001659],[120.2588174,23.0001267],[120.2580471,22.9999827],[120.2569921,22.9997863],[120.2551117,22.9994227],[120.2548668,22.9993736],[120.2545921,22.9993221],[120.2542599,22.9992539],[120.2533414,22.9990795]]}},{"type":"Feature","properties":{"from":"\u5357\u7d21\u8cfc\u7269\u4e2d\u5fc3","name":"20\u8def(\u6b63\u7dda_\u5f80\u7a0b)","public_transport:version":"2","ref":"20","route":"bus","to":"\u6d77\u6771\u570b\u5c0f","type":"route"},"geometry":{"type":"LineString","coordinates":[[120.2592089,23.0002062],[120.259326,23.000231]]}},{"type":"Feature","properties":{"from":"\u5357\u7d21\u8cfc\u7269\u4e2d\u5fc3","name":"20\u8def(\u6b63\u7dda_\u5f80\u7a0b)","public_transport:version":"2","ref":"20","route":"bus","to":"\u6d77\u6771\u570b\u5c0f","type":"route"},"geometry":{"type":"LineString","coordinates":[[120.259326,23.000231],[120.2593904,23.0003974],[120.2595813,23.0008749],[120.2598592,23.0015519],[120.2604528,23.0029965],[120.2605693,23.0032882],[120.2608284,23.003924],[120.2609163,23.0041325],[120.2609768,23.0043058],[120.2610182,23.0044162],[120.2612422,23.0049822]]}},{"type":"Feature","properties":{"from":"\u5357\u7d21\u8cfc\u7269\u4e2d\u5fc3","name":"20\u8def(\u6b63\u7dda_\u5f80\u7a0b)","public_transport:version":"2","ref":"20","route":"bus","to":"\u6d77\u6771\u570b\u5c0f","type":"route"},"geometry":{"type":"LineString","coordinates":[[120.2612422,23.0049822],[120.261664,23.0060151],[120.261957,23.0068558]]}},{"type":"Feature","properties":{"from":"\u5357\u7d21\u8cfc\u7269\u4e2d\u5fc3","name":"20\u8def(\u6b63\u7dda_\u5f80\u7a0b)","public_transport:version":"2","ref":"20","route":"bus","to":"\u6d77\u6771\u570b\u5c0f","type":"route"},"geometry":{"type":"LineString","coordinates":[[120.261957,23.0068558],[120.2622839,23.0079387],[120.2624918,23.0086912],[120.2626403,23.009233],[120.2629839,23.0105761],[120.2632732,23.0115218],[120.2635732,23.0124151],[120.263677,23.0128445],[120.2638022,23.0132665],[120.2638529,23.0134879],[120.2638554,23.0138235],[120.2638387,23.0140228]]}},{"type":"Feature","properties":{"from":"\u5357\u7d21\u8cfc\u7269\u4e2d\u5fc3","name":"20\u8def(\u6b63\u7dda_\u5f80\u7a0b)","public_transport:version":"2","ref":"20","route":"bus","to":"\u6d77\u6771\u570b\u5c0f","type":"route"},"geometry":{"type":"LineString","coordinates":[[120.2638387,23.0140228],[120.263586,23.0149054],[120.2631618,23.0163683],[120.2628869,23.0172828],[120.262531,23.0183237],[120.2623367,23.0190906],[120.2620326,23.0200473],[120.2617361,23.0207838],[120.2614911,23.0214139],[120.2613906,23.021882],[120.2612936,23.0225037],[120.2612126,23.0232355],[120.26096,23.0246387]]}},{"type":"Feature","properties":{"from":"\u5357\u7d21\u8cfc\u7269\u4e2d\u5fc3","name":"20\u8def(\u6b63\u7dda_\u5f80\u7a0b)","public_transport:version":"2","ref":"20","route":"bus","to":"\u6d77\u6771\u570b\u5c0f","type":"route"},"geometry":{"type":"LineString","coordinates":[[120.26096,23.0246387],[120.2608926,23.0255238],[120.2608004,23.0263861],[120.2607531,23.0269062],[120.2607071,23.0274186]]}},{"type":"Feature","properties":{"from":"\u5357\u7d21\u8cfc\u7269\u4e2d\u5fc3","name":"20\u8def(\u6b63\u7dda_\u5f80\u7a0b)","public_transport:version":"2","ref":"20","route":"bus","to":"\u6d77\u6771\u570b\u5c0f","type":"route"},"geometry":{"type":"LineString","coordinates":[[120.2607071,23.0274186],[120.2604605,23.0286909],[120.2603302,23.0296313],[120.2601239,23.0306369],[120.2598603,23.0325616],[120.259696,23.0335914],[120.2596302,23.0341211],[120.2595633,23.0346554]]}},{"type":"Feature","properties":{"from":"\u5357\u7d21\u8cfc\u7269\u4e2d\u5fc3","name":"20\u8def(\u6b63\u7dda_\u5f80\u7a0b)","public_transport:version":"2","ref":"20","route":"bus","to":"\u6d77\u6771\u570b\u5c0f","type":"route"},"geometry":{"type":"LineString","coordinates":[[120.2595633,23.0346554],[120.2594493,23.0346426]]}},{"type":"Feature","properties":{"from":"\u5357\u7d21\u8cfc\u7269\u4e2d\u5fc3","name":"20\u8def(\u6b63\u7dda_\u5f80\u7a0b)","public_transport:version":"2","ref":"20","route":"bus","to":"\u6d77\u6771\u570b\u5c0f","type":"route"},"geometry":{"type":"LineString","coordinates":[[120.2547147,23.0351386],[120.2562033,23.0350038],[120.2568926,23.0349254],[120.258039,23.0347794],[120.258907,23.0346817],[120.2594493,23.0346426]]}},{"type":"Feature","properties":{"from":"\u5357\u7d21\u8cfc\u7269\u4e2d\u5fc3","name":"20\u8def(\u6b63\u7dda_\u5f80\u7a0b)","public_transport:version":"2","ref":"20","route":"bus","to":"\u6d77\u6771\u570b\u5c0f","type":"route"},"geometry":{"type":"LineString","coordinates":[[120.2547147,23.0351386],[120.2544379,23.0360568],[120.2542683,23.036669],[120.2541748,23.0370064]]}},{"type":"Feature","properties":{"from":"\u5357\u7d21\u8cfc\u7269\u4e2d\u5fc3","name":"20\u8def(\u6b63\u7dda_\u5f80\u7a0b)","public_transport:version":"2","ref":"20","route":"bus","to":"\u6d77\u6771\u570b\u5c0f","type":"route"},"geometry":{"type":"LineString","coordinates":[[120.2512614,23.0362562],[120.2518514,23.0364752],[120.2523698,23.0366028],[120.2528023,23.0367155],[120.25305,23.0367752],[120.2534957,23.0368665],[120.2537243,23.0369134],[120.2538321,23.0369355],[120.2541748,23.0370064]]}},{"type":"Feature","properties":{"from":"\u5357\u7d21\u8cfc\u7269\u4e2d\u5fc3","name":"20\u8def(\u6b63\u7dda_\u5f80\u7a0b)","public_transport:version":"2","ref":"20","route":"bus","to":"\u6d77\u6771\u570b\u5c0f","type":"route"},"geometry":{"type":"LineString","coordinates":[[120.2512614,23.0362562],[120.2514444,23.0356977],[120.2515779,23.035341]]}},{"type":"Feature","properties":{"from":"\u5357\u7d21\u8cfc\u7269\u4e2d\u5fc3","name":"20\u8def(\u6b63\u7dda_\u5f80\u7a0b)","public_transport:version":"2","ref":"20","route":"bus","to":"\u6d77\u6771\u570b\u5c0f","type":"route"},"geometry":{"type":"LineString","coordinates":[[120.2531989,23.0309532],[120.2531738,23.0310071],[120.2528575,23.0319117],[120.252736,23.0322823],[120.2524345,23.0330769],[120.2523952,23.0332018],[120.2519199,23.0343591],[120.2517535,23.0347758],[120.2517158,23.0348736],[120.2515779,23.035341]]}},{"type":"Feature","properties":{"from":"\u5357\u7d21\u8cfc\u7269\u4e2d\u5fc3","name":"20\u8def(\u6b63\u7dda_\u5f80\u7a0b)","public_transport:version":"2","ref":"20","route":"bus","to":"\u6d77\u6771\u570b\u5c0f","type":"route"},"geometry":{"type":"LineString","coordinates":[[120.2531989,23.0309532],[120.2530573,23.0308343],[120.2527996,23.030703]]}},{"type":"Feature","properties":{"from":"\u5357\u7d21\u8cfc\u7269\u4e2d\u5fc3","name":"20\u8def(\u6b63\u7dda_\u5f80\u7a0b)","public_transport:version":"2","ref":"20","route":"bus","to":"\u6d77\u6771\u570b\u5c0f","type":"route"},"geometry":{"type":"LineString","coordinates":[[120.2476624,23.0322877],[120.2479508,23.0321408],[120.2486221,23.0318002],[120.2489587,23.0316545],[120.2492309,23.0315225],[120.2496869,23.0312929],[120.2500664,23.0311374],[120.250509,23.0310115],[120.2509771,23.0308832],[120.2514719,23.0307721],[120.2518863,23.0307338],[120.2522806,23.030703],[120.2527996,23.030703]]}},{"type":"Feature","properties":{"from":"\u5357\u7d21\u8cfc\u7269\u4e2d\u5fc3","name":"20\u8def(\u6b63\u7dda_\u5f80\u7a0b)","public_transport:version":"2","ref":"20","route":"bus","to":"\u6d77\u6771\u570b\u5c0f","type":"route"},"geometry":{"type":"LineString","coordinates":[[120.2452428,23.0339526],[120.2457215,23.0334787],[120.2458719,23.033313],[120.2460732,23.0331994],[120.246316,23.0330034],[120.2465601,23.0328318],[120.24676,23.0327135],[120.2476624,23.0322877]]}},{"type":"Feature","properties":{"from":"\u5357\u7d21\u8cfc\u7269\u4e2d\u5fc3","name":"20\u8def(\u6b63\u7dda_\u5f80\u7a0b)","public_transport:version":"2","ref":"20","route":"bus","to":"\u6d77\u6771\u570b\u5c0f","type":"route"},"geometry":{"type":"LineString","coordinates":[[120.241866,23.0370417],[120.2426843,23.0363052],[120.243325,23.0357076],[120.2437596,23.0353151],[120.2441552,23.0349671],[120.2447184,23.0344524],[120.2451194,23.0340575],[120.2452428,23.0339526]]}},{"type":"Feature","properties":{"from":"\u5357\u7d21\u8cfc\u7269\u4e2d\u5fc3","name":"20\u8def(\u6b63\u7dda_\u5f80\u7a0b)","public_transport:version":"2","ref":"20","route":"bus","to":"\u6d77\u6771\u570b\u5c0f","type":"route"},"geometry":{"type":"LineString","coordinates":[[120.2385277,23.0351918],[120.241866,23.0370417]]}},{"type":"Feature","properties":{"from":"\u5357\u7d21\u8cfc\u7269\u4e2d\u5fc3","name":"20\u8def(\u6b63\u7dda_\u5f80\u7a0b)","public_transport:version":"2","ref":"20","route":"bus","to":"\u6d77\u6771\u570b\u5c0f","type":"route"},"geometry":{"type":"LineString","coordinates":[[120.2373059,23.0363639],[120.2377778,23.0359048],[120.2381674,23.0355611],[120.2385277,23.0351918]]}},{"type":"Feature","properties":{"from":"\u5357\u7d21\u8cfc\u7269\u4e2d\u5fc3","name":"20\u8def(\u6b63\u7dda_\u5f80\u7a0b)","public_transport:version":"2","ref":"20","route":"bus","to":"\u6d77\u6771\u570b\u5c0f","type":"route"},"geometry":{"type":"LineString","coordinates":[[120.2373059,23.0363639],[120.2374361,23.0363506],[120.2379671,23.0367801],[120.2378908,23.0368744],[120.2378733,23.0368961],[120.2377404,23.0367833],[120.2373696,23.036453],[120.2373059,23.0363639]]}},{"type":"Feature","properties":{"from":"\u5357\u7d21\u8cfc\u7269\u4e2d\u5fc3","name":"20\u8def(\u6b63\u7dda_\u5f80\u7a0b)","public_transport:version":"2","ref":"20","route":"bus","to":"\u6d77\u6771\u570b\u5c0f","type":"route"},"geometry":{"type":"LineString","coordinates":[[120.2345509,23.0389565],[120.234783,23.038764],[120.2367765,23.0368978],[120.2372848,23.0363844],[120.2373059,23.0363639]]}},{"type":"Feature","properties":{"from":"\u5357\u7d21\u8cfc\u7269\u4e2d\u5fc3","name":"20\u8def(\u6b63\u7dda_\u5f80\u7a0b)","public_transport:version":"2","ref":"20","route":"bus","to":"\u6d77\u6771\u570b\u5c0f","type":"route"},"geometry":{"type":"LineString","coordinates":[[120.2345509,23.0389565],[120.2350739,23.0393946],[120.2365358,23.0406827],[120.236867,23.0409002],[120.2371781,23.0410594],[120.2374249,23.041168]]}},{"type":"Feature","properties":{"from":"\u5357\u7d21\u8cfc\u7269\u4e2d\u5fc3","name":"20\u8def(\u6b63\u7dda_\u5f80\u7a0b)","public_transport:version":"2","ref":"20","route":"bus","to":"\u6d77\u6771\u570b\u5c0f","type":"route"},"geometry":{"type":"LineString","coordinates":[[120.2374249,23.041168],[120.2373565,23.0412519]]}},{"type":"Feature","properties":{"from":"\u5357\u7d21\u8cfc\u7269\u4e2d\u5fc3","name":"20\u8def(\u6b63\u7dda_\u5f80\u7a0b)","public_transport:version":"2","ref":"20","route":"bus","to":"\u6d77\u6771\u570b\u5c0f","type":"route"},"geometry":{"type":"LineString","coordinates":[[120.2373565,23.0412519],[120.2372425,23.041413],[120.2373015,23.0415056],[120.2376756,23.0418129],[120.2379667,23.042109],[120.238133,23.0422818],[120.2382979,23.0424928],[120.2384602,23.042736],[120.2386088,23.0430918],[120.2387659,23.0434684],[120.2388444,23.0436566],[120.2391079,23.0441996],[120.2394432,23.0448932],[120.2395237,23.0450943],[120.2397255,23.0455472],[120.2400185,23.0461112],[120.2402345,23.0466098],[120.2407074,23.0475417],[120.2409547,23.0480289],[120.2413557,23.0488669]]}},{"type":"Feature","properties":{"from":"\u5357\u7d21\u8cfc\u7269\u4e2d\u5fc3","name":"20\u8def(\u6b63\u7dda_\u5f80\u7a0b)","public_transport:version":"2","ref":"20","route":"bus","to":"\u6d77\u6771\u570b\u5c0f","type":"route"},"geometry":{"type":"LineString","coordinates":[[120.2400785,23.0505195],[120.2401124,23.0504734],[120.2413557,23.0488669]]}},{"type":"Feature","properties":{"from":"\u5357\u7d21\u8cfc\u7269\u4e2d\u5fc3","name":"20\u8def(\u6b63\u7dda_\u5f80\u7a0b)","public_transport:version":"2","ref":"20","route":"bus","to":"\u6d77\u6771\u570b\u5c0f","type":"route"},"geometry":{"type":"LineString","coordinates":[[120.2386798,23.0523087],[120.2400785,23.0505195]]}},{"type":"Feature","properties":{"from":"\u5357\u7d21\u8cfc\u7269\u4e2d\u5fc3","name":"20\u8def(\u6b63\u7dda_\u5f80\u7a0b)","public_transport:version":"2","ref":"20","route":"bus","to":"\u6d77\u6771\u570b\u5c0f","type":"route"},"geometry":{"type":"LineString","coordinates":[[120.2386798,23.0523087],[120.238614,23.0524003]]}},{"type":"Feature","properties":{"from":"\u5357\u7d21\u8cfc\u7269\u4e2d\u5fc3","name":"20\u8def(\u6b63\u7dda_\u5f80\u7a0b)","public_transport:version":"2","ref":"20","route":"bus","to":"\u6d77\u6771\u570b\u5c0f","type":"route"},"geometry":{"type":"LineString","coordinates":[[120.238614,23.0524003],[120.2385546,23.0525331],[120.2379624,23.0532907],[120.2356772,23.0552894],[120.2355633,23.0553547]]}},{"type":"Feature","properties":{"from":"\u5357\u7d21\u8cfc\u7269\u4e2d\u5fc3","name":"20\u8def(\u6b63\u7dda_\u5f80\u7a0b)","public_transport:version":"2","ref":"20","route":"bus","to":"\u6d77\u6771\u570b\u5c0f","type":"route"},"geometry":{"type":"LineString","coordinates":[[120.235176,23.055725],[120.2355633,23.0553547]]}},{"type":"Feature","properties":{"from":"\u5357\u7d21\u8cfc\u7269\u4e2d\u5fc3","name":"20\u8def(\u6b63\u7dda_\u5f80\u7a0b)","public_transport:version":"2","ref":"20","route":"bus","to":"\u6d77\u6771\u570b\u5c0f","type":"route"},"geometry":{"type":"LineString","coordinates":[[120.235176,23.055725],[120.2351526,23.0558207],[120.2343577,23.0565868],[120.232567,23.0583966],[120.2318627,23.0591353],[120.2317896,23.0591979],[120.2308661,23.0600857],[120.2303029,23.0606339],[120.2297199,23.0612072]]}},{"type":"Feature","properties":{"from":"\u5357\u7d21\u8cfc\u7269\u4e2d\u5fc3","name":"20\u8def(\u6b63\u7dda_\u5f80\u7a0b)","public_transport:version":"2","ref":"20","route":"bus","to":"\u6d77\u6771\u570b\u5c0f","type":"route"},"geometry":{"type":"LineString","coordinates":[[120.2297199,23.0612072],[120.2303708,23.0616765],[120.2309302,23.0620588],[120.231372,23.0623104],[120.2318768,23.0625428],[120.2328124,23.0628778],[120.2333773,23.0630324],[120.2338992,23.0631294],[120.2346941,23.0632013]]}},{"type":"Feature","properties":{"from":"\u5357\u7d21\u8cfc\u7269\u4e2d\u5fc3","name":"20\u8def(\u6b63\u7dda_\u5f80\u7a0b)","public_transport:version":"2","ref":"20","route":"bus","to":"\u6d77\u6771\u570b\u5c0f","type":"route"},"geometry":{"type":"LineString","coordinates":[[120.2346941,23.0632013],[120.2346833,23.0633722]]}},{"type":"Feature","properties":{"from":"\u5357\u7d21\u8cfc\u7269\u4e2d\u5fc3","name":"20\u8def(\u6b63\u7dda_\u5f80\u7a0b)","public_transport:version":"2","ref":"20","route":"bus","to":"\u6d77\u6771\u570b\u5c0f","type":"route"},"geometry":{"type":"LineString","coordinates":[[120.2346833,23.0633722],[120.2345481,23.0652265]]}},{"type":"Feature","properties":{"from":"\u5357\u7d21\u8cfc\u7269\u4e2d\u5fc3","name":"20\u8def(\u6b63\u7dda_\u5f80\u7a0b)","public_transport:version":"2","ref":"20","route":"bus","to":"\u6d77\u6771\u570b\u5c0f","type":"route"},"geometry":{"type":"LineString","coordinates":[[120.2345481,23.0652265],[120.2333432,23.065076],[120.2326592,23.0648736],[120.2319994,23.0647083],[120.2309587,23.0643209],[120.2305188,23.0641407],[120.2297168,23.0636842],[120.2291187,23.0633238],[120.2283386,23.0626907],[120.2282296,23.0624903]]}},{"type":"Feature","properties":{"from":"\u5357\u7d21\u8cfc\u7269\u4e2d\u5fc3","name":"20\u8def(\u6b63\u7dda_\u5f80\u7a0b)","public_transport:version":"2","ref":"20","route":"bus","to":"\u6d77\u6771\u570b\u5c0f","type":"route"},"geometry":{"type":"LineString","coordinates":[[120.2282296,23.0624903],[120.2274665,23.0628593],[120.225998,23.0635749],[120.225137,23.0640222],[120.2250498,23.0640667]]}},{"type":"Feature","properties":{"from":"\u5357\u7d21\u8cfc\u7269\u4e2d\u5fc3","name":"20\u8def(\u6b63\u7dda_\u5f80\u7a0b)","public_transport:version":"2","ref":"20","route":"bus","to":"\u6d77\u6771\u570b\u5c0f","type":"route"},"geometry":{"type":"LineString","coordinates":[[120.2248084,23.0641845],[120.2250498,23.0640667]]}},{"type":"Feature","properties":{"from":"\u5357\u7d21\u8cfc\u7269\u4e2d\u5fc3","name":"20\u8def(\u6b63\u7dda_\u5f80\u7a0b)","public_transport:version":"2","ref":"20","route":"bus","to":"\u6d77\u6771\u570b\u5c0f","type":"route"},"geometry":{"type":"LineString","coordinates":[[120.2248084,23.0641845],[120.2247239,23.0642289],[120.2246274,23.0642425]]}},{"type":"Feature","properties":{"from":"\u5357\u7d21\u8cfc\u7269\u4e2d\u5fc3","name":"20\u8def(\u6b63\u7dda_\u5f80\u7a0b)","public_transport:version":"2","ref":"20","route":"bus","to":"\u6d77\u6771\u570b\u5c0f","type":"route"},"geometry":{"type":"LineString","coordinates":[[120.2246274,23.0642425],[120.2237959,23.0641462]]}},{"type":"Feature","properties":{"from":"\u5357\u7d21\u8cfc\u7269\u4e2d\u5fc3","name":"20\u8def(\u6b63\u7dda_\u5f80\u7a0b)","public_transport:version":"2","ref":"20","route":"bus","to":"\u6d77\u6771\u570b\u5c0f","type":"route"},"geometry":{"type":"LineString","coordinates":[[120.2237959,23.0641462],[120.2237627,23.0644865],[120.2234366,23.0644579]]}},{"type":"Feature","properties":{"from":"\u5357\u7d21\u8cfc\u7269\u4e2d\u5fc3","name":"20\u8def(\u6b63\u7dda_\u5f80\u7a0b)","public_transport:version":"2","ref":"20","route":"bus","to":"\u6d77\u6771\u570b\u5c0f","type":"route"},"geometry":{"type":"LineString","coordinates":[[120.2234366,23.0644579],[120.2233343,23.0644795],[120.2231277,23.0644669],[120.2230078,23.0644238]]}},{"type":"Feature","properties":{"from":"\u5357\u7d21\u8cfc\u7269\u4e2d\u5fc3","name":"20\u8def(\u6b63\u7dda_\u5f80\u7a0b)","public_transport:version":"2","ref":"20","route":"bus","to":"\u6d77\u6771\u570b\u5c0f","type":"route"},"geometry":{"type":"LineString","coordinates":[[120.2230078,23.0644238],[120.2230987,23.064375],[120.223156,23.0643303],[120.2232507,23.0643114],[120.2233205,23.0643372],[120.2233731,23.0643821],[120.2234366,23.0644579]]}},{"type":"Feature","properties":{"from":"\u5357\u7d21\u8cfc\u7269\u4e2d\u5fc3","name":"20\u8def(\u6b63\u7dda_\u5f80\u7a0b)","public_transport:version":"2","ref":"20","route":"bus","to":"\u6d77\u6771\u570b\u5c0f","type":"route"},"geometry":{"type":"LineString","coordinates":[[120.2230453,23.0680382],[120.2230844,23.0679415],[120.2235225,23.0669636],[120.2237612,23.0665244],[120.2239409,23.0661419],[120.2241313,23.0657643],[120.2242742,23.0652842],[120.2246274,23.0642425]]}},{"type":"Feature","properties":{"from":"\u5357\u7d21\u8cfc\u7269\u4e2d\u5fc3","name":"20\u8def(\u6b63\u7dda_\u5f80\u7a0b)","public_transport:version":"2","ref":"20","route":"bus","to":"\u6d77\u6771\u570b\u5c0f","type":"route"},"geometry":{"type":"LineString","coordinates":[[120.2230453,23.0680382],[120.2230706,23.068114],[120.2230563,23.0686139],[120.2230367,23.0692267],[120.2230167,23.0697705]]}},{"type":"Feature","properties":{"from":"\u5357\u7d21\u8cfc\u7269\u4e2d\u5fc3","name":"20\u8def(\u6b63\u7dda_\u5f80\u7a0b)","public_transport:version":"2","ref":"20","route":"bus","to":"\u6d77\u6771\u570b\u5c0f","type":"route"},"geometry":{"type":"LineString","coordinates":[[120.2230167,23.0697705],[120.2217813,23.0697494]]}},{"type":"Feature","properties":{"from":"\u5357\u7d21\u8cfc\u7269\u4e2d\u5fc3","name":"20\u8def(\u6b63\u7dda_\u5f80\u7a0b)","public_transport:version":"2","ref":"20","route":"bus","to":"\u6d77\u6771\u570b\u5c0f","type":"route"},"geometry":{"type":"LineString","coordinates":[[120.2217813,23.0697494],[120.2203159,23.0697244],[120.219274,23.0697066],[120.2188973,23.0697002]]}},{"type":"Feature","properties":{"from":"\u5357\u7d21\u8cfc\u7269\u4e2d\u5fc3","name":"20\u8def(\u6b63\u7dda_\u5f80\u7a0b)","public_transport:version":"2","ref":"20","route":"bus","to":"\u6d77\u6771\u570b\u5c0f","type":"route"},"geometry":{"type":"LineString","coordinates":[[120.2188973,23.0697002],[120.218506,23.0696952],[120.2182684,23.0696922],[120.2176089,23.069684],[120.217266,23.0696796],[120.2170146,23.0696765],[120.2168564,23.0696745],[120.2166778,23.0696722],[120.2165474,23.0696414],[120.2163518,23.0695397],[120.2160796,23.0694219]]}},{"type":"Feature","properties":{"from":"\u5357\u7d21\u8cfc\u7269\u4e2d\u5fc3","name":"20\u8def(\u6b63\u7dda_\u5f80\u7a0b)","public_transport:version":"2","ref":"20","route":"bus","to":"\u6d77\u6771\u570b\u5c0f","type":"route"},"geometry":{"type":"LineString","coordinates":[[120.218707,23.0633235],[120.218695,23.0636175],[120.2186507,23.0640654],[120.2185952,23.0644494],[120.218534,23.064828],[120.2184187,23.0652808],[120.2182779,23.0656362],[120.2181585,23.0658743],[120.2180254,23.0661042],[120.2179533,23.0662186],[120.2178286,23.0663827],[120.2175644,23.0667121],[120.2172613,23.0671267],[120.2170025,23.067566],[120.2167675,23.0680587],[120.2162195,23.0691286],[120.2160796,23.0694219]]}},{"type":"Feature","properties":{"from":"\u5357\u7d21\u8cfc\u7269\u4e2d\u5fc3","name":"20\u8def(\u6b63\u7dda_\u5f80\u7a0b)","public_transport:version":"2","ref":"20","route":"bus","to":"\u6d77\u6771\u570b\u5c0f","type":"route"},"geometry":{"type":"LineString","coordinates":[[120.2189766,23.0505366],[120.2189938,23.0507534],[120.2189852,23.0510912],[120.2188378,23.0519379],[120.2187751,23.0523102],[120.218757,23.0524861],[120.2187443,23.0525391],[120.2187154,23.0528544],[120.2186738,23.0533665],[120.218639,23.0539638],[120.218592,23.0544834],[120.2185837,23.0545701],[120.2185545,23.0548769],[120.2185518,23.0554014],[120.2185531,23.0555976],[120.2186376,23.0565144],[120.2186541,23.058172],[120.218694,23.0591477],[120.2186909,23.0605278],[120.2186869,23.0615569],[120.218699,23.0626292],[120.218707,23.0633235]]}},{"type":"Feature","properties":{"from":"\u5357\u7d21\u8cfc\u7269\u4e2d\u5fc3","name":"20\u8def(\u6b63\u7dda_\u5f80\u7a0b)","public_transport:version":"2","ref":"20","route":"bus","to":"\u6d77\u6771\u570b\u5c0f","type":"route"},"geometry":{"type":"LineString","coordinates":[[120.2166699,23.0434129],[120.2169529,23.0440805],[120.2171634,23.0445692],[120.2171969,23.0446494],[120.2174008,23.0451221],[120.217665,23.0457033],[120.2177783,23.0460014],[120.2178876,23.0463241],[120.2181459,23.0472013],[120.2182578,23.0475581],[120.2183838,23.0480394],[120.2185378,23.0486125],[120.2186199,23.048918],[120.2189766,23.0505366]]}},{"type":"Feature","properties":{"from":"\u5357\u7d21\u8cfc\u7269\u4e2d\u5fc3","name":"20\u8def(\u6b63\u7dda_\u5f80\u7a0b)","public_transport:version":"2","ref":"20","route":"bus","to":"\u6d77\u6771\u570b\u5c0f","type":"route"},"geometry":{"type":"LineString","coordinates":[[120.2153422,23.0401064],[120.2155555,23.0406016],[120.2157392,23.0410619],[120.2160114,23.0417197],[120.2160541,23.0418299],[120.216454,23.0428625],[120.2166699,23.0434129]]}},{"type":"Feature","properties":{"from":"\u5357\u7d21\u8cfc\u7269\u4e2d\u5fc3","name":"20\u8def(\u6b63\u7dda_\u5f80\u7a0b)","public_transport:version":"2","ref":"20","route":"bus","to":"\u6d77\u6771\u570b\u5c0f","type":"route"},"geometry":{"type":"LineString","coordinates":[[120.2153422,23.0401064],[120.2138071,23.0404665]]}},{"type":"Feature","properties":{"from":"\u5357\u7d21\u8cfc\u7269\u4e2d\u5fc3","name":"20\u8def(\u6b63\u7dda_\u5f80\u7a0b)","public_transport:version":"2","ref":"20","route":"bus","to":"\u6d77\u6771\u570b\u5c0f","type":"route"},"geometry":{"type":"LineString","coordinates":[[120.2138071,23.0404665],[120.2129326,23.0406716],[120.2124055,23.0407953],[120.2113798,23.0410336]]}},{"type":"Feature","properties":{"from":"\u5357\u7d21\u8cfc\u7269\u4e2d\u5fc3","name":"20\u8def(\u6b63\u7dda_\u5f80\u7a0b)","public_transport:version":"2","ref":"20","route":"bus","to":"\u6d77\u6771\u570b\u5c0f","type":"route"},"geometry":{"type":"LineString","coordinates":[[120.2113798,23.0410336],[120.2104218,23.0412606],[120.20994,23.0413736],[120.2092527,23.0415349],[120.208145,23.0417947],[120.2081195,23.0418007],[120.2076916,23.0419011],[120.2070048,23.0420622],[120.2039133,23.0427873],[120.2035451,23.0428737]]}},{"type":"Feature","properties":{"from":"\u5357\u7d21\u8cfc\u7269\u4e2d\u5fc3","name":"20\u8def(\u6b63\u7dda_\u5f80\u7a0b)","public_transport:version":"2","ref":"20","route":"bus","to":"\u6d77\u6771\u570b\u5c0f","type":"route"},"geometry":{"type":"LineString","coordinates":[[120.2035451,23.0428737],[120.2034019,23.0429057],[120.2006339,23.0435247],[120.2000229,23.0436614],[120.1981243,23.0440859],[120.1976827,23.0441847],[120.1975949,23.0442043],[120.1937667,23.0450603],[120.1934484,23.0451315],[120.1912683,23.045613]]}},{"type":"Feature","properties":{"from":"\u5357\u7d21\u8cfc\u7269\u4e2d\u5fc3","name":"20\u8def(\u6b63\u7dda_\u5f80\u7a0b)","public_transport:version":"2","ref":"20","route":"bus","to":"\u6d77\u6771\u570b\u5c0f","type":"route"},"geometry":{"type":"LineString","coordinates":[[120.1912683,23.045613],[120.1908821,23.0457013],[120.1905297,23.0457739]]}},{"type":"Feature","properties":{"from":"\u5357\u7d21\u8cfc\u7269\u4e2d\u5fc3","name":"20\u8def(\u6b63\u7dda_\u5f80\u7a0b)","public_transport:version":"2","ref":"20","route":"bus","to":"\u6d77\u6771\u570b\u5c0f","type":"route"},"geometry":{"type":"LineString","coordinates":[[120.1905297,23.0457739],[120.1885201,23.0462043],[120.18842,23.0462258],[120.18786,23.046354],[120.1867797,23.0465731],[120.1856016,23.0468294],[120.1839587,23.0471812]]}},{"type":"Feature","properties":{"from":"\u5357\u7d21\u8cfc\u7269\u4e2d\u5fc3","name":"20\u8def(\u6b63\u7dda_\u5f80\u7a0b)","public_transport:version":"2","ref":"20","route":"bus","to":"\u6d77\u6771\u570b\u5c0f","type":"route"},"geometry":{"type":"LineString","coordinates":[[120.1839587,23.0471812],[120.1818754,23.047641],[120.1814016,23.0477358],[120.1803285,23.0479654],[120.1787174,23.0483065],[120.1776043,23.0485562],[120.1770176,23.0486805],[120.1764948,23.0487934],[120.176176,23.0488605],[120.175936,23.0489163]]}},{"type":"Feature","properties":{"from":"\u5357\u7d21\u8cfc\u7269\u4e2d\u5fc3","name":"20\u8def(\u6b63\u7dda_\u5f80\u7a0b)","public_transport:version":"2","ref":"20","route":"bus","to":"\u6d77\u6771\u570b\u5c0f","type":"route"},"geometry":{"type":"LineString","coordinates":[[120.175936,23.0489163],[120.1747706,23.0492161]]}}]}