{"type":"FeatureCollection","features":[{"type":"Feature","properties":{"bus":"yes","highway":"bus_stop","name":"\u9ebb\u8c46\u8f49\u904b\u7ad9","network":"\u81fa\u5357\u5e02\u516c\u8eca","note":"\u5f80\u7a0b","operator":"\u81fa\u5357\u5e02\u516c\u8eca","public_transport":"platform","ref":"4000"},"geometry":{"type":"Point","coordinates":[120.2391391,23.1854001]}},{"type":"Feature","properties":{"bus":"yes","highway":"bus_stop","name":"\u5713\u74b0","network":"\u81fa\u5357\u5e02\u516c\u8eca","operator":"\u81fa\u5357\u5e02\u516c\u8eca","public_transport":"platform","ref":"7906"},"geometry":{"type":"Point","coordinates":[120.2418766,23.1846882]}},{"type":"Feature","properties":{"bus":"yes","highway":"bus_stop","name":"\u96fb\u59ec\u6232\u9662","network":"\u81fa\u5357\u5e02\u516c\u8eca","operator":"\u81fa\u5357\u5e02\u516c\u8eca","public_transport":"platform","ref":"7907"},"geometry":{"type":"Point","coordinates":[120.2448831,23.1836464]}},{"type":"Feature","properties":{"bus":"yes","highway":"bus_stop","name":"\u4e00\u5546\u524d","network":"\u81fa\u5357\u5e02\u516c\u8eca","operator":"\u81fa\u5357\u5e02\u516c\u8eca","public_transport":"platform","ref":"7908"},"geometry":{"type":"Point","coordinates":[120.2488762,23.183625]}},{"type":"Feature","properties":{"bus":"yes","highway":"bus_stop","name":"\u6649\u6c5f\u91cc\u5317","network":"\u81fa\u5357\u5e02\u516c\u8eca","note":"\u8208\u5357\u5ba2\u904b","operator":"\u81fa\u5357\u5e02\u516c\u8eca","public_transport":"platform"},"geometry":{"type":"Point","coordinates":[120.2514061,23.1828008]}},{"type":"Feature","properties":{"bus":"yes","highway":"bus_stop","name":"\u6649\u6c5f\u91cc","network":"\u81fa\u5357\u5e02\u516c\u8eca","note":"\u8208\u5357\u5ba2\u904b","operator":"\u81fa\u5357\u5e02\u516c\u8eca","public_transport":"platform"},"geometry":{"type":"Point","coordinates":[120.2516095,23.1798835]}},{"type":"Feature","properties":{"bus":"yes","highway":"bus_stop","name":"\u6eaa\u5e95\u5bee","network":"\u81fa\u5357\u5e02\u516c\u8eca","note":"\u8208\u5357\u5ba2\u904b","operator":"\u81fa\u5357\u5e02\u516c\u8eca","public_transport":"platform"},"geometry":{"type":"Point","coordinates":[120.2673078,23.1663469]}},{"type":"Feature","properties":{"bus":"yes","highway":"bus_stop","name":"\u842c\u8056\u516c","network":"\u81fa\u5357\u5e02\u516c\u8eca","operator":"\u81fa\u5357\u5e02\u516c\u8eca","public_transport":"platform","ref":"1727"},"geometry":{"type":"Point","coordinates":[120.2829364,23.1562773]}},{"type":"Feature","properties":{"bus":"yes","highway":"bus_stop","name":"\u6eaa\u5c3e","network":"\u81fa\u5357\u5e02\u516c\u8eca","note":"\u8208\u5357\u5ba2\u904b","operator":"\u81fa\u5357\u5e02\u516c\u8eca","public_transport":"platform"},"geometry":{"type":"Point","coordinates":[120.2870826,23.151638]}},{"type":"Feature","properties":{"bus":"yes","highway":"bus_stop","name":"\u5584\u5316\u570b\u4e2d","network":"\u81fa\u5357\u5e02\u516c\u8eca","note":"\u8208\u5357\u5ba2\u904b","operator":"\u81fa\u5357\u5e02\u516c\u8eca","public_transport":"platform"},"geometry":{"type":"Point","coordinates":[120.2879647,23.1474201]}},{"type":"Feature","properties":{"bus":"yes","highway":"bus_stop","name":"\u5357\u6eaa\u5c3e","network":"\u81fa\u5357\u5e02\u516c\u8eca","note":"\u8208\u5357\u5ba2\u904b","operator":"\u81fa\u5357\u5e02\u516c\u8eca","public_transport":"platform"},"geometry":{"type":"Point","coordinates":[120.2881149,23.142144]}},{"type":"Feature","properties":{"bus":"yes","highway":"bus_stop","name":"\u4ec0\u7f8e","network":"\u81fa\u5357\u5e02\u516c\u8eca","operator":"\u81fa\u5357\u5e02\u516c\u8eca","public_transport":"platform","ref":"8926"},"geometry":{"type":"Point","coordinates":[120.2882256,23.1392452]}},{"type":"Feature","properties":{"bus":"yes","highway":"bus_stop","name":"\u5584\u5316\u570b\u5c0f","network":"\u81fa\u5357\u5e02\u516c\u8eca","note":"\u8208\u5357\u5ba2\u904b","operator":"\u81fa\u5357\u5e02\u516c\u8eca","public_transport":"platform"},"geometry":{"type":"Point","coordinates":[120.288925,23.1359302]}},{"type":"Feature","properties":{"bus":"yes","highway":"bus_stop","name":"\u5584\u5316","network":"\u81fa\u5357\u5e02\u516c\u8eca","note":"\u8208\u5357\u5ba2\u904b","operator":"\u81fa\u5357\u5e02\u516c\u8eca","public_transport":"platform"},"geometry":{"type":"Point","coordinates":[120.2906264,23.1323074]}},{"type":"Feature","properties":{"bus":"yes","highway":"bus_stop","name":"\u79fb\u6c11\u7f72","network":"\u81fa\u5357\u5e02\u516c\u8eca","operator":"\u81fa\u5357\u5e02\u516c\u8eca","public_transport":"platform","ref":"1174"},"geometry":{"type":"Point","coordinates":[120.2932433,23.1320879]}},{"type":"Feature","properties":{"bus":"yes","highway":"bus_stop","name":"\u5584\u5316\u516c\u6240","name:en":"Shanhua District Office","name:zh":"\u5584\u5316\u516c\u6240","network":"\u81fa\u5357\u5e02\u516c\u8eca","operator":"\u81fa\u5357\u5e02\u516c\u8eca","public_transport":"platform","ref":"3012"},"geometry":{"type":"Point","coordinates":[120.297268,23.13214]}},{"type":"Feature","properties":{"bus":"yes","highway":"bus_stop","name":"\u6a39\u4eba\u8def\u53e3","network":"\u81fa\u5357\u5e02\u516c\u8eca","note":"\u8208\u5357\u5ba2\u904b","operator":"\u81fa\u5357\u5e02\u516c\u8eca","public_transport":"platform"},"geometry":{"type":"Point","coordinates":[120.3001872,23.1325804]}},{"type":"Feature","properties":{"bench":"yes","bus":"yes","highway":"bus_stop","name":"\u5584\u5316\u8f49\u904b\u7ad9","name:en":"Shanhua Bus Station","name:zh":"\u5584\u5316\u8f49\u904b\u7ad9","network":"\u81fa\u5357\u5e02\u516c\u8eca","operator":"\u81fa\u5357\u5e02\u516c\u8eca","public_transport":"platform","ref":"7764","shelter":"yes"},"geometry":{"type":"Point","coordinates":[120.3060269,23.1335145]}},{"type":"Feature","properties":{"bench":"no","bus":"yes","highway":"bus_stop","name":"\u5584\u5316\u9ad8\u4e2d","network":"\u81fa\u5357\u5e02\u516c\u8eca","operator":"\u81fa\u5357\u5e02\u516c\u8eca","public_transport":"platform","ref":"3451","shelter":"no"},"geometry":{"type":"Point","coordinates":[120.3003297,23.1301644]}},{"type":"Feature","properties":{"bus":"yes","highway":"bus_stop","name":"\u5927\u6210\u570b\u5c0f","network":"\u81fa\u5357\u5e02\u516c\u8eca","note":"\u8208\u5357\u5ba2\u904b","operator":"\u81fa\u5357\u5e02\u516c\u8eca","public_transport":"platform"},"geometry":{"type":"Point","coordinates":[120.2952579,23.1294161]}},{"type":"Feature","properties":{"bus":"yes","highway":"bus_stop","name":"\u5750\u99d5\u91cc","network":"\u81fa\u5357\u5e02\u516c\u8eca","note":"\u8208\u5357\u5ba2\u904b","operator":"\u81fa\u5357\u5e02\u516c\u8eca","public_transport":"platform"},"geometry":{"type":"Point","coordinates":[120.2939743,23.1259252]}},{"type":"Feature","properties":{"bus":"yes","highway":"bus_stop","name":"\u4e9e\u852c\u4e2d\u5fc3","network":"\u81fa\u5357\u5e02\u516c\u8eca","note":"\u8208\u5357\u5ba2\u904b","operator":"\u81fa\u5357\u5e02\u516c\u8eca","public_transport":"platform"},"geometry":{"type":"Point","coordinates":[120.294309,23.114603]}},{"type":"Feature","properties":{"bench":"yes","bus":"yes","highway":"bus_stop","name":"\u5357\u79d1\u5be6\u4e2d","network":"\u81fa\u5357\u5e02\u516c\u8eca","operator":"\u81fa\u5357\u5e02\u516c\u8eca","public_transport":"platform","ref":"3462","shelter":"yes"},"geometry":{"type":"Point","coordinates":[120.2908571,23.1049655]}},{"type":"Feature","properties":{"bus":"yes","highway":"bus_stop","name":"\u5f97\u5229\u5be6\u696d","network":"\u81fa\u5357\u5e02\u516c\u8eca","note":"\u8208\u5357\u5ba2\u904b","operator":"\u81fa\u5357\u5e02\u516c\u8eca","public_transport":"platform"},"geometry":{"type":"Point","coordinates":[120.2947172,23.1009072]}},{"type":"Feature","properties":{"bus":"yes","highway":"bus_stop","name":"\u4f73\u548c\u516c\u53f8","network":"\u81fa\u5357\u5e02\u516c\u8eca","note":"\u8208\u5357\u5ba2\u904b","operator":"\u81fa\u5357\u5e02\u516c\u8eca","public_transport":"platform"},"geometry":{"type":"Point","coordinates":[120.2949056,23.094839]}},{"type":"Feature","properties":{"bus":"yes","highway":"bus_stop","name":"\u4e09\u820d","network":"\u81fa\u5357\u5e02\u516c\u8eca","note":"\u8208\u5357\u5ba2\u904b","operator":"\u81fa\u5357\u5e02\u516c\u8eca","public_transport":"platform"},"geometry":{"type":"Point","coordinates":[120.2950375,23.0898949]}},{"type":"Feature","properties":{"bus":"yes","highway":"bus_stop","name":"\u5fa9\u8208\u8def\u53e3","network":"\u81fa\u5357\u5e02\u516c\u8eca","operator":"\u81fa\u5357\u5e02\u516c\u8eca","public_transport":"platform","ref":"3466"},"geometry":{"type":"Point","coordinates":[120.2952835,23.0818576]}},{"type":"Feature","properties":{"bus":"yes","highway":"bus_stop","name":"\u65b0\u5e02\u5e02\u5834","network":"\u81fa\u5357\u5e02\u516c\u8eca","note":"\u8208\u5357\u5ba2\u904b","operator":"\u81fa\u5357\u5e02\u516c\u8eca","public_transport":"platform"},"geometry":{"type":"Point","coordinates":[120.2944324,23.0797579]}},{"type":"Feature","properties":{"bus":"yes","highway":"bus_stop","name":"\u65b0\u5e02","network":"\u81fa\u5357\u5e02\u516c\u8eca","note":"\u8208\u5357\u5ba2\u904b","operator":"\u81fa\u5357\u5e02\u516c\u8eca","public_transport":"platform","ref":"3469"},"geometry":{"type":"Point","coordinates":[120.2916078,23.0764786]}},{"type":"Feature","properties":{"bus":"yes","highway":"bus_stop","name":"\u65b0\u5e02\u96fb\u4fe1\u5c40","network":"\u81fa\u5357\u5e02\u516c\u8eca","note":"\u8208\u5357\u5ba2\u904b","operator":"\u81fa\u5357\u5e02\u516c\u8eca","public_transport":"platform"},"geometry":{"type":"Point","coordinates":[120.2916683,23.0721069]}},{"type":"Feature","properties":{"bench":"yes","bus":"yes","highway":"bus_stop","name":"\u65b0\u5e02\u706b\u8eca\u7ad9","network":"\u81fa\u5357\u5e02\u516c\u8eca","note":"\u8208\u5357\u5ba2\u904b","operator":"\u81fa\u5357\u5e02\u516c\u8eca","public_transport":"platform","ref":"3470","shelter":"yes"},"geometry":{"type":"Point","coordinates":[120.2900211,23.0680304]}},{"type":"Feature","properties":{"bus":"yes","highway":"bus_stop","name":"\u65b0\u5e02\u706b\u8eca\u7ad9(\u7701\u9053)","network":"\u81fa\u5357\u5e02\u516c\u8eca","note":"\u8208\u5357\u5ba2\u904b","operator":"\u81fa\u5357\u5e02\u516c\u8eca","public_transport":"platform"},"geometry":{"type":"Point","coordinates":[120.2902792,23.0673721]}},{"type":"Feature","properties":{"bus":"yes","highway":"bus_stop","name":"\u8eca\u884c","network":"\u81fa\u5357\u5e02\u516c\u8eca","note":"\u8208\u5357\u5ba2\u904b","operator":"\u81fa\u5357\u5e02\u516c\u8eca","public_transport":"platform"},"geometry":{"type":"Point","coordinates":[120.2708734,23.0533976]}},{"type":"Feature","properties":{"bus":"yes","highway":"bus_stop","name":"\u7d71\u4e00\u99ac\u53e3\u9435","network":"\u81fa\u5357\u5e02\u516c\u8eca","note":"\u8208\u5357\u5ba2\u904b","operator":"\u81fa\u5357\u5e02\u516c\u8eca","public_transport":"platform"},"geometry":{"type":"Point","coordinates":[120.2667032,23.0500254]}},{"type":"Feature","properties":{"bus":"yes","highway":"bus_stop","name":"\u4e09\u65b0\u7d21\u7e54","network":"\u81fa\u5357\u5e02\u516c\u8eca","operator":"\u81fa\u5357\u5e02\u516c\u8eca","public_transport":"platform"},"geometry":{"type":"Point","coordinates":[120.2615057,23.0457591]}},{"type":"Feature","properties":{"bus":"yes","highway":"bus_stop","name":"\u8526\u677e","network":"\u81fa\u5357\u5e02\u516c\u8eca","note":"\u8208\u5357\u5ba2\u904b","operator":"\u81fa\u5357\u5e02\u516c\u8eca","public_transport":"platform"},"geometry":{"type":"Point","coordinates":[120.2545343,23.042142]}},{"type":"Feature","properties":{"bus":"yes","highway":"bus_stop","name":"\u7af9\u6797\u91cc","network":"\u81fa\u5357\u5e02\u516c\u8eca","note":"\u8208\u5357\u5ba2\u904b","operator":"\u81fa\u5357\u5e02\u516c\u8eca","public_transport":"platform"},"geometry":{"type":"Point","coordinates":[120.2447849,23.0418053]}},{"type":"Feature","properties":{"bus":"yes","highway":"bus_stop","name":"\u9e7d\u884c","network":"\u81fa\u5357\u5e02\u516c\u8eca","operator":"\u81fa\u5357\u5e02\u516c\u8eca","public_transport":"platform"},"geometry":{"type":"Point","coordinates":[120.2365051,23.0408937]}},{"type":"Feature","properties":{"bus":"yes","highway":"bus_stop","name":"\u5357\u9e7d\u884c","network":"\u81fa\u5357\u5e02\u516c\u8eca","operator":"\u81fa\u5357\u5e02\u516c\u8eca","public_transport":"platform"},"geometry":{"type":"Point","coordinates":[120.2322544,23.0373114]}},{"type":"Feature","properties":{"bus":"yes","highway":"bus_stop","name":"\u6d32\u4ed4\u5c3e","network":"\u81fa\u5357\u5e02\u516c\u8eca","operator":"\u81fa\u5357\u5e02\u516c\u8eca","public_transport":"platform","ref":"0503"},"geometry":{"type":"Point","coordinates":[120.2310264,23.0360466]}},{"type":"Feature","properties":{"bus":"yes","highway":"bus_stop","name":"\u5927\u5d0e","network":"\u81fa\u5357\u5e02\u516c\u8eca","operator":"\u81fa\u5357\u5e02\u516c\u8eca","public_transport":"platform"},"geometry":{"type":"Point","coordinates":[120.2268135,23.0317918]}},{"type":"Feature","properties":{"bus":"yes","highway":"bus_stop","name":"\u5c1a\u9802\u91cc","network":"\u81fa\u5357\u5e02\u516c\u8eca","operator":"\u81fa\u5357\u5e02\u516c\u8eca","public_transport":"platform"},"geometry":{"type":"Point","coordinates":[120.2219502,23.0272889]}},{"type":"Feature","properties":{"bus":"yes","highway":"bus_stop","name":"\u5947\u7f8e\u91ab\u9662","network":"\u81fa\u5357\u5e02\u516c\u8eca","operator":"\u81fa\u5357\u5e02\u516c\u8eca","public_transport":"platform"},"geometry":{"type":"Point","coordinates":[120.221591,23.0209559]}},{"type":"Feature","properties":{"bench":"no","bus":"yes","highway":"bus_stop","name":"\u5927\u6a4b","network":"\u81fa\u5357\u5e02\u516c\u8eca","operator":"\u81fa\u5357\u5e02\u516c\u8eca","public_transport":"platform","shelter":"no"},"geometry":{"type":"Point","coordinates":[120.2273197,23.0176478]}},{"type":"Feature","properties":{"bus":"yes","highway":"bus_stop","name":"\u53f0\u5357\u9ad8\u5de5","network":"\u81fa\u5357\u5e02\u516c\u8eca","operator":"\u81fa\u5357\u5e02\u516c\u8eca","public_transport":"platform"},"geometry":{"type":"Point","coordinates":[120.2303248,23.0138466]}},{"type":"Feature","properties":{"bench":"no","bus":"yes","highway":"bus_stop","name":"\u4e2d\u83ef\u3001\u632f\u8208\u8def\u53e3","network":"\u81fa\u5357\u5e02\u516c\u8eca","operator":"\u81fa\u5357\u5e02\u516c\u8eca","public_transport":"platform","ref":"0800","shelter":"no"},"geometry":{"type":"Point","coordinates":[120.2319521,23.0113029]}},{"type":"Feature","properties":{"bench":"no","bus":"yes","highway":"bus_stop","name":"\u4e2d\u83ef\u3001\u4e2d\u83ef\u4e8c\u8def\u53e3","network":"\u81fa\u5357\u5e02\u516c\u8eca","operator":"\u81fa\u5357\u5e02\u516c\u8eca","public_transport":"platform","ref":"0801","shelter":"no"},"geometry":{"type":"Point","coordinates":[120.2334808,23.0089451]}},{"type":"Feature","properties":{"bench":"no","bus":"yes","highway":"bus_stop","name":"\u4e2d\u83ef\u8def\u3001\u52dd\u83ef\u8857\u53e3","network":"\u81fa\u5357\u5e02\u516c\u8eca","operator":"\u81fa\u5357\u5e02\u516c\u8eca","public_transport":"platform","ref":"1180","shelter":"no"},"geometry":{"type":"Point","coordinates":[120.2346712,23.0070379]}},{"type":"Feature","properties":{"bench":"no","bus":"yes","highway":"bus_stop","name":"\u5175\u4ed4\u5e02","network":"\u81fa\u5357\u5e02\u516c\u8eca","operator":"\u81fa\u5357\u5e02\u516c\u8eca","public_transport":"platform","ref":"0802","shelter":"no"},"geometry":{"type":"Point","coordinates":[120.2351347,23.0039298]}},{"type":"Feature","properties":{"bus":"yes","highway":"bus_stop","name":"\u56db\u4efd\u5b50","network":"\u81fa\u5357\u5e02\u516c\u8eca","operator":"\u81fa\u5357\u5e02\u516c\u8eca","public_transport":"platform"},"geometry":{"type":"Point","coordinates":[120.2321981,22.9987366]}},{"type":"Feature","properties":{"bus":"yes","highway":"bus_stop","name":"\u5149\u660e\u8857\u53e3","network":"\u81fa\u5357\u5e02\u516c\u8eca","operator":"\u81fa\u5357\u5e02\u516c\u8eca","public_transport":"platform"},"geometry":{"type":"Point","coordinates":[120.2290466,22.9996264]}},{"type":"Feature","properties":{"bus":"yes","highway":"bus_stop","name":"\u7121\u969c\u7919\u798f\u5229\u4e4b\u5bb6","network":"\u81fa\u5357\u5e02\u516c\u8eca","operator":"\u81fa\u5357\u5e02\u516c\u8eca","public_transport":"platform"},"geometry":{"type":"Point","coordinates":[120.2249451,23.0006046]}},{"type":"Feature","properties":{"bus":"yes","highway":"bus_stop","name":"\u6210\u5927\u91ab\u9662","network":"\u81fa\u5357\u5e02\u516c\u8eca","operator":"\u81fa\u5357\u5e02\u516c\u8eca","public_transport":"platform"},"geometry":{"type":"Point","coordinates":[120.221338,23.0008999]}},{"type":"Feature","properties":{"bus":"yes","highway":"bus_stop","name":"\u6210\u529f\u5927\u5b78","network":"\u81fa\u5357\u5e02\u516c\u8eca","operator":"\u81fa\u5357\u5e02\u516c\u8eca","public_transport":"platform"},"geometry":{"type":"Point","coordinates":[120.21817,23.0011082]}},{"type":"Feature","properties":{"bench":"yes","bus":"yes","highway":"bus_stop","name":"\u53f0\u5357\u516c\u5712(\u5317\u9580\u8def)","network":"\u81fa\u5357\u5e02\u516c\u8eca","operator":"\u81fa\u5357\u5e02\u516c\u8eca","public_transport":"platform","shelter":"yes"},"geometry":{"type":"Point","coordinates":[120.2126986,23.0005175]}},{"type":"Feature","properties":{"bench":"yes","bus":"yes","highway":"bus_stop","name":"\u81fa\u5357\u706b\u8eca\u7ad9(\u5357\u7ad9)","network":"\u81fa\u5357\u5e02\u516c\u8eca","note":"\u8208\u5357\u5ba2\u904b","operator":"\u81fa\u5357\u5e02\u516c\u8eca","public_transport":"platform","ref":"9211","shelter":"yes"},"geometry":{"type":"Point","coordinates":[120.2111399,22.9972139]}},{"type":"Feature","properties":{"bus":"yes","highway":"bus_stop","name":"\u53f0\u5357\u516c\u5712(\u516c\u5712\u8def)","network":"\u81fa\u5357\u5e02\u516c\u8eca","operator":"\u81fa\u5357\u5e02\u516c\u8eca","public_transport":"platform"},"geometry":{"type":"Point","coordinates":[120.2092589,23.0018108]}},{"type":"Feature","properties":{"from":"\u9ebb\u8c46","name":"\u6a5812(\u5f80\u7a0b)","public_transport:version":"2","ref":"\u6a5812","route":"bus","to":"\u81fa\u5357\u516c\u5712","type":"route"},"geometry":{"type":"LineString","coordinates":[[120.2388937,23.1854068],[120.2391876,23.1854571],[120.2392376,23.1854512],[120.2393466,23.1854008]]}},{"type":"Feature","properties":{"from":"\u9ebb\u8c46","name":"\u6a5812(\u5f80\u7a0b)","public_transport:version":"2","ref":"\u6a5812","route":"bus","to":"\u81fa\u5357\u516c\u5712","type":"route"},"geometry":{"type":"LineString","coordinates":[[120.2393466,23.1854008],[120.239287,23.1851348]]}},{"type":"Feature","properties":{"from":"\u9ebb\u8c46","name":"\u6a5812(\u5f80\u7a0b)","public_transport:version":"2","ref":"\u6a5812","route":"bus","to":"\u81fa\u5357\u516c\u5712","type":"route"},"geometry":{"type":"LineString","coordinates":[[120.239287,23.1851348],[120.2393394,23.1849959],[120.2396679,23.1845224]]}},{"type":"Feature","properties":{"from":"\u9ebb\u8c46","name":"\u6a5812(\u5f80\u7a0b)","public_transport:version":"2","ref":"\u6a5812","route":"bus","to":"\u81fa\u5357\u516c\u5712","type":"route"},"geometry":{"type":"LineString","coordinates":[[120.2396679,23.1845224],[120.2397979,23.1844744]]}},{"type":"Feature","properties":{"from":"\u9ebb\u8c46","name":"\u6a5812(\u5f80\u7a0b)","public_transport:version":"2","ref":"\u6a5812","route":"bus","to":"\u81fa\u5357\u516c\u5712","type":"route"},"geometry":{"type":"LineString","coordinates":[[120.2397979,23.1844744],[120.240567,23.1848367]]}},{"type":"Feature","properties":{"from":"\u9ebb\u8c46","name":"\u6a5812(\u5f80\u7a0b)","public_transport:version":"2","ref":"\u6a5812","route":"bus","to":"\u81fa\u5357\u516c\u5712","type":"route"},"geometry":{"type":"LineString","coordinates":[[120.240567,23.1848367],[120.2408157,23.1849511],[120.2410178,23.1850444],[120.2411218,23.18512]]}},{"type":"Feature","properties":{"from":"\u9ebb\u8c46","name":"\u6a5812(\u5f80\u7a0b)","public_transport:version":"2","ref":"\u6a5812","route":"bus","to":"\u81fa\u5357\u516c\u5712","type":"route"},"geometry":{"type":"LineString","coordinates":[[120.2416042,23.1848573],[120.2414181,23.1849447],[120.2411218,23.18512]]}},{"type":"Feature","properties":{"from":"\u9ebb\u8c46","name":"\u6a5812(\u5f80\u7a0b)","public_transport:version":"2","ref":"\u6a5812","route":"bus","to":"\u81fa\u5357\u516c\u5712","type":"route"},"geometry":{"type":"LineString","coordinates":[[120.2484526,23.1836918],[120.2471988,23.1837058],[120.2457479,23.18369],[120.2448034,23.1836843],[120.2442583,23.1836776],[120.2442026,23.1836843],[120.2440524,23.1837273],[120.2432585,23.184092],[120.2426376,23.1843809],[120.2422433,23.184572],[120.2420113,23.1846694],[120.2416042,23.1848573]]}},{"type":"Feature","properties":{"from":"\u9ebb\u8c46","name":"\u6a5812(\u5f80\u7a0b)","public_transport:version":"2","ref":"\u6a5812","route":"bus","to":"\u81fa\u5357\u516c\u5712","type":"route"},"geometry":{"type":"LineString","coordinates":[[120.2514607,23.1836832],[120.2508652,23.1836841],[120.2497767,23.1836889],[120.2496836,23.1836893],[120.2490695,23.1836893],[120.2484526,23.1836918]]}},{"type":"Feature","properties":{"from":"\u9ebb\u8c46","name":"\u6a5812(\u5f80\u7a0b)","public_transport:version":"2","ref":"\u6a5812","route":"bus","to":"\u81fa\u5357\u516c\u5712","type":"route"},"geometry":{"type":"LineString","coordinates":[[120.2536574,23.1771257],[120.2535582,23.1772256],[120.2534796,23.1773113],[120.2534106,23.177382],[120.253228,23.1775669],[120.2531362,23.1776641],[120.2529421,23.1778541],[120.2525,23.1784089],[120.2522104,23.1788392],[120.2518845,23.1793089],[120.2517343,23.1796048],[120.2516686,23.1798119],[120.2516216,23.1800203],[120.2515894,23.1803605],[120.2515559,23.1807846],[120.2515197,23.1813455],[120.2514768,23.1818829],[120.2514769,23.1830811],[120.2514607,23.1836832]]}},{"type":"Feature","properties":{"from":"\u9ebb\u8c46","name":"\u6a5812(\u5f80\u7a0b)","public_transport:version":"2","ref":"\u6a5812","route":"bus","to":"\u81fa\u5357\u516c\u5712","type":"route"},"geometry":{"type":"LineString","coordinates":[[120.2536574,23.1771257],[120.2537245,23.1769649]]}},{"type":"Feature","properties":{"from":"\u9ebb\u8c46","name":"\u6a5812(\u5f80\u7a0b)","public_transport:version":"2","ref":"\u6a5812","route":"bus","to":"\u81fa\u5357\u516c\u5712","type":"route"},"geometry":{"type":"LineString","coordinates":[[120.2537245,23.1769649],[120.2537823,23.1769197],[120.2538691,23.1768546],[120.2551004,23.1757063],[120.2553137,23.1755144],[120.2557039,23.1751871]]}},{"type":"Feature","properties":{"from":"\u9ebb\u8c46","name":"\u6a5812(\u5f80\u7a0b)","public_transport:version":"2","ref":"\u6a5812","route":"bus","to":"\u81fa\u5357\u516c\u5712","type":"route"},"geometry":{"type":"LineString","coordinates":[[120.2557039,23.1751871],[120.2569263,23.1741],[120.2577196,23.1734467],[120.2668022,23.1667849]]}},{"type":"Feature","properties":{"from":"\u9ebb\u8c46","name":"\u6a5812(\u5f80\u7a0b)","public_transport:version":"2","ref":"\u6a5812","route":"bus","to":"\u81fa\u5357\u516c\u5712","type":"route"},"geometry":{"type":"LineString","coordinates":[[120.2668022,23.1667849],[120.2670959,23.1665671],[120.2672171,23.1665026],[120.2682248,23.1658012],[120.2699519,23.1647061],[120.2703815,23.1644262],[120.2710846,23.1639778],[120.273002,23.1627481],[120.2738685,23.1621997],[120.2752047,23.1613112],[120.279036,23.1588826],[120.2824546,23.1566739],[120.2855043,23.1547676],[120.2865061,23.1541251],[120.2866416,23.1540203],[120.2867596,23.153897],[120.2868159,23.1536553],[120.2869527,23.1530067]]}},{"type":"Feature","properties":{"from":"\u9ebb\u8c46","name":"\u6a5812(\u5f80\u7a0b)","public_transport:version":"2","ref":"\u6a5812","route":"bus","to":"\u81fa\u5357\u516c\u5712","type":"route"},"geometry":{"type":"LineString","coordinates":[[120.2869527,23.1530067],[120.2870117,23.1527577],[120.2870654,23.1524913],[120.2871163,23.1522003],[120.2871793,23.1519031],[120.2872491,23.1515295],[120.2872951,23.1513016],[120.2873475,23.151037],[120.2873962,23.1507913],[120.2875299,23.150177],[120.2876869,23.1493654],[120.2879611,23.1480497],[120.2879701,23.1480004],[120.2880089,23.1476206],[120.2880318,23.1472273],[120.2880449,23.1466714],[120.2880468,23.146602],[120.2880745,23.1455617],[120.2880963,23.1436343],[120.2881341,23.1423582],[120.2881645,23.141615],[120.2882663,23.1397681],[120.2882757,23.1388947]]}},{"type":"Feature","properties":{"from":"\u9ebb\u8c46","name":"\u6a5812(\u5f80\u7a0b)","public_transport:version":"2","ref":"\u6a5812","route":"bus","to":"\u81fa\u5357\u516c\u5712","type":"route"},"geometry":{"type":"LineString","coordinates":[[120.2882757,23.1388947],[120.2882919,23.1385688]]}},{"type":"Feature","properties":{"from":"\u9ebb\u8c46","name":"\u6a5812(\u5f80\u7a0b)","public_transport:version":"2","ref":"\u6a5812","route":"bus","to":"\u81fa\u5357\u516c\u5712","type":"route"},"geometry":{"type":"LineString","coordinates":[[120.2882919,23.1385688],[120.2885212,23.1376061],[120.2885442,23.1375215],[120.288672,23.137076],[120.2887189,23.1368851],[120.2888164,23.1365768],[120.2888638,23.1363969],[120.2890377,23.1358046],[120.289139,23.1353591],[120.2892093,23.1351851]]}},{"type":"Feature","properties":{"from":"\u9ebb\u8c46","name":"\u6a5812(\u5f80\u7a0b)","public_transport:version":"2","ref":"\u6a5812","route":"bus","to":"\u81fa\u5357\u516c\u5712","type":"route"},"geometry":{"type":"LineString","coordinates":[[120.2892093,23.1351851],[120.2892064,23.1350516],[120.2892005,23.1347799],[120.2891938,23.1346246],[120.2891984,23.1345774],[120.2889824,23.13433],[120.2889155,23.1342066],[120.2885974,23.1337999],[120.2885265,23.1333824],[120.2883447,23.1326547]]}},{"type":"Feature","properties":{"from":"\u9ebb\u8c46","name":"\u6a5812(\u5f80\u7a0b)","public_transport:version":"2","ref":"\u6a5812","route":"bus","to":"\u81fa\u5357\u516c\u5712","type":"route"},"geometry":{"type":"LineString","coordinates":[[120.2883447,23.1326547],[120.2894071,23.1325012],[120.2899258,23.1324374],[120.2905221,23.1323773],[120.2907849,23.1323427],[120.2911014,23.1323033],[120.2914501,23.1322675],[120.291894,23.1322441],[120.2928516,23.1321997],[120.2938735,23.1321386]]}},{"type":"Feature","properties":{"from":"\u9ebb\u8c46","name":"\u6a5812(\u5f80\u7a0b)","public_transport:version":"2","ref":"\u6a5812","route":"bus","to":"\u81fa\u5357\u516c\u5712","type":"route"},"geometry":{"type":"LineString","coordinates":[[120.2938735,23.1321386],[120.2951098,23.1320662],[120.2959362,23.1320164],[120.2961287,23.1320285],[120.2964982,23.1320865],[120.2966132,23.1321061]]}},{"type":"Feature","properties":{"from":"\u9ebb\u8c46","name":"\u6a5812(\u5f80\u7a0b)","public_transport:version":"2","ref":"\u6a5812","route":"bus","to":"\u81fa\u5357\u516c\u5712","type":"route"},"geometry":{"type":"LineString","coordinates":[[120.2966132,23.1321061],[120.2978892,23.1322972],[120.299161,23.1324875],[120.3004392,23.1326792],[120.3016986,23.1328678],[120.3029614,23.133057],[120.3033835,23.1331202],[120.3041522,23.1332353],[120.3045881,23.1333006],[120.3056577,23.1334608]]}},{"type":"Feature","properties":{"from":"\u9ebb\u8c46","name":"\u6a5812(\u5f80\u7a0b)","public_transport:version":"2","ref":"\u6a5812","route":"bus","to":"\u81fa\u5357\u516c\u5712","type":"route"},"geometry":{"type":"LineString","coordinates":[[120.3056577,23.1334608],[120.3056605,23.1333076],[120.3056726,23.133147]]}},{"type":"Feature","properties":{"from":"\u9ebb\u8c46","name":"\u6a5812(\u5f80\u7a0b)","public_transport:version":"2","ref":"\u6a5812","route":"bus","to":"\u81fa\u5357\u516c\u5712","type":"route"},"geometry":{"type":"LineString","coordinates":[[120.3056726,23.133147],[120.305836,23.1331541],[120.3059889,23.1331628],[120.306127,23.1331899],[120.3062021,23.1332183],[120.3062303,23.1332676],[120.3062518,23.133333],[120.3062571,23.1333798],[120.3062088,23.1334144],[120.3057985,23.133481],[120.3056577,23.1334608]]}},{"type":"Feature","properties":{"from":"\u9ebb\u8c46","name":"\u6a5812(\u5f80\u7a0b)","public_transport:version":"2","ref":"\u6a5812","route":"bus","to":"\u81fa\u5357\u516c\u5712","type":"route"},"geometry":{"type":"LineString","coordinates":[[120.3056726,23.133147],[120.3050258,23.1330518],[120.3043557,23.1329531],[120.3042067,23.1329312],[120.3030146,23.1327559],[120.3017478,23.1325693]]}},{"type":"Feature","properties":{"from":"\u9ebb\u8c46","name":"\u6a5812(\u5f80\u7a0b)","public_transport:version":"2","ref":"\u6a5812","route":"bus","to":"\u81fa\u5357\u516c\u5712","type":"route"},"geometry":{"type":"LineString","coordinates":[[120.3021341,23.1303787],[120.3020104,23.1310802],[120.3018793,23.1318235],[120.3017478,23.1325693]]}},{"type":"Feature","properties":{"from":"\u9ebb\u8c46","name":"\u6a5812(\u5f80\u7a0b)","public_transport:version":"2","ref":"\u6a5812","route":"bus","to":"\u81fa\u5357\u516c\u5712","type":"route"},"geometry":{"type":"LineString","coordinates":[[120.3021341,23.1303787],[120.3008847,23.1301965],[120.2995933,23.1300081]]}},{"type":"Feature","properties":{"from":"\u9ebb\u8c46","name":"\u6a5812(\u5f80\u7a0b)","public_transport:version":"2","ref":"\u6a5812","route":"bus","to":"\u81fa\u5357\u516c\u5712","type":"route"},"geometry":{"type":"LineString","coordinates":[[120.2995933,23.1300081],[120.2983276,23.129814],[120.2970511,23.1296182],[120.2969342,23.1296003]]}},{"type":"Feature","properties":{"from":"\u9ebb\u8c46","name":"\u6a5812(\u5f80\u7a0b)","public_transport:version":"2","ref":"\u6a5812","route":"bus","to":"\u81fa\u5357\u516c\u5712","type":"route"},"geometry":{"type":"LineString","coordinates":[[120.2969342,23.1296003],[120.2959714,23.1294596],[120.2955868,23.1294035],[120.2949288,23.1293074],[120.29416,23.129195],[120.2940061,23.1291154]]}},{"type":"Feature","properties":{"from":"\u9ebb\u8c46","name":"\u6a5812(\u5f80\u7a0b)","public_transport:version":"2","ref":"\u6a5812","route":"bus","to":"\u81fa\u5357\u516c\u5712","type":"route"},"geometry":{"type":"LineString","coordinates":[[120.2940061,23.1291154],[120.2940302,23.1284759],[120.2940398,23.1278325],[120.2940411,23.1273207],[120.2940597,23.1267696],[120.2940932,23.1259679],[120.2940919,23.1257841],[120.2940946,23.1255856],[120.294116,23.1249849],[120.2941442,23.1241339],[120.2941834,23.1233153]]}},{"type":"Feature","properties":{"from":"\u9ebb\u8c46","name":"\u6a5812(\u5f80\u7a0b)","public_transport:version":"2","ref":"\u6a5812","route":"bus","to":"\u81fa\u5357\u516c\u5712","type":"route"},"geometry":{"type":"LineString","coordinates":[[120.2941834,23.1233153],[120.2941522,23.1231497],[120.2941482,23.1227735]]}},{"type":"Feature","properties":{"from":"\u9ebb\u8c46","name":"\u6a5812(\u5f80\u7a0b)","public_transport:version":"2","ref":"\u6a5812","route":"bus","to":"\u81fa\u5357\u516c\u5712","type":"route"},"geometry":{"type":"LineString","coordinates":[[120.2941482,23.1227735],[120.2941697,23.1219274],[120.2941818,23.1209925]]}},{"type":"Feature","properties":{"from":"\u9ebb\u8c46","name":"\u6a5812(\u5f80\u7a0b)","public_transport:version":"2","ref":"\u6a5812","route":"bus","to":"\u81fa\u5357\u516c\u5712","type":"route"},"geometry":{"type":"LineString","coordinates":[[120.2941818,23.1209925],[120.2942101,23.1202567]]}},{"type":"Feature","properties":{"from":"\u9ebb\u8c46","name":"\u6a5812(\u5f80\u7a0b)","public_transport:version":"2","ref":"\u6a5812","route":"bus","to":"\u81fa\u5357\u516c\u5712","type":"route"},"geometry":{"type":"LineString","coordinates":[[120.2942101,23.1202567],[120.2942153,23.1201205],[120.2942302,23.1192062],[120.2942365,23.119065],[120.2942533,23.1189854]]}},{"type":"Feature","properties":{"from":"\u9ebb\u8c46","name":"\u6a5812(\u5f80\u7a0b)","public_transport:version":"2","ref":"\u6a5812","route":"bus","to":"\u81fa\u5357\u516c\u5712","type":"route"},"geometry":{"type":"LineString","coordinates":[[120.2942533,23.1189854],[120.2942531,23.1188745],[120.2943117,23.1169143],[120.2943614,23.1158534],[120.294368,23.114784],[120.2944255,23.113465],[120.2946267,23.1062581]]}},{"type":"Feature","properties":{"from":"\u9ebb\u8c46","name":"\u6a5812(\u5f80\u7a0b)","public_transport:version":"2","ref":"\u6a5812","route":"bus","to":"\u81fa\u5357\u516c\u5712","type":"route"},"geometry":{"type":"LineString","coordinates":[[120.2946267,23.1062581],[120.2936386,23.1059141],[120.2922482,23.1053818],[120.2909671,23.1048532],[120.28939,23.1043105]]}},{"type":"Feature","properties":{"from":"\u9ebb\u8c46","name":"\u6a5812(\u5f80\u7a0b)","public_transport:version":"2","ref":"\u6a5812","route":"bus","to":"\u81fa\u5357\u516c\u5712","type":"route"},"geometry":{"type":"LineString","coordinates":[[120.28939,23.1043105],[120.2894329,23.1041674]]}},{"type":"Feature","properties":{"from":"\u9ebb\u8c46","name":"\u6a5812(\u5f80\u7a0b)","public_transport:version":"2","ref":"\u6a5812","route":"bus","to":"\u81fa\u5357\u516c\u5712","type":"route"},"geometry":{"type":"LineString","coordinates":[[120.2894329,23.1041674],[120.2905138,23.1045251],[120.2910314,23.1047196],[120.2923672,23.105285],[120.294616,23.1061257]]}},{"type":"Feature","properties":{"from":"\u9ebb\u8c46","name":"\u6a5812(\u5f80\u7a0b)","public_transport:version":"2","ref":"\u6a5812","route":"bus","to":"\u81fa\u5357\u516c\u5712","type":"route"},"geometry":{"type":"LineString","coordinates":[[120.294616,23.1061257],[120.2947331,23.1023934],[120.2947893,23.1005691],[120.294914,23.0972907],[120.2950521,23.0933542],[120.2950655,23.0929163],[120.2950816,23.0915235],[120.2951076,23.0902811],[120.2951052,23.0901914],[120.2951625,23.0888232],[120.295212,23.0874751],[120.2952586,23.0856546]]}},{"type":"Feature","properties":{"from":"\u9ebb\u8c46","name":"\u6a5812(\u5f80\u7a0b)","public_transport:version":"2","ref":"\u6a5812","route":"bus","to":"\u81fa\u5357\u516c\u5712","type":"route"},"geometry":{"type":"LineString","coordinates":[[120.2952586,23.0856546],[120.2953233,23.0837015],[120.2953769,23.0825638],[120.2953996,23.0814508],[120.2953847,23.0802248],[120.2954336,23.080073]]}},{"type":"Feature","properties":{"from":"\u9ebb\u8c46","name":"\u6a5812(\u5f80\u7a0b)","public_transport:version":"2","ref":"\u6a5812","route":"bus","to":"\u81fa\u5357\u516c\u5712","type":"route"},"geometry":{"type":"LineString","coordinates":[[120.2954336,23.080073],[120.2952818,23.0800668],[120.2943509,23.0796838],[120.293334,23.0793085],[120.2931929,23.0792526],[120.2924791,23.0789697],[120.2922985,23.0788943],[120.2922019,23.0788357],[120.2921282,23.0787784],[120.2920356,23.0786747],[120.29198,23.0785668],[120.2919552,23.0784662],[120.2918743,23.0781864],[120.2919029,23.0780216]]}},{"type":"Feature","properties":{"from":"\u9ebb\u8c46","name":"\u6a5812(\u5f80\u7a0b)","public_transport:version":"2","ref":"\u6a5812","route":"bus","to":"\u81fa\u5357\u516c\u5712","type":"route"},"geometry":{"type":"LineString","coordinates":[[120.2919029,23.0780216],[120.2918744,23.0778368],[120.2918041,23.0772638],[120.2917438,23.0767723],[120.2915858,23.0758535],[120.2914406,23.0747837],[120.291348,23.074184],[120.2913426,23.0741309],[120.2913359,23.0737473],[120.2913413,23.0736436],[120.2914231,23.0732537],[120.2916042,23.0726331],[120.2918013,23.0719903],[120.2919139,23.0716037],[120.2922936,23.0704232]]}},{"type":"Feature","properties":{"from":"\u9ebb\u8c46","name":"\u6a5812(\u5f80\u7a0b)","public_transport:version":"2","ref":"\u6a5812","route":"bus","to":"\u81fa\u5357\u516c\u5712","type":"route"},"geometry":{"type":"LineString","coordinates":[[120.2922936,23.0704232],[120.2922998,23.0703793],[120.2923109,23.0702999],[120.2923461,23.0701572]]}},{"type":"Feature","properties":{"from":"\u9ebb\u8c46","name":"\u6a5812(\u5f80\u7a0b)","public_transport:version":"2","ref":"\u6a5812","route":"bus","to":"\u81fa\u5357\u516c\u5712","type":"route"},"geometry":{"type":"LineString","coordinates":[[120.2923461,23.0701572],[120.2914084,23.0686767]]}},{"type":"Feature","properties":{"from":"\u9ebb\u8c46","name":"\u6a5812(\u5f80\u7a0b)","public_transport:version":"2","ref":"\u6a5812","route":"bus","to":"\u81fa\u5357\u516c\u5712","type":"route"},"geometry":{"type":"LineString","coordinates":[[120.2914084,23.0686767],[120.2902584,23.0680005]]}},{"type":"Feature","properties":{"from":"\u9ebb\u8c46","name":"\u6a5812(\u5f80\u7a0b)","public_transport:version":"2","ref":"\u6a5812","route":"bus","to":"\u81fa\u5357\u516c\u5712","type":"route"},"geometry":{"type":"LineString","coordinates":[[120.2902584,23.0680005],[120.290274,23.0680365],[120.2902736,23.0680754],[120.290257,23.068111],[120.2902268,23.0681382],[120.2901876,23.0681526],[120.2901455,23.0681521],[120.2901067,23.0681369],[120.2900772,23.0681091],[120.2900615,23.0680731],[120.290062,23.0680343],[120.2900786,23.0679986],[120.2901088,23.0679715],[120.2901479,23.0679571],[120.2901901,23.0679575],[120.2902289,23.0679728],[120.2902584,23.0680005]]}},{"type":"Feature","properties":{"from":"\u9ebb\u8c46","name":"\u6a5812(\u5f80\u7a0b)","public_transport:version":"2","ref":"\u6a5812","route":"bus","to":"\u81fa\u5357\u516c\u5712","type":"route"},"geometry":{"type":"LineString","coordinates":[[120.2906828,23.0676181],[120.2902584,23.0680005]]}},{"type":"Feature","properties":{"from":"\u9ebb\u8c46","name":"\u6a5812(\u5f80\u7a0b)","public_transport:version":"2","ref":"\u6a5812","route":"bus","to":"\u81fa\u5357\u516c\u5712","type":"route"},"geometry":{"type":"LineString","coordinates":[[120.2906828,23.0676181],[120.288883,23.0663235],[120.2872335,23.0650785],[120.2870927,23.064981],[120.2867762,23.06477],[120.2864771,23.0645824],[120.2861029,23.0643998],[120.2857596,23.0642604]]}},{"type":"Feature","properties":{"from":"\u9ebb\u8c46","name":"\u6a5812(\u5f80\u7a0b)","public_transport:version":"2","ref":"\u6a5812","route":"bus","to":"\u81fa\u5357\u516c\u5712","type":"route"},"geometry":{"type":"LineString","coordinates":[[120.2857596,23.0642604],[120.2853009,23.0641395],[120.2847779,23.0640519],[120.2844775,23.0639865],[120.284104,23.0639019]]}},{"type":"Feature","properties":{"from":"\u9ebb\u8c46","name":"\u6a5812(\u5f80\u7a0b)","public_transport:version":"2","ref":"\u6a5812","route":"bus","to":"\u81fa\u5357\u516c\u5712","type":"route"},"geometry":{"type":"LineString","coordinates":[[120.284104,23.0639019],[120.2836433,23.0637705],[120.283418,23.0636706],[120.2832209,23.0635521],[120.283068,23.0634189],[120.2826583,23.063053],[120.2818771,23.0623367],[120.2817926,23.0622627],[120.2813876,23.0618863],[120.2796422,23.0604112],[120.2790863,23.0599416],[120.2788663,23.0597664],[120.2785418,23.0595085],[120.2782509,23.0592703]]}},{"type":"Feature","properties":{"from":"\u9ebb\u8c46","name":"\u6a5812(\u5f80\u7a0b)","public_transport:version":"2","ref":"\u6a5812","route":"bus","to":"\u81fa\u5357\u516c\u5712","type":"route"},"geometry":{"type":"LineString","coordinates":[[120.2782509,23.0592703],[120.2772506,23.0584533],[120.2762845,23.0577115]]}},{"type":"Feature","properties":{"from":"\u9ebb\u8c46","name":"\u6a5812(\u5f80\u7a0b)","public_transport:version":"2","ref":"\u6a5812","route":"bus","to":"\u81fa\u5357\u516c\u5712","type":"route"},"geometry":{"type":"LineString","coordinates":[[120.2762845,23.0577115],[120.2752604,23.0568812],[120.2743004,23.0561395],[120.2738228,23.0557659],[120.271976,23.0542597],[120.271348,23.0536899]]}},{"type":"Feature","properties":{"from":"\u9ebb\u8c46","name":"\u6a5812(\u5f80\u7a0b)","public_transport:version":"2","ref":"\u6a5812","route":"bus","to":"\u81fa\u5357\u516c\u5712","type":"route"},"geometry":{"type":"LineString","coordinates":[[120.271348,23.0536899],[120.270124,23.0527276],[120.2689367,23.0517159],[120.2681857,23.0511009],[120.2678789,23.0508466],[120.2659214,23.0492702],[120.264339,23.0479337]]}},{"type":"Feature","properties":{"from":"\u9ebb\u8c46","name":"\u6a5812(\u5f80\u7a0b)","public_transport:version":"2","ref":"\u6a5812","route":"bus","to":"\u81fa\u5357\u516c\u5712","type":"route"},"geometry":{"type":"LineString","coordinates":[[120.264339,23.0479337],[120.2626612,23.046633],[120.2616863,23.0458334],[120.2604176,23.0447535],[120.2592034,23.0437318]]}},{"type":"Feature","properties":{"from":"\u9ebb\u8c46","name":"\u6a5812(\u5f80\u7a0b)","public_transport:version":"2","ref":"\u6a5812","route":"bus","to":"\u81fa\u5357\u516c\u5712","type":"route"},"geometry":{"type":"LineString","coordinates":[[120.2592034,23.0437318],[120.2590746,23.0436159],[120.2578392,23.0425884],[120.2576443,23.0424646],[120.2573689,23.0423157],[120.2571245,23.0422411],[120.256615,23.0421159]]}},{"type":"Feature","properties":{"from":"\u9ebb\u8c46","name":"\u6a5812(\u5f80\u7a0b)","public_transport:version":"2","ref":"\u6a5812","route":"bus","to":"\u81fa\u5357\u516c\u5712","type":"route"},"geometry":{"type":"LineString","coordinates":[[120.256615,23.0421159],[120.2563575,23.0420727],[120.2547965,23.0420295],[120.2546532,23.0420306],[120.2545041,23.0420634],[120.254193,23.0420499]]}},{"type":"Feature","properties":{"from":"\u9ebb\u8c46","name":"\u6a5812(\u5f80\u7a0b)","public_transport:version":"2","ref":"\u6a5812","route":"bus","to":"\u81fa\u5357\u516c\u5712","type":"route"},"geometry":{"type":"LineString","coordinates":[[120.254193,23.0420499],[120.2537035,23.042035],[120.2519252,23.0419684],[120.2512117,23.0419548],[120.2500745,23.0419252],[120.2493047,23.0418833]]}},{"type":"Feature","properties":{"from":"\u9ebb\u8c46","name":"\u6a5812(\u5f80\u7a0b)","public_transport:version":"2","ref":"\u6a5812","route":"bus","to":"\u81fa\u5357\u516c\u5712","type":"route"},"geometry":{"type":"LineString","coordinates":[[120.2493047,23.0418833],[120.2486854,23.0418532],[120.2478822,23.0418141],[120.2474563,23.0418007],[120.246537,23.0417569]]}},{"type":"Feature","properties":{"from":"\u9ebb\u8c46","name":"\u6a5812(\u5f80\u7a0b)","public_transport:version":"2","ref":"\u6a5812","route":"bus","to":"\u81fa\u5357\u516c\u5712","type":"route"},"geometry":{"type":"LineString","coordinates":[[120.246537,23.0417569],[120.245343,23.0417063],[120.2441665,23.0416481],[120.2429851,23.0416358],[120.2422138,23.0416227]]}},{"type":"Feature","properties":{"from":"\u9ebb\u8c46","name":"\u6a5812(\u5f80\u7a0b)","public_transport:version":"2","ref":"\u6a5812","route":"bus","to":"\u81fa\u5357\u516c\u5712","type":"route"},"geometry":{"type":"LineString","coordinates":[[120.2422138,23.0416227],[120.240445,23.0415809],[120.2396994,23.0415284],[120.2390422,23.0415099],[120.2385425,23.0414922],[120.2382459,23.041467],[120.2378162,23.0414055],[120.2375831,23.041342],[120.2373565,23.0412519]]}},{"type":"Feature","properties":{"from":"\u9ebb\u8c46","name":"\u6a5812(\u5f80\u7a0b)","public_transport:version":"2","ref":"\u6a5812","route":"bus","to":"\u81fa\u5357\u516c\u5712","type":"route"},"geometry":{"type":"LineString","coordinates":[[120.2373565,23.0412519],[120.2371794,23.0411779],[120.2368415,23.0410088],[120.236647,23.0408916],[120.236411,23.0407151],[120.2358826,23.0402437],[120.2353194,23.0397364],[120.2350042,23.0394884],[120.2346193,23.0391811],[120.2344624,23.0390182]]}},{"type":"Feature","properties":{"from":"\u9ebb\u8c46","name":"\u6a5812(\u5f80\u7a0b)","public_transport:version":"2","ref":"\u6a5812","route":"bus","to":"\u81fa\u5357\u516c\u5712","type":"route"},"geometry":{"type":"LineString","coordinates":[[120.2344624,23.0390182],[120.2334751,23.0381821],[120.2325859,23.03734],[120.2315492,23.036405],[120.2304511,23.0353846],[120.2299308,23.0348812],[120.2290566,23.0339597],[120.2286022,23.0334426],[120.2281296,23.0329187],[120.2276778,23.0324365],[120.2264098,23.031254]]}},{"type":"Feature","properties":{"from":"\u9ebb\u8c46","name":"\u6a5812(\u5f80\u7a0b)","public_transport:version":"2","ref":"\u6a5812","route":"bus","to":"\u81fa\u5357\u516c\u5712","type":"route"},"geometry":{"type":"LineString","coordinates":[[120.2264098,23.031254],[120.2244221,23.0293615]]}},{"type":"Feature","properties":{"from":"\u9ebb\u8c46","name":"\u6a5812(\u5f80\u7a0b)","public_transport:version":"2","ref":"\u6a5812","route":"bus","to":"\u81fa\u5357\u516c\u5712","type":"route"},"geometry":{"type":"LineString","coordinates":[[120.2244221,23.0293615],[120.2219948,23.0271417],[120.2212785,23.0264687],[120.2210676,23.0262705],[120.2200823,23.0253447],[120.2188297,23.0241882],[120.2181941,23.02365],[120.2180868,23.0235636]]}},{"type":"Feature","properties":{"from":"\u9ebb\u8c46","name":"\u6a5812(\u5f80\u7a0b)","public_transport:version":"2","ref":"\u6a5812","route":"bus","to":"\u81fa\u5357\u516c\u5712","type":"route"},"geometry":{"type":"LineString","coordinates":[[120.2180868,23.0235636],[120.2181071,23.0235499],[120.2181887,23.0235217],[120.2194225,23.0227632],[120.2210493,23.0217264],[120.2216273,23.0213685]]}},{"type":"Feature","properties":{"from":"\u9ebb\u8c46","name":"\u6a5812(\u5f80\u7a0b)","public_transport:version":"2","ref":"\u6a5812","route":"bus","to":"\u81fa\u5357\u516c\u5712","type":"route"},"geometry":{"type":"LineString","coordinates":[[120.2216273,23.0213685],[120.2214288,23.0210243]]}},{"type":"Feature","properties":{"from":"\u9ebb\u8c46","name":"\u6a5812(\u5f80\u7a0b)","public_transport:version":"2","ref":"\u6a5812","route":"bus","to":"\u81fa\u5357\u516c\u5712","type":"route"},"geometry":{"type":"LineString","coordinates":[[120.2214288,23.0210243],[120.2215394,23.0209362],[120.2216765,23.0208871],[120.2218,23.0208843],[120.2218823,23.0209152],[120.2220699,23.0210883]]}},{"type":"Feature","properties":{"from":"\u9ebb\u8c46","name":"\u6a5812(\u5f80\u7a0b)","public_transport:version":"2","ref":"\u6a5812","route":"bus","to":"\u81fa\u5357\u516c\u5712","type":"route"},"geometry":{"type":"LineString","coordinates":[[120.2220699,23.0210883],[120.2223193,23.0209304]]}},{"type":"Feature","properties":{"from":"\u9ebb\u8c46","name":"\u6a5812(\u5f80\u7a0b)","public_transport:version":"2","ref":"\u6a5812","route":"bus","to":"\u81fa\u5357\u516c\u5712","type":"route"},"geometry":{"type":"LineString","coordinates":[[120.2223193,23.0209304],[120.2244181,23.0196275],[120.2257126,23.0188139]]}},{"type":"Feature","properties":{"from":"\u9ebb\u8c46","name":"\u6a5812(\u5f80\u7a0b)","public_transport:version":"2","ref":"\u6a5812","route":"bus","to":"\u81fa\u5357\u516c\u5712","type":"route"},"geometry":{"type":"LineString","coordinates":[[120.2257126,23.0188139],[120.2257679,23.0187907],[120.2267134,23.0181675],[120.2270225,23.0179623],[120.2272579,23.017796],[120.2280941,23.0170974]]}},{"type":"Feature","properties":{"from":"\u9ebb\u8c46","name":"\u6a5812(\u5f80\u7a0b)","public_transport:version":"2","ref":"\u6a5812","route":"bus","to":"\u81fa\u5357\u516c\u5712","type":"route"},"geometry":{"type":"LineString","coordinates":[[120.2280941,23.0170974],[120.2284508,23.0167492],[120.2288351,23.0162901],[120.2293108,23.0156401],[120.2299561,23.0146257],[120.2300005,23.0145559],[120.2303994,23.0139189],[120.2307341,23.0134165]]}},{"type":"Feature","properties":{"from":"\u9ebb\u8c46","name":"\u6a5812(\u5f80\u7a0b)","public_transport:version":"2","ref":"\u6a5812","route":"bus","to":"\u81fa\u5357\u516c\u5712","type":"route"},"geometry":{"type":"LineString","coordinates":[[120.2307341,23.0134165],[120.2311498,23.0127549],[120.2313832,23.012387],[120.2316219,23.0120365],[120.2318365,23.0116624],[120.2323112,23.0109625],[120.2323756,23.0108588],[120.2330394,23.0098466],[120.2338466,23.0084803],[120.2345328,23.0074072],[120.2349499,23.0067493],[120.2350987,23.0064653],[120.2351845,23.0062839],[120.235265,23.0060135],[120.2353334,23.0057383],[120.2353723,23.0055012],[120.235387,23.0050803],[120.2352911,23.0042371],[120.2351993,23.0035471]]}},{"type":"Feature","properties":{"from":"\u9ebb\u8c46","name":"\u6a5812(\u5f80\u7a0b)","public_transport:version":"2","ref":"\u6a5812","route":"bus","to":"\u81fa\u5357\u516c\u5712","type":"route"},"geometry":{"type":"LineString","coordinates":[[120.2351993,23.0035471],[120.235085,23.0025501],[120.2347764,22.9998566],[120.234689,22.9990225],[120.2346511,22.9985384]]}},{"type":"Feature","properties":{"from":"\u9ebb\u8c46","name":"\u6a5812(\u5f80\u7a0b)","public_transport:version":"2","ref":"\u6a5812","route":"bus","to":"\u81fa\u5357\u516c\u5712","type":"route"},"geometry":{"type":"LineString","coordinates":[[120.2346511,22.9985384],[120.2345298,22.9985484],[120.2336728,22.9986186],[120.2333883,22.9986392],[120.2333233,22.9986439],[120.2332178,22.9986552],[120.232965,22.9986821],[120.2324295,22.9987283],[120.2321678,22.9987508],[120.2318505,22.9987873],[120.2317783,22.9987995],[120.2317149,22.9988189],[120.2308128,22.9990802],[120.2306225,22.9991353],[120.2305434,22.9991584],[120.230441,22.9991916],[120.2302383,22.9992562],[120.2294131,22.9995048],[120.2292697,22.999548],[120.2291477,22.9995851],[120.2282592,22.9998544],[120.2281672,22.9998856],[120.2280402,22.9999217],[120.2273957,23.0001205],[120.2267022,23.0003339],[120.2266612,23.0003453],[120.2266007,23.0003644],[120.2263904,23.000429],[120.2260014,23.0005105],[120.225789,23.0005293],[120.2254092,23.0005588],[120.224802,23.0006],[120.2247448,23.0006048],[120.2246149,23.0006156],[120.2244677,23.0006258]]}},{"type":"Feature","properties":{"from":"\u9ebb\u8c46","name":"\u6a5812(\u5f80\u7a0b)","public_transport:version":"2","ref":"\u6a5812","route":"bus","to":"\u81fa\u5357\u516c\u5712","type":"route"},"geometry":{"type":"LineString","coordinates":[[120.2244677,23.0006258],[120.2243607,23.0006331],[120.2224411,23.0007646],[120.2223213,23.0007728]]}},{"type":"Feature","properties":{"from":"\u9ebb\u8c46","name":"\u6a5812(\u5f80\u7a0b)","public_transport:version":"2","ref":"\u6a5812","route":"bus","to":"\u81fa\u5357\u516c\u5712","type":"route"},"geometry":{"type":"LineString","coordinates":[[120.2223213,23.0007728],[120.2222374,23.000779],[120.2221617,23.0007846],[120.2207,23.0008918],[120.2205636,23.0009018],[120.2205062,23.000906],[120.2186862,23.0010395],[120.2185555,23.0010478]]}},{"type":"Feature","properties":{"from":"\u9ebb\u8c46","name":"\u6a5812(\u5f80\u7a0b)","public_transport:version":"2","ref":"\u6a5812","route":"bus","to":"\u81fa\u5357\u516c\u5712","type":"route"},"geometry":{"type":"LineString","coordinates":[[120.2185555,23.0010478],[120.2184502,23.001059],[120.2171562,23.0011905],[120.2170991,23.0011963],[120.2168602,23.0012203],[120.2161622,23.0012905],[120.2154993,23.0013821],[120.2147851,23.00149],[120.2146578,23.0015091],[120.2145258,23.0015329]]}},{"type":"Feature","properties":{"from":"\u9ebb\u8c46","name":"\u6a5812(\u5f80\u7a0b)","public_transport:version":"2","ref":"\u6a5812","route":"bus","to":"\u81fa\u5357\u516c\u5712","type":"route"},"geometry":{"type":"LineString","coordinates":[[120.2145258,23.0015329],[120.2143721,23.0014801]]}},{"type":"Feature","properties":{"from":"\u9ebb\u8c46","name":"\u6a5812(\u5f80\u7a0b)","public_transport:version":"2","ref":"\u6a5812","route":"bus","to":"\u81fa\u5357\u516c\u5712","type":"route"},"geometry":{"type":"LineString","coordinates":[[120.2143721,23.0014801],[120.2132007,23.0016633]]}},{"type":"Feature","properties":{"from":"\u9ebb\u8c46","name":"\u6a5812(\u5f80\u7a0b)","public_transport:version":"2","ref":"\u6a5812","route":"bus","to":"\u81fa\u5357\u516c\u5712","type":"route"},"geometry":{"type":"LineString","coordinates":[[120.2132007,23.0016633],[120.2130937,23.0016817],[120.213061,23.0016892]]}},{"type":"Feature","properties":{"from":"\u9ebb\u8c46","name":"\u6a5812(\u5f80\u7a0b)","public_transport:version":"2","ref":"\u6a5812","route":"bus","to":"\u81fa\u5357\u516c\u5712","type":"route"},"geometry":{"type":"LineString","coordinates":[[120.2130526,23.0016447],[120.213061,23.0016892]]}},{"type":"Feature","properties":{"from":"\u9ebb\u8c46","name":"\u6a5812(\u5f80\u7a0b)","public_transport:version":"2","ref":"\u6a5812","route":"bus","to":"\u81fa\u5357\u516c\u5712","type":"route"},"geometry":{"type":"LineString","coordinates":[[120.2127411,22.9999659],[120.2127492,23.0000177],[120.2127622,23.0000873],[120.213034,23.0015451],[120.2130526,23.0016447]]}},{"type":"Feature","properties":{"from":"\u9ebb\u8c46","name":"\u6a5812(\u5f80\u7a0b)","public_transport:version":"2","ref":"\u6a5812","route":"bus","to":"\u81fa\u5357\u516c\u5712","type":"route"},"geometry":{"type":"LineString","coordinates":[[120.2122751,22.997603],[120.2124005,22.9982391],[120.2124535,22.9985075],[120.2126009,22.999255],[120.2126525,22.9995165],[120.2127079,22.9997975],[120.2127411,22.9999659]]}},{"type":"Feature","properties":{"from":"\u9ebb\u8c46","name":"\u6a5812(\u5f80\u7a0b)","public_transport:version":"2","ref":"\u6a5812","route":"bus","to":"\u81fa\u5357\u516c\u5712","type":"route"},"geometry":{"type":"LineString","coordinates":[[120.2122751,22.997603],[120.2119739,22.9975969],[120.2117832,22.9976462],[120.2115914,22.9976739],[120.2115028,22.9976448],[120.2114348,22.9976192],[120.2113762,22.9975758],[120.211274,22.9974909],[120.211253,22.9974282],[120.2112366,22.9973829]]}},{"type":"Feature","properties":{"from":"\u9ebb\u8c46","name":"\u6a5812(\u5f80\u7a0b)","public_transport:version":"2","ref":"\u6a5812","route":"bus","to":"\u81fa\u5357\u516c\u5712","type":"route"},"geometry":{"type":"LineString","coordinates":[[120.2112366,22.9973829],[120.2112224,22.9973263]]}},{"type":"Feature","properties":{"from":"\u9ebb\u8c46","name":"\u6a5812(\u5f80\u7a0b)","public_transport:version":"2","ref":"\u6a5812","route":"bus","to":"\u81fa\u5357\u516c\u5712","type":"route"},"geometry":{"type":"LineString","coordinates":[[120.2112224,22.9973263],[120.2112421,22.997198],[120.2112908,22.9970885],[120.2113768,22.9969836],[120.211457,22.9969172],[120.2115406,22.9968838]]}},{"type":"Feature","properties":{"from":"\u9ebb\u8c46","name":"\u6a5812(\u5f80\u7a0b)","public_transport:version":"2","ref":"\u6a5812","route":"bus","to":"\u81fa\u5357\u516c\u5712","type":"route"},"geometry":{"type":"LineString","coordinates":[[120.2115406,22.9968838],[120.2116717,22.9968407]]}},{"type":"Feature","properties":{"from":"\u9ebb\u8c46","name":"\u6a5812(\u5f80\u7a0b)","public_transport:version":"2","ref":"\u6a5812","route":"bus","to":"\u81fa\u5357\u516c\u5712","type":"route"},"geometry":{"type":"LineString","coordinates":[[120.2116717,22.9968407],[120.2117548,22.9968827],[120.212069,22.9968492]]}},{"type":"Feature","properties":{"from":"\u9ebb\u8c46","name":"\u6a5812(\u5f80\u7a0b)","public_transport:version":"2","ref":"\u6a5812","route":"bus","to":"\u81fa\u5357\u516c\u5712","type":"route"},"geometry":{"type":"LineString","coordinates":[[120.212069,22.9968492],[120.2121649,22.9970622]]}},{"type":"Feature","properties":{"from":"\u9ebb\u8c46","name":"\u6a5812(\u5f80\u7a0b)","public_transport:version":"2","ref":"\u6a5812","route":"bus","to":"\u81fa\u5357\u516c\u5712","type":"route"},"geometry":{"type":"LineString","coordinates":[[120.2121649,22.9970622],[120.2122133,22.9972959],[120.212168,22.9973563],[120.2121286,22.9973921],[120.2120959,22.9974181],[120.2120524,22.997444],[120.2120074,22.9974624],[120.2119414,22.9974731],[120.2118275,22.9974837],[120.2117686,22.9974926],[120.2116821,22.99749],[120.2116207,22.9974678],[120.2115602,22.9973916],[120.2115296,22.9973406],[120.2115066,22.997283],[120.2115271,22.9971846],[120.2115746,22.9971088],[120.2116146,22.9970518],[120.21172,22.9970226],[120.2118512,22.9969848],[120.2120278,22.9969658],[120.2120928,22.9969906],[120.2121649,22.9970622]]}},{"type":"Feature","properties":{"from":"\u9ebb\u8c46","name":"\u6a5812(\u5f80\u7a0b)","public_transport:version":"2","ref":"\u6a5812","route":"bus","to":"\u81fa\u5357\u516c\u5712","type":"route"},"geometry":{"type":"LineString","coordinates":[[120.2115296,22.9973406],[120.2112366,22.9973829]]}},{"type":"Feature","properties":{"from":"\u9ebb\u8c46","name":"\u6a5812(\u5f80\u7a0b)","public_transport:version":"2","ref":"\u6a5812","route":"bus","to":"\u81fa\u5357\u516c\u5712","type":"route"},"geometry":{"type":"LineString","coordinates":[[120.2112366,22.9973829],[120.2110671,22.9974117],[120.210217,22.99755],[120.2094737,22.9976725],[120.2086676,22.9978025],[120.2079985,22.9979187],[120.2076404,22.997973],[120.2069995,22.9980796]]}},{"type":"Feature","properties":{"from":"\u9ebb\u8c46","name":"\u6a5812(\u5f80\u7a0b)","public_transport:version":"2","ref":"\u6a5812","route":"bus","to":"\u81fa\u5357\u516c\u5712","type":"route"},"geometry":{"type":"LineString","coordinates":[[120.20873,23.0010362],[120.2080177,22.9998488],[120.2079162,22.9996735],[120.2074123,22.9988316],[120.2069995,22.9980796]]}},{"type":"Feature","properties":{"from":"\u9ebb\u8c46","name":"\u6a5812(\u5f80\u7a0b)","public_transport:version":"2","ref":"\u6a5812","route":"bus","to":"\u81fa\u5357\u516c\u5712","type":"route"},"geometry":{"type":"LineString","coordinates":[[120.2092282,23.0019348],[120.20873,23.0010362]]}},{"type":"Feature","properties":{"bus":"yes","highway":"bus_stop","name":"\u53f0\u5357\u516c\u5712(\u516c\u5712\u8def)","network":"\u81fa\u5357\u5e02\u516c\u8eca","operator":"\u81fa\u5357\u5e02\u516c\u8eca","public_transport":"platform"},"geometry":{"type":"Point","coordinates":[120.2090443,23.001795]}},{"type":"Feature","properties":{"bench":"yes","bus":"yes","highway":"bus_stop","name":"\u81fa\u5357\u706b\u8eca\u7ad9(\u5317\u7ad9)","network":"\u81fa\u5357\u5e02\u516c\u8eca","note":"\u8208\u5357\u5ba2\u904b","operator":"\u81fa\u5357\u5e02\u516c\u8eca","public_transport":"platform","ref":"9274","shelter":"yes"},"geometry":{"type":"Point","coordinates":[120.2114063,22.9976794]}},{"type":"Feature","properties":{"bench":"yes","bus":"yes","highway":"bus_stop","name":"\u53f0\u5357\u516c\u5712(\u5317\u9580\u8def)","network":"\u81fa\u5357\u5e02\u516c\u8eca","operator":"\u81fa\u5357\u5e02\u516c\u8eca","public_transport":"platform","shelter":"yes"},"geometry":{"type":"Point","coordinates":[120.2129283,23.0006975]}},{"type":"Feature","properties":{"bus":"yes","highway":"bus_stop","name":"\u6210\u529f\u5927\u5b78","network":"\u81fa\u5357\u5e02\u516c\u8eca","operator":"\u81fa\u5357\u5e02\u516c\u8eca","public_transport":"platform"},"geometry":{"type":"Point","coordinates":[120.2179692,23.0008851]}},{"type":"Feature","properties":{"bus":"yes","highway":"bus_stop","name":"\u6210\u5927\u91ab\u9662","network":"\u81fa\u5357\u5e02\u516c\u8eca","operator":"\u81fa\u5357\u5e02\u516c\u8eca","public_transport":"platform"},"geometry":{"type":"Point","coordinates":[120.2213027,23.0006188]}},{"type":"Feature","properties":{"bus":"yes","highway":"bus_stop","name":"\u7121\u969c\u7919\u798f\u5229\u4e4b\u5bb6","network":"\u81fa\u5357\u5e02\u516c\u8eca","operator":"\u81fa\u5357\u5e02\u516c\u8eca","public_transport":"platform"},"geometry":{"type":"Point","coordinates":[120.2255129,23.000339]}},{"type":"Feature","properties":{"bus":"yes","highway":"bus_stop","name":"\u5149\u660e\u8857\u53e3","network":"\u81fa\u5357\u5e02\u516c\u8eca","operator":"\u81fa\u5357\u5e02\u516c\u8eca","public_transport":"platform"},"geometry":{"type":"Point","coordinates":[120.2290758,22.999375]}},{"type":"Feature","properties":{"bus":"yes","highway":"bus_stop","name":"\u56db\u4efd\u5b50","network":"\u81fa\u5357\u5e02\u516c\u8eca","operator":"\u81fa\u5357\u5e02\u516c\u8eca","public_transport":"platform"},"geometry":{"type":"Point","coordinates":[120.2322858,22.998535]}},{"type":"Feature","properties":{"bench":"no","bus":"yes","highway":"bus_stop","name":"\u5175\u4ed4\u5e02","network":"\u81fa\u5357\u5e02\u516c\u8eca","operator":"\u81fa\u5357\u5e02\u516c\u8eca","public_transport":"platform","ref":"0826","shelter":"no"},"geometry":{"type":"Point","coordinates":[120.2353576,23.0036641]}},{"type":"Feature","properties":{"bench":"no","bus":"yes","highway":"bus_stop","name":"\u4e2d\u83ef\u8def\u3001\u52dd\u83ef\u8857\u53e3","network":"\u81fa\u5357\u5e02\u516c\u8eca","operator":"\u81fa\u5357\u5e02\u516c\u8eca","public_transport":"platform","ref":"1181","shelter":"no"},"geometry":{"type":"Point","coordinates":[120.2348321,23.0072418]}},{"type":"Feature","properties":{"bench":"no","bus":"yes","highway":"bus_stop","name":"\u4e2d\u83ef\u3001\u4e2d\u83ef\u4e8c\u8def\u53e3","network":"\u81fa\u5357\u5e02\u516c\u8eca","operator":"\u81fa\u5357\u5e02\u516c\u8eca","public_transport":"platform","ref":"0827","shelter":"no"},"geometry":{"type":"Point","coordinates":[120.2337866,23.0089501]}},{"type":"Feature","properties":{"bench":"no","bus":"yes","highway":"bus_stop","name":"\u4e2d\u83ef\u3001\u632f\u8208\u8def\u53e3","network":"\u81fa\u5357\u5e02\u516c\u8eca","operator":"\u81fa\u5357\u5e02\u516c\u8eca","public_transport":"platform","ref":"0828","shelter":"no"},"geometry":{"type":"Point","coordinates":[120.2322134,23.0113284]}},{"type":"Feature","properties":{"bus":"yes","highway":"bus_stop","name":"\u53f0\u5357\u9ad8\u5de5","network":"\u81fa\u5357\u5e02\u516c\u8eca","operator":"\u81fa\u5357\u5e02\u516c\u8eca","public_transport":"platform"},"geometry":{"type":"Point","coordinates":[120.2305628,23.0139661]}},{"type":"Feature","properties":{"bench":"no","bus":"yes","highway":"bus_stop","name":"\u5927\u6a4b","network":"\u81fa\u5357\u5e02\u516c\u8eca","operator":"\u81fa\u5357\u5e02\u516c\u8eca","public_transport":"platform","shelter":"no"},"geometry":{"type":"Point","coordinates":[120.2264558,23.0184912]}},{"type":"Feature","properties":{"bus":"yes","highway":"bus_stop","name":"\u5947\u7f8e\u91ab\u9662","network":"\u81fa\u5357\u5e02\u516c\u8eca","operator":"\u81fa\u5357\u5e02\u516c\u8eca","public_transport":"platform"},"geometry":{"type":"Point","coordinates":[120.2216865,23.0214877]}},{"type":"Feature","properties":{"bus":"yes","highway":"bus_stop","name":"\u53f0\u96fb\u914d\u96fb\u4e2d\u5fc3","network":"\u81fa\u5357\u5e02\u516c\u8eca","operator":"\u81fa\u5357\u5e02\u516c\u8eca","public_transport":"platform"},"geometry":{"type":"Point","coordinates":[120.2195686,23.0246246]}},{"type":"Feature","properties":{"bus":"yes","highway":"bus_stop","name":"\u5c1a\u9802\u91cc","network":"\u81fa\u5357\u5e02\u516c\u8eca","operator":"\u81fa\u5357\u5e02\u516c\u8eca","public_transport":"platform"},"geometry":{"type":"Point","coordinates":[120.2227036,23.0275122]}},{"type":"Feature","properties":{"bus":"yes","highway":"bus_stop","name":"\u5927\u5d0e","network":"\u81fa\u5357\u5e02\u516c\u8eca","operator":"\u81fa\u5357\u5e02\u516c\u8eca","public_transport":"platform"},"geometry":{"type":"Point","coordinates":[120.2268653,23.0314008]}},{"type":"Feature","properties":{"bus":"yes","highway":"bus_stop","name":"\u6d32\u4ed4\u5c3e","network":"\u81fa\u5357\u5e02\u516c\u8eca","operator":"\u81fa\u5357\u5e02\u516c\u8eca","public_transport":"platform","ref":"0560"},"geometry":{"type":"Point","coordinates":[120.2311077,23.0357814]}},{"type":"Feature","properties":{"bus":"yes","highway":"bus_stop","name":"\u5357\u9e7d\u884c","network":"\u81fa\u5357\u5e02\u516c\u8eca","operator":"\u81fa\u5357\u5e02\u516c\u8eca","public_transport":"platform"},"geometry":{"type":"Point","coordinates":[120.2333727,23.0378369]}},{"type":"Feature","properties":{"bus":"yes","highway":"bus_stop","name":"\u9e7d\u884c","network":"\u81fa\u5357\u5e02\u516c\u8eca","operator":"\u81fa\u5357\u5e02\u516c\u8eca","public_transport":"platform"},"geometry":{"type":"Point","coordinates":[120.2369012,23.0408319]}},{"type":"Feature","properties":{"bus":"yes","highway":"bus_stop","name":"\u7af9\u6797\u91cc","network":"\u81fa\u5357\u5e02\u516c\u8eca","note":"\u8208\u5357\u5ba2\u904b","operator":"\u81fa\u5357\u5e02\u516c\u8eca","public_transport":"platform"},"geometry":{"type":"Point","coordinates":[120.2446259,23.041528]}},{"type":"Feature","properties":{"bus":"yes","highway":"bus_stop","name":"\u8526\u677e","network":"\u81fa\u5357\u5e02\u516c\u8eca","note":"\u8208\u5357\u5ba2\u904b","operator":"\u81fa\u5357\u5e02\u516c\u8eca","public_transport":"platform"},"geometry":{"type":"Point","coordinates":[120.2539306,23.0418945]}},{"type":"Feature","properties":{"bus":"yes","highway":"bus_stop","name":"\u4e09\u65b0\u7d21\u7e54","network":"\u81fa\u5357\u5e02\u516c\u8eca","operator":"\u81fa\u5357\u5e02\u516c\u8eca","public_transport":"platform"},"geometry":{"type":"Point","coordinates":[120.2616519,23.0455668]}},{"type":"Feature","properties":{"bus":"yes","highway":"bus_stop","name":"\u7d71\u4e00\u99ac\u53e3\u9435","network":"\u81fa\u5357\u5e02\u516c\u8eca","note":"\u8208\u5357\u5ba2\u904b","operator":"\u81fa\u5357\u5e02\u516c\u8eca","public_transport":"platform"},"geometry":{"type":"Point","coordinates":[120.2669582,23.0498787]}},{"type":"Feature","properties":{"bus":"yes","highway":"bus_stop","name":"\u8eca\u884c","network":"\u81fa\u5357\u5e02\u516c\u8eca","note":"\u8208\u5357\u5ba2\u904b","operator":"\u81fa\u5357\u5e02\u516c\u8eca","public_transport":"platform"},"geometry":{"type":"Point","coordinates":[120.270936,23.0531331]}},{"type":"Feature","properties":{"bus":"yes","highway":"bus_stop","name":"\u65b0\u5e02\u706b\u8eca\u7ad9(\u7701\u9053)","network":"\u81fa\u5357\u5e02\u516c\u8eca","note":"\u8208\u5357\u5ba2\u904b","operator":"\u81fa\u5357\u5e02\u516c\u8eca","public_transport":"platform"},"geometry":{"type":"Point","coordinates":[120.2902956,23.0670606]}},{"type":"Feature","properties":{"bench":"yes","bus":"yes","highway":"bus_stop","name":"\u65b0\u5e02\u706b\u8eca\u7ad9","network":"\u81fa\u5357\u5e02\u516c\u8eca","note":"\u8208\u5357\u5ba2\u904b","operator":"\u81fa\u5357\u5e02\u516c\u8eca","public_transport":"platform","ref":"3411","shelter":"yes"},"geometry":{"type":"Point","coordinates":[120.2900233,23.0680741]}},{"type":"Feature","properties":{"bus":"yes","highway":"bus_stop","name":"\u65b0\u5e02\u96fb\u4fe1\u5c40","network":"\u81fa\u5357\u5e02\u516c\u8eca","note":"\u8208\u5357\u5ba2\u904b","operator":"\u81fa\u5357\u5e02\u516c\u8eca","public_transport":"platform"},"geometry":{"type":"Point","coordinates":[120.2917845,23.0723764]}},{"type":"Feature","properties":{"bus":"yes","highway":"bus_stop","name":"\u65b0\u5e02","network":"\u81fa\u5357\u5e02\u516c\u8eca","note":"\u8208\u5357\u5ba2\u904b","operator":"\u81fa\u5357\u5e02\u516c\u8eca","public_transport":"platform","ref":"3412"},"geometry":{"type":"Point","coordinates":[120.2918681,23.0771483]}},{"type":"Feature","properties":{"bus":"yes","highway":"bus_stop","name":"\u65b0\u5e02\u5e02\u5834","network":"\u81fa\u5357\u5e02\u516c\u8eca","note":"\u8208\u5357\u5ba2\u904b","operator":"\u81fa\u5357\u5e02\u516c\u8eca","public_transport":"platform"},"geometry":{"type":"Point","coordinates":[120.2945967,23.0796793]}},{"type":"Feature","properties":{"bus":"yes","highway":"bus_stop","name":"\u5fa9\u8208\u8def\u53e3","network":"\u81fa\u5357\u5e02\u516c\u8eca","operator":"\u81fa\u5357\u5e02\u516c\u8eca","public_transport":"platform","ref":"3415"},"geometry":{"type":"Point","coordinates":[120.295477,23.0819856]}},{"type":"Feature","properties":{"bus":"yes","highway":"bus_stop","name":"\u4e09\u820d","network":"\u81fa\u5357\u5e02\u516c\u8eca","note":"\u8208\u5357\u5ba2\u904b","operator":"\u81fa\u5357\u5e02\u516c\u8eca","public_transport":"platform"},"geometry":{"type":"Point","coordinates":[120.2952979,23.0897923]}},{"type":"Feature","properties":{"bus":"yes","highway":"bus_stop","name":"\u4f73\u548c\u516c\u53f8","network":"\u81fa\u5357\u5e02\u516c\u8eca","note":"\u8208\u5357\u5ba2\u904b","operator":"\u81fa\u5357\u5e02\u516c\u8eca","public_transport":"platform"},"geometry":{"type":"Point","coordinates":[120.2951325,23.0949539]}},{"type":"Feature","properties":{"bus":"yes","highway":"bus_stop","name":"\u5f97\u5229\u5be6\u696d","network":"\u81fa\u5357\u5e02\u516c\u8eca","note":"\u8208\u5357\u5ba2\u904b","operator":"\u81fa\u5357\u5e02\u516c\u8eca","public_transport":"platform"},"geometry":{"type":"Point","coordinates":[120.294959,23.1008217]}},{"type":"Feature","properties":{"bus":"yes","highway":"bus_stop","name":"\u5357\u79d1\u5be6\u4e2d","network":"\u81fa\u5357\u5e02\u516c\u8eca","operator":"\u81fa\u5357\u5e02\u516c\u8eca","public_transport":"platform","ref":"3419"},"geometry":{"type":"Point","coordinates":[120.2901346,23.104251]}},{"type":"Feature","properties":{"bus":"yes","highway":"bus_stop","name":"\u4e9e\u852c\u4e2d\u5fc3","network":"\u81fa\u5357\u5e02\u516c\u8eca","note":"\u8208\u5357\u5ba2\u904b","operator":"\u81fa\u5357\u5e02\u516c\u8eca","public_transport":"platform"},"geometry":{"type":"Point","coordinates":[120.2945276,23.114727]}},{"type":"Feature","properties":{"bus":"yes","highway":"bus_stop","name":"\u5750\u99d5\u91cc","network":"\u81fa\u5357\u5e02\u516c\u8eca","note":"\u8208\u5357\u5ba2\u904b","operator":"\u81fa\u5357\u5e02\u516c\u8eca","public_transport":"platform"},"geometry":{"type":"Point","coordinates":[120.2941784,23.1262486]}},{"type":"Feature","properties":{"bus":"yes","highway":"bus_stop","name":"\u5927\u6210\u570b\u5c0f","network":"\u81fa\u5357\u5e02\u516c\u8eca","note":"\u8208\u5357\u5ba2\u904b","operator":"\u81fa\u5357\u5e02\u516c\u8eca","public_transport":"platform"},"geometry":{"type":"Point","coordinates":[120.29527,23.1291491]}},{"type":"Feature","properties":{"bench":"yes","bus":"yes","highway":"bus_stop","name":"\u5584\u5316\u9ad8\u4e2d","network":"\u81fa\u5357\u5e02\u516c\u8eca","operator":"\u81fa\u5357\u5e02\u516c\u8eca","public_transport":"platform","ref":"3430","shelter":"yes"},"geometry":{"type":"Point","coordinates":[120.3004359,23.1299759]}},{"type":"Feature","properties":{"bench":"yes","bus":"yes","highway":"bus_stop","name":"\u5584\u5316\u8f49\u904b\u7ad9","name:en":"Shanhua Bus Station","name:zh":"\u5584\u5316\u8f49\u904b\u7ad9","network":"\u81fa\u5357\u5e02\u516c\u8eca","operator":"\u81fa\u5357\u5e02\u516c\u8eca","public_transport":"platform","ref":"7769","shelter":"yes"},"geometry":{"type":"Point","coordinates":[120.3059662,23.133526]}},{"type":"Feature","properties":{"bus":"yes","highway":"bus_stop","name":"\u6a39\u4eba\u8def\u53e3","network":"\u81fa\u5357\u5e02\u516c\u8eca","note":"\u8208\u5357\u5ba2\u904b","operator":"\u81fa\u5357\u5e02\u516c\u8eca","public_transport":"platform"},"geometry":{"type":"Point","coordinates":[120.3000546,23.1326866]}},{"type":"Feature","properties":{"bus":"yes","highway":"bus_stop","name":"\u5584\u5316\u516c\u6240","name:en":"Shanhua District Office","name:zh":"\u5584\u5316\u516c\u6240","network":"\u81fa\u5357\u5e02\u516c\u8eca","operator":"\u81fa\u5357\u5e02\u516c\u8eca","public_transport":"platform","ref":"3015"},"geometry":{"type":"Point","coordinates":[120.2970804,23.1322602]}},{"type":"Feature","properties":{"bus":"yes","highway":"bus_stop","name":"\u79fb\u6c11\u7f72","network":"\u81fa\u5357\u5e02\u516c\u8eca","operator":"\u81fa\u5357\u5e02\u516c\u8eca","public_transport":"platform","ref":"1173"},"geometry":{"type":"Point","coordinates":[120.293331,23.1321911]}},{"type":"Feature","properties":{"bus":"yes","highway":"bus_stop","name":"\u5584\u5316","network":"\u81fa\u5357\u5e02\u516c\u8eca","note":"\u8208\u5357\u5ba2\u904b","operator":"\u81fa\u5357\u5e02\u516c\u8eca","public_transport":"platform"},"geometry":{"type":"Point","coordinates":[120.2906704,23.1324082]}},{"type":"Feature","properties":{"bus":"yes","highway":"bus_stop","name":"\u5584\u5316\u570b\u5c0f","network":"\u81fa\u5357\u5e02\u516c\u8eca","note":"\u8208\u5357\u5ba2\u904b","operator":"\u81fa\u5357\u5e02\u516c\u8eca","public_transport":"platform"},"geometry":{"type":"Point","coordinates":[120.2891581,23.1359499]}},{"type":"Feature","properties":{"bus":"yes","highway":"bus_stop","name":"\u4ec0\u7f8e","network":"\u81fa\u5357\u5e02\u516c\u8eca","operator":"\u81fa\u5357\u5e02\u516c\u8eca","public_transport":"platform","ref":"8927"},"geometry":{"type":"Point","coordinates":[120.2884751,23.1394104]}},{"type":"Feature","properties":{"bus":"yes","highway":"bus_stop","name":"\u5357\u6eaa\u5c3e","network":"\u81fa\u5357\u5e02\u516c\u8eca","note":"\u8208\u5357\u5ba2\u904b","operator":"\u81fa\u5357\u5e02\u516c\u8eca","public_transport":"platform"},"geometry":{"type":"Point","coordinates":[120.2882624,23.1422718]}},{"type":"Feature","properties":{"bus":"yes","highway":"bus_stop","name":"\u5584\u5316\u570b\u4e2d","network":"\u81fa\u5357\u5e02\u516c\u8eca","note":"\u8208\u5357\u5ba2\u904b","operator":"\u81fa\u5357\u5e02\u516c\u8eca","public_transport":"platform"},"geometry":{"type":"Point","coordinates":[120.2881401,23.1477788]}},{"type":"Feature","properties":{"bus":"yes","highway":"bus_stop","name":"\u6eaa\u5c3e","network":"\u81fa\u5357\u5e02\u516c\u8eca","note":"\u8208\u5357\u5ba2\u904b","operator":"\u81fa\u5357\u5e02\u516c\u8eca","public_transport":"platform"},"geometry":{"type":"Point","coordinates":[120.2872708,23.1517481]}},{"type":"Feature","properties":{"bus":"yes","highway":"bus_stop","name":"\u842c\u8056\u516c","network":"\u81fa\u5357\u5e02\u516c\u8eca","operator":"\u81fa\u5357\u5e02\u516c\u8eca","public_transport":"platform","ref":"1728"},"geometry":{"type":"Point","coordinates":[120.2840897,23.155858]}},{"type":"Feature","properties":{"bus":"yes","highway":"bus_stop","name":"\u6eaa\u5e95\u5bee","network":"\u81fa\u5357\u5e02\u516c\u8eca","note":"\u8208\u5357\u5ba2\u904b","operator":"\u81fa\u5357\u5e02\u516c\u8eca","public_transport":"platform"},"geometry":{"type":"Point","coordinates":[120.2674711,23.1665137]}},{"type":"Feature","properties":{"bus":"yes","highway":"bus_stop","name":"\u6649\u6c5f\u91cc","network":"\u81fa\u5357\u5e02\u516c\u8eca","note":"\u8208\u5357\u5ba2\u904b","operator":"\u81fa\u5357\u5e02\u516c\u8eca","public_transport":"platform"},"geometry":{"type":"Point","coordinates":[120.2517054,23.1799469]}},{"type":"Feature","properties":{"bus":"yes","highway":"bus_stop","name":"\u6649\u6c5f\u91cc\u5317","network":"\u81fa\u5357\u5e02\u516c\u8eca","note":"\u8208\u5357\u5ba2\u904b","operator":"\u81fa\u5357\u5e02\u516c\u8eca","public_transport":"platform"},"geometry":{"type":"Point","coordinates":[120.2515326,23.1826657]}},{"type":"Feature","properties":{"bus":"yes","highway":"bus_stop","name":"\u4e00\u5546\u524d","network":"\u81fa\u5357\u5e02\u516c\u8eca","operator":"\u81fa\u5357\u5e02\u516c\u8eca","public_transport":"platform","ref":"7941"},"geometry":{"type":"Point","coordinates":[120.2487976,23.1837272]}},{"type":"Feature","properties":{"bus":"yes","highway":"bus_stop","name":"\u96fb\u59ec\u6232\u9662","network":"\u81fa\u5357\u5e02\u516c\u8eca","operator":"\u81fa\u5357\u5e02\u516c\u8eca","public_transport":"platform","ref":"7942"},"geometry":{"type":"Point","coordinates":[120.2448072,23.1837386]}},{"type":"Feature","properties":{"bus":"yes","highway":"bus_stop","name":"\u5713\u74b0","network":"\u81fa\u5357\u5e02\u516c\u8eca","operator":"\u81fa\u5357\u5e02\u516c\u8eca","public_transport":"platform","ref":"7943"},"geometry":{"type":"Point","coordinates":[120.2417923,23.184875]}},{"type":"Feature","properties":{"bus":"yes","highway":"bus_stop","name":"\u9ebb\u8c46\u8f49\u904b\u7ad9","network":"\u81fa\u5357\u5e02\u516c\u8eca","note":"\u8fd4\u7a0b","operator":"\u81fa\u5357\u5e02\u516c\u8eca","public_transport":"platform","ref":"4023"},"geometry":{"type":"Point","coordinates":[120.2390077,23.185387]}},{"type":"Feature","properties":{"from":"\u81fa\u5357\u516c\u5712","name":"\u6a5812(\u8fd4\u7a0b)","public_transport:version":"2","ref":"\u6a5812","route":"bus","to":"\u9ebb\u8c46","type":"route"},"geometry":{"type":"LineString","coordinates":[[120.2092282,23.0019348],[120.20873,23.0010362]]}},{"type":"Feature","properties":{"from":"\u81fa\u5357\u516c\u5712","name":"\u6a5812(\u8fd4\u7a0b)","public_transport:version":"2","ref":"\u6a5812","route":"bus","to":"\u9ebb\u8c46","type":"route"},"geometry":{"type":"LineString","coordinates":[[120.20873,23.0010362],[120.2080177,22.9998488],[120.2079162,22.9996735],[120.2074123,22.9988316],[120.2069995,22.9980796]]}},{"type":"Feature","properties":{"from":"\u81fa\u5357\u516c\u5712","name":"\u6a5812(\u8fd4\u7a0b)","public_transport:version":"2","ref":"\u6a5812","route":"bus","to":"\u9ebb\u8c46","type":"route"},"geometry":{"type":"LineString","coordinates":[[120.2069995,22.9980796],[120.2069717,22.9980172]]}},{"type":"Feature","properties":{"from":"\u81fa\u5357\u516c\u5712","name":"\u6a5812(\u8fd4\u7a0b)","public_transport:version":"2","ref":"\u6a5812","route":"bus","to":"\u9ebb\u8c46","type":"route"},"geometry":{"type":"LineString","coordinates":[[120.2069717,22.9980172],[120.2076039,22.9979144],[120.2086374,22.9977449],[120.2094626,22.9976123],[120.210203,22.997492],[120.2110557,22.9973534],[120.2112224,22.9973263]]}},{"type":"Feature","properties":{"from":"\u81fa\u5357\u516c\u5712","name":"\u6a5812(\u8fd4\u7a0b)","public_transport:version":"2","ref":"\u6a5812","route":"bus","to":"\u9ebb\u8c46","type":"route"},"geometry":{"type":"LineString","coordinates":[[120.2112224,22.9973263],[120.2112421,22.997198],[120.2112908,22.9970885],[120.2113768,22.9969836],[120.211457,22.9969172],[120.2115406,22.9968838]]}},{"type":"Feature","properties":{"from":"\u81fa\u5357\u516c\u5712","name":"\u6a5812(\u8fd4\u7a0b)","public_transport:version":"2","ref":"\u6a5812","route":"bus","to":"\u9ebb\u8c46","type":"route"},"geometry":{"type":"LineString","coordinates":[[120.2115406,22.9968838],[120.2116717,22.9968407]]}},{"type":"Feature","properties":{"from":"\u81fa\u5357\u516c\u5712","name":"\u6a5812(\u8fd4\u7a0b)","public_transport:version":"2","ref":"\u6a5812","route":"bus","to":"\u9ebb\u8c46","type":"route"},"geometry":{"type":"LineString","coordinates":[[120.2116717,22.9968407],[120.2117548,22.9968827],[120.212069,22.9968492]]}},{"type":"Feature","properties":{"from":"\u81fa\u5357\u516c\u5712","name":"\u6a5812(\u8fd4\u7a0b)","public_transport:version":"2","ref":"\u6a5812","route":"bus","to":"\u9ebb\u8c46","type":"route"},"geometry":{"type":"LineString","coordinates":[[120.212069,22.9968492],[120.2121649,22.9970622]]}},{"type":"Feature","properties":{"from":"\u81fa\u5357\u516c\u5712","name":"\u6a5812(\u8fd4\u7a0b)","public_transport:version":"2","ref":"\u6a5812","route":"bus","to":"\u9ebb\u8c46","type":"route"},"geometry":{"type":"LineString","coordinates":[[120.2121649,22.9970622],[120.2122133,22.9972959],[120.212168,22.9973563],[120.2121286,22.9973921],[120.2120959,22.9974181],[120.2120524,22.997444],[120.2120074,22.9974624],[120.2119414,22.9974731],[120.2118275,22.9974837],[120.2117686,22.9974926],[120.2116821,22.99749],[120.2116207,22.9974678],[120.2115602,22.9973916],[120.2115296,22.9973406],[120.2115066,22.997283],[120.2115271,22.9971846],[120.2115746,22.9971088],[120.2116146,22.9970518],[120.21172,22.9970226],[120.2118512,22.9969848],[120.2120278,22.9969658],[120.2120928,22.9969906],[120.2121649,22.9970622]]}},{"type":"Feature","properties":{"from":"\u81fa\u5357\u516c\u5712","name":"\u6a5812(\u8fd4\u7a0b)","public_transport:version":"2","ref":"\u6a5812","route":"bus","to":"\u9ebb\u8c46","type":"route"},"geometry":{"type":"LineString","coordinates":[[120.2122133,22.9972959],[120.2122397,22.9974216],[120.2122751,22.997603]]}},{"type":"Feature","properties":{"from":"\u81fa\u5357\u516c\u5712","name":"\u6a5812(\u8fd4\u7a0b)","public_transport:version":"2","ref":"\u6a5812","route":"bus","to":"\u9ebb\u8c46","type":"route"},"geometry":{"type":"LineString","coordinates":[[120.2122751,22.997603],[120.2119739,22.9975969],[120.2117832,22.9976462],[120.2115914,22.9976739],[120.2115028,22.9976448],[120.2114348,22.9976192],[120.2113762,22.9975758],[120.211274,22.9974909],[120.211253,22.9974282],[120.2112366,22.9973829]]}},{"type":"Feature","properties":{"from":"\u81fa\u5357\u516c\u5712","name":"\u6a5812(\u8fd4\u7a0b)","public_transport:version":"2","ref":"\u6a5812","route":"bus","to":"\u9ebb\u8c46","type":"route"},"geometry":{"type":"LineString","coordinates":[[120.2112366,22.9973829],[120.2112224,22.9973263]]}},{"type":"Feature","properties":{"from":"\u81fa\u5357\u516c\u5712","name":"\u6a5812(\u8fd4\u7a0b)","public_transport:version":"2","ref":"\u6a5812","route":"bus","to":"\u9ebb\u8c46","type":"route"},"geometry":{"type":"LineString","coordinates":[[120.2122751,22.997603],[120.2124005,22.9982391],[120.2124535,22.9985075],[120.2126009,22.999255],[120.2126525,22.9995165],[120.2127079,22.9997975],[120.2127411,22.9999659]]}},{"type":"Feature","properties":{"from":"\u81fa\u5357\u516c\u5712","name":"\u6a5812(\u8fd4\u7a0b)","public_transport:version":"2","ref":"\u6a5812","route":"bus","to":"\u9ebb\u8c46","type":"route"},"geometry":{"type":"LineString","coordinates":[[120.2127411,22.9999659],[120.2127492,23.0000177],[120.2127622,23.0000873],[120.213034,23.0015451],[120.2130526,23.0016447]]}},{"type":"Feature","properties":{"from":"\u81fa\u5357\u516c\u5712","name":"\u6a5812(\u8fd4\u7a0b)","public_transport:version":"2","ref":"\u6a5812","route":"bus","to":"\u9ebb\u8c46","type":"route"},"geometry":{"type":"LineString","coordinates":[[120.2130526,23.0016447],[120.2130812,23.0016473],[120.2131928,23.0016291]]}},{"type":"Feature","properties":{"from":"\u81fa\u5357\u516c\u5712","name":"\u6a5812(\u8fd4\u7a0b)","public_transport:version":"2","ref":"\u6a5812","route":"bus","to":"\u9ebb\u8c46","type":"route"},"geometry":{"type":"LineString","coordinates":[[120.2131928,23.0016291],[120.2143592,23.0014345]]}},{"type":"Feature","properties":{"from":"\u81fa\u5357\u516c\u5712","name":"\u6a5812(\u8fd4\u7a0b)","public_transport:version":"2","ref":"\u6a5812","route":"bus","to":"\u9ebb\u8c46","type":"route"},"geometry":{"type":"LineString","coordinates":[[120.2143592,23.0014345],[120.2144982,23.001377]]}},{"type":"Feature","properties":{"from":"\u81fa\u5357\u516c\u5712","name":"\u6a5812(\u8fd4\u7a0b)","public_transport:version":"2","ref":"\u6a5812","route":"bus","to":"\u9ebb\u8c46","type":"route"},"geometry":{"type":"LineString","coordinates":[[120.2144982,23.001377],[120.2146316,23.0013574],[120.2147469,23.0013397],[120.2159651,23.0011498],[120.2168377,23.0010582],[120.2170603,23.0010349],[120.2171366,23.0010272],[120.2184405,23.0008966],[120.2185401,23.0008856]]}},{"type":"Feature","properties":{"from":"\u81fa\u5357\u516c\u5712","name":"\u6a5812(\u8fd4\u7a0b)","public_transport:version":"2","ref":"\u6a5812","route":"bus","to":"\u9ebb\u8c46","type":"route"},"geometry":{"type":"LineString","coordinates":[[120.2185401,23.0008856],[120.2186698,23.000878],[120.2204938,23.0007491],[120.220552,23.000745],[120.2206887,23.0007354],[120.2221475,23.0006325],[120.2222247,23.0006269]]}},{"type":"Feature","properties":{"from":"\u81fa\u5357\u516c\u5712","name":"\u6a5812(\u8fd4\u7a0b)","public_transport:version":"2","ref":"\u6a5812","route":"bus","to":"\u9ebb\u8c46","type":"route"},"geometry":{"type":"LineString","coordinates":[[120.2222247,23.0006269],[120.2223068,23.0006208],[120.22243,23.0006116],[120.2243431,23.0004682],[120.2244566,23.0004597]]}},{"type":"Feature","properties":{"from":"\u81fa\u5357\u516c\u5712","name":"\u6a5812(\u8fd4\u7a0b)","public_transport:version":"2","ref":"\u6a5812","route":"bus","to":"\u9ebb\u8c46","type":"route"},"geometry":{"type":"LineString","coordinates":[[120.2244566,23.0004597],[120.2245961,23.0004553],[120.2247319,23.0004442],[120.224817,23.0004372],[120.2250107,23.0004267],[120.2252691,23.0004054],[120.2253867,23.0003991],[120.2256836,23.0003795],[120.2259709,23.0003543],[120.2262062,23.0003043],[120.2265414,23.0002122],[120.226593,23.0001983],[120.2266427,23.0001825],[120.2271171,23.0000313],[120.2278955,22.9997884],[120.2280927,22.9997265],[120.2282065,22.9996907],[120.2282764,22.9996687],[120.2290908,22.9994213],[120.2293509,22.9993423],[120.2293915,22.9993257],[120.230388,22.9990295],[120.2305713,22.998975],[120.2307606,22.9989121],[120.2308211,22.9988921],[120.2316677,22.9986568],[120.2317598,22.9986261],[120.2318425,22.9986186],[120.2332068,22.9984967],[120.2333049,22.9984877],[120.2333773,22.9984817],[120.2345108,22.9983842],[120.2346363,22.9983735],[120.2347582,22.9983606]]}},{"type":"Feature","properties":{"from":"\u81fa\u5357\u516c\u5712","name":"\u6a5812(\u8fd4\u7a0b)","public_transport:version":"2","ref":"\u6a5812","route":"bus","to":"\u9ebb\u8c46","type":"route"},"geometry":{"type":"LineString","coordinates":[[120.2347582,22.9983606],[120.2347942,22.998523],[120.2349075,22.9998411],[120.2349983,23.0006976],[120.2350436,23.0011256],[120.2351016,23.001672],[120.2351772,23.0023852],[120.2353031,23.0035732]]}},{"type":"Feature","properties":{"from":"\u81fa\u5357\u516c\u5712","name":"\u6a5812(\u8fd4\u7a0b)","public_transport:version":"2","ref":"\u6a5812","route":"bus","to":"\u9ebb\u8c46","type":"route"},"geometry":{"type":"LineString","coordinates":[[120.2353031,23.0035732],[120.2353824,23.0042174],[120.2354796,23.0050803],[120.2354809,23.0053235],[120.2354675,23.0055642],[120.2354273,23.0058111],[120.2353731,23.0060033],[120.235328,23.0061827],[120.2352784,23.0063345],[120.2352194,23.0065048],[120.2350841,23.0067715],[120.2349501,23.0069962],[120.2346441,23.0074479],[120.2339981,23.0084868],[120.233132,23.0098911],[120.2324742,23.0109181],[120.2317104,23.0120908],[120.2312383,23.0127968],[120.2308306,23.0134634]]}},{"type":"Feature","properties":{"from":"\u81fa\u5357\u516c\u5712","name":"\u6a5812(\u8fd4\u7a0b)","public_transport:version":"2","ref":"\u6a5812","route":"bus","to":"\u9ebb\u8c46","type":"route"},"geometry":{"type":"LineString","coordinates":[[120.2308306,23.0134634],[120.2305041,23.0139954],[120.2301049,23.0146219],[120.2300667,23.0146808],[120.2294105,23.0156939],[120.2288968,23.0163592],[120.228534,23.0168085],[120.2281857,23.0171531]]}},{"type":"Feature","properties":{"from":"\u81fa\u5357\u516c\u5712","name":"\u6a5812(\u8fd4\u7a0b)","public_transport:version":"2","ref":"\u6a5812","route":"bus","to":"\u9ebb\u8c46","type":"route"},"geometry":{"type":"LineString","coordinates":[[120.2281857,23.0171531],[120.2273236,23.0178713],[120.2270595,23.0180589],[120.2267765,23.0182391],[120.2258089,23.0188448],[120.2257528,23.0188704]]}},{"type":"Feature","properties":{"from":"\u81fa\u5357\u516c\u5712","name":"\u6a5812(\u8fd4\u7a0b)","public_transport:version":"2","ref":"\u6a5812","route":"bus","to":"\u9ebb\u8c46","type":"route"},"geometry":{"type":"LineString","coordinates":[[120.2257528,23.0188704],[120.224458,23.0196872],[120.222389,23.0209945]]}},{"type":"Feature","properties":{"from":"\u81fa\u5357\u516c\u5712","name":"\u6a5812(\u8fd4\u7a0b)","public_transport:version":"2","ref":"\u6a5812","route":"bus","to":"\u9ebb\u8c46","type":"route"},"geometry":{"type":"LineString","coordinates":[[120.222389,23.0209945],[120.2221208,23.021166],[120.2217889,23.0213801],[120.221634,23.0214795]]}},{"type":"Feature","properties":{"from":"\u81fa\u5357\u516c\u5712","name":"\u6a5812(\u8fd4\u7a0b)","public_transport:version":"2","ref":"\u6a5812","route":"bus","to":"\u9ebb\u8c46","type":"route"},"geometry":{"type":"LineString","coordinates":[[120.221634,23.0214795],[120.2213078,23.0216981],[120.2212639,23.0217276],[120.2194426,23.0228903]]}},{"type":"Feature","properties":{"from":"\u81fa\u5357\u516c\u5712","name":"\u6a5812(\u8fd4\u7a0b)","public_transport:version":"2","ref":"\u6a5812","route":"bus","to":"\u9ebb\u8c46","type":"route"},"geometry":{"type":"LineString","coordinates":[[120.2194426,23.0228903],[120.2195102,23.0229519],[120.2185991,23.023845]]}},{"type":"Feature","properties":{"from":"\u81fa\u5357\u516c\u5712","name":"\u6a5812(\u8fd4\u7a0b)","public_transport:version":"2","ref":"\u6a5812","route":"bus","to":"\u9ebb\u8c46","type":"route"},"geometry":{"type":"LineString","coordinates":[[120.2185991,23.023845],[120.2192361,23.0243857],[120.2201205,23.0252308],[120.2207529,23.0257939],[120.2214409,23.0264728],[120.2222375,23.0271578],[120.2232393,23.0281143],[120.224483,23.0292485]]}},{"type":"Feature","properties":{"from":"\u81fa\u5357\u516c\u5712","name":"\u6a5812(\u8fd4\u7a0b)","public_transport:version":"2","ref":"\u6a5812","route":"bus","to":"\u9ebb\u8c46","type":"route"},"geometry":{"type":"LineString","coordinates":[[120.224483,23.0292485],[120.2255824,23.0302698],[120.2260213,23.0306729],[120.2264601,23.0311445]]}},{"type":"Feature","properties":{"from":"\u81fa\u5357\u516c\u5712","name":"\u6a5812(\u8fd4\u7a0b)","public_transport:version":"2","ref":"\u6a5812","route":"bus","to":"\u9ebb\u8c46","type":"route"},"geometry":{"type":"LineString","coordinates":[[120.2264601,23.0311445],[120.2271155,23.0317768],[120.2272099,23.0318673],[120.2275162,23.0321526],[120.2281987,23.0328302],[120.2286178,23.0332223],[120.2295562,23.0343669],[120.2300095,23.0348803],[120.2305259,23.0353307],[120.2316735,23.036383],[120.2326715,23.037278],[120.2332046,23.03777],[120.2335711,23.038104],[120.2345509,23.0389565]]}},{"type":"Feature","properties":{"from":"\u81fa\u5357\u516c\u5712","name":"\u6a5812(\u8fd4\u7a0b)","public_transport:version":"2","ref":"\u6a5812","route":"bus","to":"\u9ebb\u8c46","type":"route"},"geometry":{"type":"LineString","coordinates":[[120.2345509,23.0389565],[120.2350739,23.0393946],[120.2365358,23.0406827],[120.236867,23.0409002],[120.2371781,23.0410594],[120.2374249,23.041168]]}},{"type":"Feature","properties":{"from":"\u81fa\u5357\u516c\u5712","name":"\u6a5812(\u8fd4\u7a0b)","public_transport:version":"2","ref":"\u6a5812","route":"bus","to":"\u9ebb\u8c46","type":"route"},"geometry":{"type":"LineString","coordinates":[[120.2374249,23.041168],[120.2378285,23.0412791],[120.2382818,23.0413717],[120.239042,23.0414225],[120.2397087,23.0414407],[120.2404577,23.0414592],[120.2422289,23.0415075]]}},{"type":"Feature","properties":{"from":"\u81fa\u5357\u516c\u5712","name":"\u6a5812(\u8fd4\u7a0b)","public_transport:version":"2","ref":"\u6a5812","route":"bus","to":"\u9ebb\u8c46","type":"route"},"geometry":{"type":"LineString","coordinates":[[120.2422289,23.0415075],[120.2441639,23.0415407],[120.2465149,23.0416591]]}},{"type":"Feature","properties":{"from":"\u81fa\u5357\u516c\u5712","name":"\u6a5812(\u8fd4\u7a0b)","public_transport:version":"2","ref":"\u6a5812","route":"bus","to":"\u9ebb\u8c46","type":"route"},"geometry":{"type":"LineString","coordinates":[[120.2465149,23.0416591],[120.2466037,23.0416648],[120.2474507,23.0416849],[120.2478999,23.0416955],[120.2494415,23.0417681],[120.2501388,23.0417858],[120.2519359,23.0418475]]}},{"type":"Feature","properties":{"from":"\u81fa\u5357\u516c\u5712","name":"\u6a5812(\u8fd4\u7a0b)","public_transport:version":"2","ref":"\u6a5812","route":"bus","to":"\u9ebb\u8c46","type":"route"},"geometry":{"type":"LineString","coordinates":[[120.2519359,23.0418475],[120.2531979,23.0418962],[120.2541319,23.0419336],[120.2547536,23.0419585]]}},{"type":"Feature","properties":{"from":"\u81fa\u5357\u516c\u5712","name":"\u6a5812(\u8fd4\u7a0b)","public_transport:version":"2","ref":"\u6a5812","route":"bus","to":"\u9ebb\u8c46","type":"route"},"geometry":{"type":"LineString","coordinates":[[120.2547536,23.0419585],[120.2563616,23.0420153],[120.2566851,23.0420484],[120.2571764,23.0421671],[120.2573846,23.0422443],[120.2576708,23.0423943],[120.2578564,23.0425094],[120.2592852,23.0436578]]}},{"type":"Feature","properties":{"from":"\u81fa\u5357\u516c\u5712","name":"\u6a5812(\u8fd4\u7a0b)","public_transport:version":"2","ref":"\u6a5812","route":"bus","to":"\u9ebb\u8c46","type":"route"},"geometry":{"type":"LineString","coordinates":[[120.2592852,23.0436578],[120.2605982,23.0447448],[120.2617921,23.0457343],[120.2627469,23.0465321]]}},{"type":"Feature","properties":{"from":"\u81fa\u5357\u516c\u5712","name":"\u6a5812(\u8fd4\u7a0b)","public_transport:version":"2","ref":"\u6a5812","route":"bus","to":"\u9ebb\u8c46","type":"route"},"geometry":{"type":"LineString","coordinates":[[120.2627469,23.0465321],[120.2644194,23.0478634]]}},{"type":"Feature","properties":{"from":"\u81fa\u5357\u516c\u5712","name":"\u6a5812(\u8fd4\u7a0b)","public_transport:version":"2","ref":"\u6a5812","route":"bus","to":"\u9ebb\u8c46","type":"route"},"geometry":{"type":"LineString","coordinates":[[120.2644194,23.0478634],[120.2660007,23.0491779],[120.2682101,23.0509722],[120.2682422,23.0509983],[120.2714426,23.0535752]]}},{"type":"Feature","properties":{"from":"\u81fa\u5357\u516c\u5712","name":"\u6a5812(\u8fd4\u7a0b)","public_transport:version":"2","ref":"\u6a5812","route":"bus","to":"\u9ebb\u8c46","type":"route"},"geometry":{"type":"LineString","coordinates":[[120.2714426,23.0535752],[120.2720677,23.0540789],[120.2739675,23.0556526],[120.2763802,23.0576174]]}},{"type":"Feature","properties":{"from":"\u81fa\u5357\u516c\u5712","name":"\u6a5812(\u8fd4\u7a0b)","public_transport:version":"2","ref":"\u6a5812","route":"bus","to":"\u9ebb\u8c46","type":"route"},"geometry":{"type":"LineString","coordinates":[[120.2763802,23.0576174],[120.2773687,23.0583941],[120.2778622,23.0587914],[120.2783634,23.0592275]]}},{"type":"Feature","properties":{"from":"\u81fa\u5357\u516c\u5712","name":"\u6a5812(\u8fd4\u7a0b)","public_transport:version":"2","ref":"\u6a5812","route":"bus","to":"\u9ebb\u8c46","type":"route"},"geometry":{"type":"LineString","coordinates":[[120.2783634,23.0592275],[120.2789636,23.0597053],[120.2791889,23.0598781],[120.2797173,23.0602976],[120.2814835,23.0618132],[120.2818798,23.0621794],[120.2819643,23.0622503],[120.2828018,23.0630123],[120.2830432,23.0632319],[120.2832879,23.063446],[120.2834516,23.0635546],[120.2836514,23.0636632],[120.2839216,23.0637489],[120.2842066,23.0638063]]}},{"type":"Feature","properties":{"from":"\u81fa\u5357\u516c\u5712","name":"\u6a5812(\u8fd4\u7a0b)","public_transport:version":"2","ref":"\u6a5812","route":"bus","to":"\u9ebb\u8c46","type":"route"},"geometry":{"type":"LineString","coordinates":[[120.2842066,23.0638063],[120.2845218,23.0638939],[120.2848678,23.0639556],[120.2853372,23.0640407],[120.2858065,23.0641654]]}},{"type":"Feature","properties":{"from":"\u81fa\u5357\u516c\u5712","name":"\u6a5812(\u8fd4\u7a0b)","public_transport:version":"2","ref":"\u6a5812","route":"bus","to":"\u9ebb\u8c46","type":"route"},"geometry":{"type":"LineString","coordinates":[[120.2858065,23.0641654],[120.2862466,23.0643271],[120.2865742,23.0644964],[120.2868526,23.06467],[120.2873046,23.0649946],[120.2887511,23.0660302],[120.2889729,23.0661976],[120.2905011,23.0673232],[120.2907425,23.0674997]]}},{"type":"Feature","properties":{"from":"\u81fa\u5357\u516c\u5712","name":"\u6a5812(\u8fd4\u7a0b)","public_transport:version":"2","ref":"\u6a5812","route":"bus","to":"\u9ebb\u8c46","type":"route"},"geometry":{"type":"LineString","coordinates":[[120.2907425,23.0674997],[120.2908149,23.0675441]]}},{"type":"Feature","properties":{"from":"\u81fa\u5357\u516c\u5712","name":"\u6a5812(\u8fd4\u7a0b)","public_transport:version":"2","ref":"\u6a5812","route":"bus","to":"\u9ebb\u8c46","type":"route"},"geometry":{"type":"LineString","coordinates":[[120.2908149,23.0675441],[120.2906828,23.0676181]]}},{"type":"Feature","properties":{"from":"\u81fa\u5357\u516c\u5712","name":"\u6a5812(\u8fd4\u7a0b)","public_transport:version":"2","ref":"\u6a5812","route":"bus","to":"\u9ebb\u8c46","type":"route"},"geometry":{"type":"LineString","coordinates":[[120.2906828,23.0676181],[120.2902584,23.0680005]]}},{"type":"Feature","properties":{"from":"\u81fa\u5357\u516c\u5712","name":"\u6a5812(\u8fd4\u7a0b)","public_transport:version":"2","ref":"\u6a5812","route":"bus","to":"\u9ebb\u8c46","type":"route"},"geometry":{"type":"LineString","coordinates":[[120.2902584,23.0680005],[120.290274,23.0680365],[120.2902736,23.0680754],[120.290257,23.068111],[120.2902268,23.0681382],[120.2901876,23.0681526],[120.2901455,23.0681521],[120.2901067,23.0681369],[120.2900772,23.0681091],[120.2900615,23.0680731],[120.290062,23.0680343],[120.2900786,23.0679986],[120.2901088,23.0679715],[120.2901479,23.0679571],[120.2901901,23.0679575],[120.2902289,23.0679728],[120.2902584,23.0680005]]}},{"type":"Feature","properties":{"from":"\u81fa\u5357\u516c\u5712","name":"\u6a5812(\u8fd4\u7a0b)","public_transport:version":"2","ref":"\u6a5812","route":"bus","to":"\u9ebb\u8c46","type":"route"},"geometry":{"type":"LineString","coordinates":[[120.2914084,23.0686767],[120.2902584,23.0680005]]}},{"type":"Feature","properties":{"from":"\u81fa\u5357\u516c\u5712","name":"\u6a5812(\u8fd4\u7a0b)","public_transport:version":"2","ref":"\u6a5812","route":"bus","to":"\u9ebb\u8c46","type":"route"},"geometry":{"type":"LineString","coordinates":[[120.2923461,23.0701572],[120.2914084,23.0686767]]}},{"type":"Feature","properties":{"from":"\u81fa\u5357\u516c\u5712","name":"\u6a5812(\u8fd4\u7a0b)","public_transport:version":"2","ref":"\u6a5812","route":"bus","to":"\u9ebb\u8c46","type":"route"},"geometry":{"type":"LineString","coordinates":[[120.2922936,23.0704232],[120.2922998,23.0703793],[120.2923109,23.0702999],[120.2923461,23.0701572]]}},{"type":"Feature","properties":{"from":"\u81fa\u5357\u516c\u5712","name":"\u6a5812(\u8fd4\u7a0b)","public_transport:version":"2","ref":"\u6a5812","route":"bus","to":"\u9ebb\u8c46","type":"route"},"geometry":{"type":"LineString","coordinates":[[120.2919029,23.0780216],[120.2918744,23.0778368],[120.2918041,23.0772638],[120.2917438,23.0767723],[120.2915858,23.0758535],[120.2914406,23.0747837],[120.291348,23.074184],[120.2913426,23.0741309],[120.2913359,23.0737473],[120.2913413,23.0736436],[120.2914231,23.0732537],[120.2916042,23.0726331],[120.2918013,23.0719903],[120.2919139,23.0716037],[120.2922936,23.0704232]]}},{"type":"Feature","properties":{"from":"\u81fa\u5357\u516c\u5712","name":"\u6a5812(\u8fd4\u7a0b)","public_transport:version":"2","ref":"\u6a5812","route":"bus","to":"\u9ebb\u8c46","type":"route"},"geometry":{"type":"LineString","coordinates":[[120.2919029,23.0780216],[120.291979,23.0781832],[120.292047,23.0785211],[120.2921,23.0786562],[120.2921731,23.0787321],[120.2922361,23.0787932],[120.2923682,23.0788567],[120.2925064,23.0789116],[120.2932247,23.0791941],[120.293366,23.0792497],[120.2936858,23.0793681],[120.2943992,23.0796322],[120.2953204,23.0799754],[120.2954336,23.080073]]}},{"type":"Feature","properties":{"from":"\u81fa\u5357\u516c\u5712","name":"\u6a5812(\u8fd4\u7a0b)","public_transport:version":"2","ref":"\u6a5812","route":"bus","to":"\u9ebb\u8c46","type":"route"},"geometry":{"type":"LineString","coordinates":[[120.2954336,23.080073],[120.2954763,23.0802239],[120.295468,23.0814563],[120.2954616,23.0819633],[120.2954572,23.0825812],[120.2954018,23.0837199],[120.2953731,23.0858287]]}},{"type":"Feature","properties":{"from":"\u81fa\u5357\u516c\u5712","name":"\u6a5812(\u8fd4\u7a0b)","public_transport:version":"2","ref":"\u6a5812","route":"bus","to":"\u9ebb\u8c46","type":"route"},"geometry":{"type":"LineString","coordinates":[[120.2953731,23.0858287],[120.2953643,23.0860043],[120.2952908,23.0874947],[120.2952535,23.0888058],[120.2952386,23.0894625],[120.2952256,23.0901566],[120.2952247,23.0902325],[120.2951782,23.0915321],[120.2951655,23.0924513],[120.2951634,23.0929533],[120.29515,23.0933616],[120.2950964,23.0942597],[120.2950688,23.0950208],[120.2949985,23.0972833],[120.2949046,23.0999133],[120.2949033,23.1002044],[120.2948039,23.1036281],[120.294796,23.1037296],[120.2947306,23.1061704]]}},{"type":"Feature","properties":{"from":"\u81fa\u5357\u516c\u5712","name":"\u6a5812(\u8fd4\u7a0b)","public_transport:version":"2","ref":"\u6a5812","route":"bus","to":"\u9ebb\u8c46","type":"route"},"geometry":{"type":"LineString","coordinates":[[120.2947296,23.1062979],[120.2946267,23.1062581]]}},{"type":"Feature","properties":{"from":"\u81fa\u5357\u516c\u5712","name":"\u6a5812(\u8fd4\u7a0b)","public_transport:version":"2","ref":"\u6a5812","route":"bus","to":"\u9ebb\u8c46","type":"route"},"geometry":{"type":"LineString","coordinates":[[120.2946267,23.1062581],[120.2936386,23.1059141],[120.2922482,23.1053818],[120.2909671,23.1048532],[120.28939,23.1043105]]}},{"type":"Feature","properties":{"from":"\u81fa\u5357\u516c\u5712","name":"\u6a5812(\u8fd4\u7a0b)","public_transport:version":"2","ref":"\u6a5812","route":"bus","to":"\u9ebb\u8c46","type":"route"},"geometry":{"type":"LineString","coordinates":[[120.28939,23.1043105],[120.2894329,23.1041674]]}},{"type":"Feature","properties":{"from":"\u81fa\u5357\u516c\u5712","name":"\u6a5812(\u8fd4\u7a0b)","public_transport:version":"2","ref":"\u6a5812","route":"bus","to":"\u9ebb\u8c46","type":"route"},"geometry":{"type":"LineString","coordinates":[[120.2894329,23.1041674],[120.2905138,23.1045251],[120.2910314,23.1047196],[120.2923672,23.105285],[120.294616,23.1061257]]}},{"type":"Feature","properties":{"from":"\u81fa\u5357\u516c\u5712","name":"\u6a5812(\u8fd4\u7a0b)","public_transport:version":"2","ref":"\u6a5812","route":"bus","to":"\u9ebb\u8c46","type":"route"},"geometry":{"type":"LineString","coordinates":[[120.294616,23.1061257],[120.2947306,23.1061704]]}},{"type":"Feature","properties":{"from":"\u81fa\u5357\u516c\u5712","name":"\u6a5812(\u8fd4\u7a0b)","public_transport:version":"2","ref":"\u6a5812","route":"bus","to":"\u9ebb\u8c46","type":"route"},"geometry":{"type":"LineString","coordinates":[[120.2947306,23.1061704],[120.2947296,23.1062979],[120.2945403,23.1134933],[120.2944818,23.1148022],[120.2944325,23.1165087],[120.2943844,23.1181914],[120.2943569,23.1188758],[120.2943473,23.1189847]]}},{"type":"Feature","properties":{"from":"\u81fa\u5357\u516c\u5712","name":"\u6a5812(\u8fd4\u7a0b)","public_transport:version":"2","ref":"\u6a5812","route":"bus","to":"\u9ebb\u8c46","type":"route"},"geometry":{"type":"LineString","coordinates":[[120.2943473,23.1189847],[120.2943293,23.1202685]]}},{"type":"Feature","properties":{"from":"\u81fa\u5357\u516c\u5712","name":"\u6a5812(\u8fd4\u7a0b)","public_transport:version":"2","ref":"\u6a5812","route":"bus","to":"\u9ebb\u8c46","type":"route"},"geometry":{"type":"LineString","coordinates":[[120.2943293,23.1202685],[120.2943427,23.1207175],[120.2943309,23.1209971]]}},{"type":"Feature","properties":{"from":"\u81fa\u5357\u516c\u5712","name":"\u6a5812(\u8fd4\u7a0b)","public_transport:version":"2","ref":"\u6a5812","route":"bus","to":"\u9ebb\u8c46","type":"route"},"geometry":{"type":"LineString","coordinates":[[120.2943309,23.1209971],[120.2943199,23.121259],[120.2942837,23.1215784],[120.2942609,23.1227612]]}},{"type":"Feature","properties":{"from":"\u81fa\u5357\u516c\u5712","name":"\u6a5812(\u8fd4\u7a0b)","public_transport:version":"2","ref":"\u6a5812","route":"bus","to":"\u9ebb\u8c46","type":"route"},"geometry":{"type":"LineString","coordinates":[[120.2942609,23.1227612],[120.2942672,23.123155],[120.2941834,23.1233153]]}},{"type":"Feature","properties":{"from":"\u81fa\u5357\u516c\u5712","name":"\u6a5812(\u8fd4\u7a0b)","public_transport:version":"2","ref":"\u6a5812","route":"bus","to":"\u9ebb\u8c46","type":"route"},"geometry":{"type":"LineString","coordinates":[[120.2940061,23.1291154],[120.2940302,23.1284759],[120.2940398,23.1278325],[120.2940411,23.1273207],[120.2940597,23.1267696],[120.2940932,23.1259679],[120.2940919,23.1257841],[120.2940946,23.1255856],[120.294116,23.1249849],[120.2941442,23.1241339],[120.2941834,23.1233153]]}},{"type":"Feature","properties":{"from":"\u81fa\u5357\u516c\u5712","name":"\u6a5812(\u8fd4\u7a0b)","public_transport:version":"2","ref":"\u6a5812","route":"bus","to":"\u9ebb\u8c46","type":"route"},"geometry":{"type":"LineString","coordinates":[[120.297059,23.1295311],[120.2969493,23.1295152],[120.2961464,23.1293938],[120.2956011,23.1293193],[120.2949438,23.1292239],[120.2941873,23.129114],[120.2940061,23.1291154]]}},{"type":"Feature","properties":{"from":"\u81fa\u5357\u516c\u5712","name":"\u6a5812(\u8fd4\u7a0b)","public_transport:version":"2","ref":"\u6a5812","route":"bus","to":"\u9ebb\u8c46","type":"route"},"geometry":{"type":"LineString","coordinates":[[120.297059,23.1295311],[120.2983436,23.1297228],[120.2996188,23.1299131]]}},{"type":"Feature","properties":{"from":"\u81fa\u5357\u516c\u5712","name":"\u6a5812(\u8fd4\u7a0b)","public_transport:version":"2","ref":"\u6a5812","route":"bus","to":"\u9ebb\u8c46","type":"route"},"geometry":{"type":"LineString","coordinates":[[120.2996188,23.1299131],[120.2999379,23.1299618],[120.3009005,23.1301089],[120.3021431,23.1302987]]}},{"type":"Feature","properties":{"from":"\u81fa\u5357\u516c\u5712","name":"\u6a5812(\u8fd4\u7a0b)","public_transport:version":"2","ref":"\u6a5812","route":"bus","to":"\u9ebb\u8c46","type":"route"},"geometry":{"type":"LineString","coordinates":[[120.3021341,23.1303787],[120.3021431,23.1302987]]}},{"type":"Feature","properties":{"from":"\u81fa\u5357\u516c\u5712","name":"\u6a5812(\u8fd4\u7a0b)","public_transport:version":"2","ref":"\u6a5812","route":"bus","to":"\u9ebb\u8c46","type":"route"},"geometry":{"type":"LineString","coordinates":[[120.3021341,23.1303787],[120.3020104,23.1310802],[120.3018793,23.1318235],[120.3017478,23.1325693]]}},{"type":"Feature","properties":{"from":"\u81fa\u5357\u516c\u5712","name":"\u6a5812(\u8fd4\u7a0b)","public_transport:version":"2","ref":"\u6a5812","route":"bus","to":"\u9ebb\u8c46","type":"route"},"geometry":{"type":"LineString","coordinates":[[120.3056726,23.133147],[120.3050258,23.1330518],[120.3043557,23.1329531],[120.3042067,23.1329312],[120.3030146,23.1327559],[120.3017478,23.1325693]]}},{"type":"Feature","properties":{"from":"\u81fa\u5357\u516c\u5712","name":"\u6a5812(\u8fd4\u7a0b)","public_transport:version":"2","ref":"\u6a5812","route":"bus","to":"\u9ebb\u8c46","type":"route"},"geometry":{"type":"LineString","coordinates":[[120.3056726,23.133147],[120.305836,23.1331541],[120.3059889,23.1331628],[120.306127,23.1331899],[120.3062021,23.1332183],[120.3062303,23.1332676],[120.3062518,23.133333],[120.3062571,23.1333798],[120.3062088,23.1334144],[120.3057985,23.133481],[120.3056577,23.1334608]]}},{"type":"Feature","properties":{"from":"\u81fa\u5357\u516c\u5712","name":"\u6a5812(\u8fd4\u7a0b)","public_transport:version":"2","ref":"\u6a5812","route":"bus","to":"\u9ebb\u8c46","type":"route"},"geometry":{"type":"LineString","coordinates":[[120.2966132,23.1321061],[120.2978892,23.1322972],[120.299161,23.1324875],[120.3004392,23.1326792],[120.3016986,23.1328678],[120.3029614,23.133057],[120.3033835,23.1331202],[120.3041522,23.1332353],[120.3045881,23.1333006],[120.3056577,23.1334608]]}},{"type":"Feature","properties":{"from":"\u81fa\u5357\u516c\u5712","name":"\u6a5812(\u8fd4\u7a0b)","public_transport:version":"2","ref":"\u6a5812","route":"bus","to":"\u9ebb\u8c46","type":"route"},"geometry":{"type":"LineString","coordinates":[[120.2938735,23.1321386],[120.2951098,23.1320662],[120.2959362,23.1320164],[120.2961287,23.1320285],[120.2964982,23.1320865],[120.2966132,23.1321061]]}},{"type":"Feature","properties":{"from":"\u81fa\u5357\u516c\u5712","name":"\u6a5812(\u8fd4\u7a0b)","public_transport:version":"2","ref":"\u6a5812","route":"bus","to":"\u9ebb\u8c46","type":"route"},"geometry":{"type":"LineString","coordinates":[[120.2883447,23.1326547],[120.2894071,23.1325012],[120.2899258,23.1324374],[120.2905221,23.1323773],[120.2907849,23.1323427],[120.2911014,23.1323033],[120.2914501,23.1322675],[120.291894,23.1322441],[120.2928516,23.1321997],[120.2938735,23.1321386]]}},{"type":"Feature","properties":{"from":"\u81fa\u5357\u516c\u5712","name":"\u6a5812(\u8fd4\u7a0b)","public_transport:version":"2","ref":"\u6a5812","route":"bus","to":"\u9ebb\u8c46","type":"route"},"geometry":{"type":"LineString","coordinates":[[120.2892093,23.1351851],[120.2892064,23.1350516],[120.2892005,23.1347799],[120.2891938,23.1346246],[120.2891984,23.1345774],[120.2889824,23.13433],[120.2889155,23.1342066],[120.2885974,23.1337999],[120.2885265,23.1333824],[120.2883447,23.1326547]]}},{"type":"Feature","properties":{"from":"\u81fa\u5357\u516c\u5712","name":"\u6a5812(\u8fd4\u7a0b)","public_transport:version":"2","ref":"\u6a5812","route":"bus","to":"\u9ebb\u8c46","type":"route"},"geometry":{"type":"LineString","coordinates":[[120.2892093,23.1351851],[120.2892477,23.1352922],[120.2891861,23.135657],[120.2886486,23.137541],[120.2886274,23.1376256],[120.2883887,23.1385614]]}},{"type":"Feature","properties":{"from":"\u81fa\u5357\u516c\u5712","name":"\u6a5812(\u8fd4\u7a0b)","public_transport:version":"2","ref":"\u6a5812","route":"bus","to":"\u9ebb\u8c46","type":"route"},"geometry":{"type":"LineString","coordinates":[[120.2883887,23.1385614],[120.2883643,23.1388869]]}},{"type":"Feature","properties":{"from":"\u81fa\u5357\u516c\u5712","name":"\u6a5812(\u8fd4\u7a0b)","public_transport:version":"2","ref":"\u6a5812","route":"bus","to":"\u9ebb\u8c46","type":"route"},"geometry":{"type":"LineString","coordinates":[[120.2883643,23.1388869],[120.2883763,23.1398032],[120.2883176,23.1404236],[120.2882842,23.1409433],[120.2882336,23.1416118],[120.2882036,23.1423377],[120.288148,23.1455724],[120.2881438,23.1466851],[120.2881329,23.1472259],[120.2881107,23.1476519],[120.2880598,23.1480194],[120.2877898,23.1493667],[120.2871405,23.1524987],[120.2870305,23.1530265]]}},{"type":"Feature","properties":{"from":"\u81fa\u5357\u516c\u5712","name":"\u6a5812(\u8fd4\u7a0b)","public_transport:version":"2","ref":"\u6a5812","route":"bus","to":"\u9ebb\u8c46","type":"route"},"geometry":{"type":"LineString","coordinates":[[120.2870305,23.1530265],[120.2868991,23.1536825],[120.2867945,23.1539661],[120.2866248,23.154143],[120.2864666,23.1542441],[120.285273,23.1549914],[120.2842591,23.1556572],[120.2825371,23.1567423],[120.2791151,23.1589591],[120.277275,23.1600738],[120.2752564,23.1614087],[120.2751352,23.1614934],[120.273942,23.1622639],[120.2711568,23.1640428],[120.2699972,23.164796],[120.2672701,23.1665622],[120.2668246,23.1668579]]}},{"type":"Feature","properties":{"from":"\u81fa\u5357\u516c\u5712","name":"\u6a5812(\u8fd4\u7a0b)","public_transport:version":"2","ref":"\u6a5812","route":"bus","to":"\u9ebb\u8c46","type":"route"},"geometry":{"type":"LineString","coordinates":[[120.2668246,23.1668579],[120.256978,23.1741522],[120.2557898,23.1752515]]}},{"type":"Feature","properties":{"from":"\u81fa\u5357\u516c\u5712","name":"\u6a5812(\u8fd4\u7a0b)","public_transport:version":"2","ref":"\u6a5812","route":"bus","to":"\u9ebb\u8c46","type":"route"},"geometry":{"type":"LineString","coordinates":[[120.2557898,23.1752515],[120.2556034,23.1754236],[120.2539444,23.1769466],[120.2538586,23.177011],[120.2536574,23.1771257]]}},{"type":"Feature","properties":{"from":"\u81fa\u5357\u516c\u5712","name":"\u6a5812(\u8fd4\u7a0b)","public_transport:version":"2","ref":"\u6a5812","route":"bus","to":"\u9ebb\u8c46","type":"route"},"geometry":{"type":"LineString","coordinates":[[120.2536574,23.1771257],[120.2535582,23.1772256],[120.2534796,23.1773113],[120.2534106,23.177382],[120.253228,23.1775669],[120.2531362,23.1776641],[120.2529421,23.1778541],[120.2525,23.1784089],[120.2522104,23.1788392],[120.2518845,23.1793089],[120.2517343,23.1796048],[120.2516686,23.1798119],[120.2516216,23.1800203],[120.2515894,23.1803605],[120.2515559,23.1807846],[120.2515197,23.1813455],[120.2514768,23.1818829],[120.2514769,23.1830811],[120.2514607,23.1836832]]}},{"type":"Feature","properties":{"from":"\u81fa\u5357\u516c\u5712","name":"\u6a5812(\u8fd4\u7a0b)","public_transport:version":"2","ref":"\u6a5812","route":"bus","to":"\u9ebb\u8c46","type":"route"},"geometry":{"type":"LineString","coordinates":[[120.2514607,23.1836832],[120.2508652,23.1836841],[120.2497767,23.1836889],[120.2496836,23.1836893],[120.2490695,23.1836893],[120.2484526,23.1836918]]}},{"type":"Feature","properties":{"from":"\u81fa\u5357\u516c\u5712","name":"\u6a5812(\u8fd4\u7a0b)","public_transport:version":"2","ref":"\u6a5812","route":"bus","to":"\u9ebb\u8c46","type":"route"},"geometry":{"type":"LineString","coordinates":[[120.2484526,23.1836918],[120.2471988,23.1837058],[120.2457479,23.18369],[120.2448034,23.1836843],[120.2442583,23.1836776],[120.2442026,23.1836843],[120.2440524,23.1837273],[120.2432585,23.184092],[120.2426376,23.1843809],[120.2422433,23.184572],[120.2420113,23.1846694],[120.2416042,23.1848573]]}},{"type":"Feature","properties":{"from":"\u81fa\u5357\u516c\u5712","name":"\u6a5812(\u8fd4\u7a0b)","public_transport:version":"2","ref":"\u6a5812","route":"bus","to":"\u9ebb\u8c46","type":"route"},"geometry":{"type":"LineString","coordinates":[[120.2416042,23.1848573],[120.2414181,23.1849447],[120.2411218,23.18512]]}},{"type":"Feature","properties":{"from":"\u81fa\u5357\u516c\u5712","name":"\u6a5812(\u8fd4\u7a0b)","public_transport:version":"2","ref":"\u6a5812","route":"bus","to":"\u9ebb\u8c46","type":"route"},"geometry":{"type":"LineString","coordinates":[[120.2411218,23.18512],[120.241007,23.1851948]]}},{"type":"Feature","properties":{"from":"\u81fa\u5357\u516c\u5712","name":"\u6a5812(\u8fd4\u7a0b)","public_transport:version":"2","ref":"\u6a5812","route":"bus","to":"\u9ebb\u8c46","type":"route"},"geometry":{"type":"LineString","coordinates":[[120.241007,23.1851948],[120.2407574,23.1850678],[120.2405842,23.1849836]]}},{"type":"Feature","properties":{"from":"\u81fa\u5357\u516c\u5712","name":"\u6a5812(\u8fd4\u7a0b)","public_transport:version":"2","ref":"\u6a5812","route":"bus","to":"\u9ebb\u8c46","type":"route"},"geometry":{"type":"LineString","coordinates":[[120.2405842,23.1849836],[120.2397373,23.1845578]]}},{"type":"Feature","properties":{"from":"\u81fa\u5357\u516c\u5712","name":"\u6a5812(\u8fd4\u7a0b)","public_transport:version":"2","ref":"\u6a5812","route":"bus","to":"\u9ebb\u8c46","type":"route"},"geometry":{"type":"LineString","coordinates":[[120.2397373,23.1845578],[120.2394137,23.185036],[120.239287,23.1851348]]}},{"type":"Feature","properties":{"from":"\u81fa\u5357\u516c\u5712","name":"\u6a5812(\u8fd4\u7a0b)","public_transport:version":"2","ref":"\u6a5812","route":"bus","to":"\u9ebb\u8c46","type":"route"},"geometry":{"type":"LineString","coordinates":[[120.239287,23.1851348],[120.238961,23.1850823]]}},{"type":"Feature","properties":{"from":"\u81fa\u5357\u516c\u5712","name":"\u6a5812(\u8fd4\u7a0b)","public_transport:version":"2","ref":"\u6a5812","route":"bus","to":"\u9ebb\u8c46","type":"route"},"geometry":{"type":"LineString","coordinates":[[120.238961,23.1850823],[120.2388937,23.1854068]]}}]}