{"type":"FeatureCollection","features":[{"type":"Feature","properties":{"bus":"yes","highway":"bus_stop","name":"\u95dc\u5edf\u8f49\u904b\u7ad9","network":"\u81fa\u5357\u5e02\u516c\u8eca","note":"\u5f80\u7a0b","operator":"\u81fa\u5357\u5e02\u516c\u8eca","public_transport":"platform","ref":"3304"},"geometry":{"type":"Point","coordinates":[120.3370886,22.9635961]}},{"type":"Feature","properties":{"bus":"yes","highway":"bus_stop","name":"\u5317\u52e2\u91cc\u6d3b\u52d5\u4e2d\u5fc3","network":"\u81fa\u5357\u5e02\u516c\u8eca","note":"\u8208\u5357\u5ba2\u904b","operator":"\u81fa\u5357\u5e02\u516c\u8eca","public_transport":"platform","ref":"3349"},"geometry":{"type":"Point","coordinates":[120.3321335,22.964249]}},{"type":"Feature","properties":{"bus":"yes","highway":"bus_stop","name":"\u95dc\u5edf\u516c\u6240","network":"\u81fa\u5357\u5e02\u516c\u8eca","note":"\u8208\u5357\u5ba2\u904b","operator":"\u81fa\u5357\u5e02\u516c\u8eca","public_transport":"platform"},"geometry":{"type":"Point","coordinates":[120.3277318,22.9626044]}},{"type":"Feature","properties":{"bus":"yes","highway":"bus_stop","name":"\u5317\u52e2\u91cc","network":"\u81fa\u5357\u5e02\u516c\u8eca","note":"\u8208\u5357\u5ba2\u904b","operator":"\u81fa\u5357\u5e02\u516c\u8eca","public_transport":"platform","ref":"3302"},"geometry":{"type":"Point","coordinates":[120.3307501,22.9617242]}},{"type":"Feature","properties":{"bus":"yes","highway":"bus_stop","name":"\u5f97\u7389\u8208\u66f8\u5c40","network":"\u81fa\u5357\u5e02\u516c\u8eca","note":"\u8208\u5357\u5ba2\u904b","operator":"\u81fa\u5357\u5e02\u516c\u8eca","public_transport":"platform"},"geometry":{"type":"Point","coordinates":[120.3291591,22.9596156]}},{"type":"Feature","properties":{"bus":"yes","highway":"bus_stop","name":"\u4e2d\u5c71\u8def","network":"\u81fa\u5357\u5e02\u516c\u8eca","note":"\u8208\u5357\u5ba2\u904b","operator":"\u81fa\u5357\u5e02\u516c\u8eca","public_transport":"platform"},"geometry":{"type":"Point","coordinates":[120.3280675,22.9599302]}},{"type":"Feature","properties":{"bus":"yes","highway":"bus_stop","name":"\u95dc\u5edf\u570b\u4e2d","network":"\u81fa\u5357\u5e02\u516c\u8eca","note":"\u8208\u5357\u5ba2\u904b","operator":"\u81fa\u5357\u5e02\u516c\u8eca","public_transport":"platform","ref":"1534"},"geometry":{"type":"Point","coordinates":[120.3249486,22.9605263]}},{"type":"Feature","properties":{"bus":"yes","highway":"bus_stop","name":"\u5927\u4e9e\u516c\u53f8","network":"\u81fa\u5357\u5e02\u516c\u8eca","note":"\u8208\u5357\u5ba2\u904b","operator":"\u81fa\u5357\u5e02\u516c\u8eca","public_transport":"platform"},"geometry":{"type":"Point","coordinates":[120.3170077,22.9618912]}},{"type":"Feature","properties":{"bus":"yes","highway":"bus_stop","name":"\u6b78\u4ec1\u4ea4\u6d41\u9053","network":"\u81fa\u5357\u5e02\u516c\u8eca","note":"\u8208\u5357\u5ba2\u904b","operator":"\u81fa\u5357\u5e02\u516c\u8eca","public_transport":"platform"},"geometry":{"type":"Point","coordinates":[120.3127512,22.9629167]}},{"type":"Feature","properties":{"bus":"yes","highway":"bus_stop","name":"\u4fee\u5143\u5802","network":"\u81fa\u5357\u5e02\u516c\u8eca","note":"\u8208\u5357\u5ba2\u904b","operator":"\u81fa\u5357\u5e02\u516c\u8eca","public_transport":"platform"},"geometry":{"type":"Point","coordinates":[120.30706,22.9645641]}},{"type":"Feature","properties":{"bus":"yes","highway":"bus_stop","name":"\u770b\u6771\u91cc","network":"\u81fa\u5357\u5e02\u516c\u8eca","note":"\u8208\u5357\u5ba2\u904b","operator":"\u81fa\u5357\u5e02\u516c\u8eca","public_transport":"platform"},"geometry":{"type":"Point","coordinates":[120.3036817,22.9656217]}},{"type":"Feature","properties":{"bus":"yes","highway":"bus_stop","name":"\u5584\u5316\u5bfa","network":"\u81fa\u5357\u5e02\u516c\u8eca","note":"\u8208\u5357\u5ba2\u904b","operator":"\u81fa\u5357\u5e02\u516c\u8eca","public_transport":"platform"},"geometry":{"type":"Point","coordinates":[120.300945,22.9660644]}},{"type":"Feature","properties":{"bus":"yes","highway":"bus_stop","name":"\u6b78\u4ec1\u6587\u5316\u4e2d\u5fc3","network":"\u81fa\u5357\u5e02\u516c\u8eca","operator":"\u81fa\u5357\u5e02\u516c\u8eca","public_transport":"platform","ref":"8943"},"geometry":{"type":"Point","coordinates":[120.298284,22.9663629]}},{"type":"Feature","properties":{"bus":"yes","highway":"bus_stop","name":"\u6b78\u4ec1\u5e02\u5834","network":"\u81fa\u5357\u5e02\u516c\u8eca","operator":"\u81fa\u5357\u5e02\u516c\u8eca","public_transport":"platform"},"geometry":{"type":"Point","coordinates":[120.296024,22.9666465]}},{"type":"Feature","properties":{"bus":"yes","highway":"bus_stop","name":"\u6b78\u4ec1\u516c\u6240","name:en":"Gueiren District Office","name:zh":"\u6b78\u4ec1\u516c\u6240","network":"\u81fa\u5357\u5e02\u516c\u8eca","operator":"\u81fa\u5357\u5e02\u516c\u8eca","public_transport":"platform","ref":"1541"},"geometry":{"type":"Point","coordinates":[120.2936278,22.9669047]}},{"type":"Feature","properties":{"bus":"yes","highway":"bus_stop","name":"\u5f8c\u5e02","network":"\u81fa\u5357\u5e02\u516c\u8eca","note":"\u8208\u5357\u5ba2\u904b","operator":"\u81fa\u5357\u5e02\u516c\u8eca","public_transport":"platform"},"geometry":{"type":"Point","coordinates":[120.2892983,22.96734]}},{"type":"Feature","properties":{"bus":"yes","highway":"bus_stop","name":"\u59d3\u674e\u4ed4","network":"\u81fa\u5357\u5e02\u516c\u8eca","note":"\u8208\u5357\u5ba2\u904b","operator":"\u81fa\u5357\u5e02\u516c\u8eca","public_transport":"platform"},"geometry":{"type":"Point","coordinates":[120.2853897,22.9677986]}},{"type":"Feature","properties":{"bus":"yes","highway":"bus_stop","name":"\u5357\u4fdd","network":"\u81fa\u5357\u5e02\u516c\u8eca","note":"\u8208\u5357\u5ba2\u904b","operator":"\u81fa\u5357\u5e02\u516c\u8eca","public_transport":"platform"},"geometry":{"type":"Point","coordinates":[120.2815364,22.9682718]}},{"type":"Feature","properties":{"bus":"yes","highway":"bus_stop","name":"\u5357\u8208\u91cc","network":"\u81fa\u5357\u5e02\u516c\u8eca","note":"\u8208\u5357\u5ba2\u904b","operator":"\u81fa\u5357\u5e02\u516c\u8eca","public_transport":"platform"},"geometry":{"type":"Point","coordinates":[120.2775011,22.9687446]}},{"type":"Feature","properties":{"bus":"yes","highway":"bus_stop","name":"\u4e0a\u5e1d\u5edf","network":"\u81fa\u5357\u5e02\u516c\u8eca","note":"\u8208\u5357\u5ba2\u904b","operator":"\u81fa\u5357\u5e02\u516c\u8eca","public_transport":"platform"},"geometry":{"type":"Point","coordinates":[120.2738563,22.9691655]}},{"type":"Feature","properties":{"bus":"yes","highway":"bus_stop","name":"\u8c9d\u6c5d\u6d41\u901a","network":"\u81fa\u5357\u5e02\u516c\u8eca","note":"\u8208\u5357\u5ba2\u904b","operator":"\u81fa\u5357\u5e02\u516c\u8eca","public_transport":"platform"},"geometry":{"type":"Point","coordinates":[120.2704866,22.9695804]}},{"type":"Feature","properties":{"bus":"yes","highway":"bus_stop","name":"\u6797\u4ed4","network":"\u81fa\u5357\u5e02\u516c\u8eca","note":"\u8208\u5357\u5ba2\u904b","operator":"\u81fa\u5357\u5e02\u516c\u8eca","public_transport":"platform"},"geometry":{"type":"Point","coordinates":[120.2651931,22.970176]}},{"type":"Feature","properties":{"bus":"yes","highway":"bus_stop","name":"\u7fa9\u6797\u4e00\u8857\u53e3","network":"\u81fa\u5357\u5e02\u516c\u8eca","note":"\u8208\u5357\u5ba2\u904b","operator":"\u81fa\u5357\u5e02\u516c\u8eca","public_transport":"platform","ref":"8379"},"geometry":{"type":"Point","coordinates":[120.2620738,22.9705294]}},{"type":"Feature","properties":{"bus":"yes","highway":"bus_stop","name":"\u6148\u6fdf\u53f0\u5357\u5206\u6703","network":"\u81fa\u5357\u5e02\u516c\u8eca","note":"\u8208\u5357\u5ba2\u904b","operator":"\u81fa\u5357\u5e02\u516c\u8eca","public_transport":"platform"},"geometry":{"type":"Point","coordinates":[120.2603536,22.9707171]}},{"type":"Feature","properties":{"bus":"yes","highway":"bus_stop","name":"\u937e\u539d","network":"\u81fa\u5357\u5e02\u516c\u8eca","operator":"\u81fa\u5357\u5e02\u516c\u8eca","public_transport":"platform","ref":"1551"},"geometry":{"type":"Point","coordinates":[120.2580227,22.9709913]}},{"type":"Feature","properties":{"bus":"yes","highway":"bus_stop","name":"\u4ec1\u7fa9\u91cc","network":"\u81fa\u5357\u5e02\u516c\u8eca","note":"\u8208\u5357\u5ba2\u904b","operator":"\u81fa\u5357\u5e02\u516c\u8eca","public_transport":"platform"},"geometry":{"type":"Point","coordinates":[120.2556242,22.9712642]}},{"type":"Feature","properties":{"bus":"yes","highway":"bus_stop","name":"\u4ec1\u5fb7","network":"\u81fa\u5357\u5e02\u516c\u8eca","note":"\u8208\u5357\u5ba2\u904b","operator":"\u81fa\u5357\u5e02\u516c\u8eca","public_transport":"platform"},"geometry":{"type":"Point","coordinates":[120.2521151,22.9716466]}},{"type":"Feature","properties":{"bus":"yes","highway":"bus_stop","name":"\u4ec1\u5fb7\u516c\u6240","network":"\u81fa\u5357\u5e02\u516c\u8eca","operator":"\u81fa\u5357\u5e02\u516c\u8eca","public_transport":"platform"},"geometry":{"type":"Point","coordinates":[120.2524345,22.9732214]}},{"type":"Feature","properties":{"bus":"yes","highway":"bus_stop","name":"\u4e00\u7532\u5edf\u8def\u53e3","network":"\u81fa\u5357\u5e02\u516c\u8eca","operator":"\u81fa\u5357\u5e02\u516c\u8eca","public_transport":"platform"},"geometry":{"type":"Point","coordinates":[120.2543393,22.9771107]}},{"type":"Feature","properties":{"bus":"yes","highway":"bus_stop","name":"\u571f\u5eab","network":"\u81fa\u5357\u5e02\u516c\u8eca","operator":"\u81fa\u5357\u5e02\u516c\u8eca","public_transport":"platform"},"geometry":{"type":"Point","coordinates":[120.258441,22.9877554]}},{"type":"Feature","properties":{"bus":"yes","highway":"bus_stop","name":"\u592a\u5b50\u5edf","network":"\u81fa\u5357\u5e02\u516c\u8eca","operator":"\u81fa\u5357\u5e02\u516c\u8eca","public_transport":"platform"},"geometry":{"type":"Point","coordinates":[120.2558894,22.9909196]}},{"type":"Feature","properties":{"bus":"yes","highway":"bus_stop","name":"\u5927\u7063","network":"\u81fa\u5357\u5e02\u516c\u8eca","operator":"\u81fa\u5357\u5e02\u516c\u8eca","public_transport":"platform"},"geometry":{"type":"Point","coordinates":[120.2596641,23.0008641]}},{"type":"Feature","properties":{"bus":"yes","highway":"bus_stop","name":"\u5927\u7063\u5929\u516c\u5edf","network":"\u81fa\u5357\u5e02\u516c\u8eca","operator":"\u81fa\u5357\u5e02\u516c\u8eca","public_transport":"platform"},"geometry":{"type":"Point","coordinates":[120.2610157,23.0042073]}},{"type":"Feature","properties":{"bus":"yes","highway":"bus_stop","name":"\u4e0b\u5df7\u4ed4","network":"\u81fa\u5357\u5e02\u516c\u8eca","operator":"\u81fa\u5357\u5e02\u516c\u8eca","public_transport":"platform"},"geometry":{"type":"Point","coordinates":[120.2617297,23.0059877]}},{"type":"Feature","properties":{"bus":"yes","highway":"bus_stop","name":"\u694a\u6176\u7965\u4e2d\u91ab\u8a3a\u6240","network":"\u81fa\u5357\u5e02\u516c\u8eca","operator":"\u81fa\u5357\u5e02\u516c\u8eca","public_transport":"platform"},"geometry":{"type":"Point","coordinates":[120.2628967,23.0098819]}},{"type":"Feature","properties":{"bench":"no","bus":"yes","highway":"bus_stop","name":"\u6c38\u5927\u516c\u5712","network":"\u81fa\u5357\u5e02\u516c\u8eca","operator":"\u5e9c\u57ce\u5ba2\u904b","public_transport":"platform","shelter":"no"},"geometry":{"type":"Point","coordinates":[120.2638251,23.0131315]}},{"type":"Feature","properties":{"bus":"yes","highway":"bus_stop","name":"\u570b\u901a\u6c7d\u8eca\u516c\u53f8","network":"\u81fa\u5357\u5e02\u516c\u8eca","operator":"\u81fa\u5357\u5e02\u516c\u8eca","public_transport":"platform"},"geometry":{"type":"Point","coordinates":[120.261443,23.0218012]}},{"type":"Feature","properties":{"bus":"yes","highway":"bus_stop","name":"\u6c38\u5eb7(\u6c38\u5927\u8def)","network":"\u81fa\u5357\u5e02\u516c\u8eca","operator":"\u81fa\u5357\u5e02\u516c\u8eca","public_transport":"platform"},"geometry":{"type":"Point","coordinates":[120.2609441,23.0251477]}},{"type":"Feature","properties":{"bus":"yes","highway":"bus_stop","name":"\u6c38\u5927\u8def\u57d4\u8056\u8857\u53e3","network":"\u81fa\u5357\u5e02\u516c\u8eca","operator":"\u81fa\u5357\u5e02\u516c\u8eca","public_transport":"platform"},"geometry":{"type":"Point","coordinates":[120.2605872,23.0284445]}},{"type":"Feature","properties":{"bus":"yes","highway":"bus_stop","name":"\u57d4\u5712\u91cc","network":"\u81fa\u5357\u5e02\u516c\u8eca","operator":"\u81fa\u5357\u5e02\u516c\u8eca","public_transport":"platform"},"geometry":{"type":"Point","coordinates":[120.259771,23.0338373]}},{"type":"Feature","properties":{"bus":"yes","highway":"bus_stop","name":"\u6c38\u5eb7\u706b\u8eca\u7ad9","network":"\u81fa\u5357\u5e02\u516c\u8eca","operator":"\u81fa\u5357\u5e02\u516c\u8eca","public_transport":"platform"},"geometry":{"type":"Point","coordinates":[120.2541971,23.0367819]}},{"type":"Feature","properties":{"bus":"yes","highway":"bus_stop","name":"\u81ea\u5f37\u8def\u53e3","network":"\u81fa\u5357\u5e02\u516c\u8eca","operator":"\u81fa\u5357\u5e02\u516c\u8eca","public_transport":"platform"},"geometry":{"type":"Point","coordinates":[120.2558446,23.0307734]}},{"type":"Feature","properties":{"bus":"yes","highway":"bus_stop","name":"\u6c38\u5eb7\u8fb2\u6703","network":"\u81fa\u5357\u5e02\u516c\u8eca","note":"\u8208\u5357\u5ba2\u904b","operator":"\u81fa\u5357\u5e02\u516c\u8eca","public_transport":"platform"},"geometry":{"type":"Point","coordinates":[120.2551857,23.0252751]}},{"type":"Feature","properties":{"bus":"yes","highway":"bus_stop","name":"\u53f0\u5357\u5927\u5b78\u9644\u4e2d","network":"\u81fa\u5357\u5e02\u516c\u8eca","note":"\u8208\u5357\u5ba2\u904b","operator":"\u81fa\u5357\u5e02\u516c\u8eca","public_transport":"platform"},"geometry":{"type":"Point","coordinates":[120.2516628,23.0233146]}},{"type":"Feature","properties":{"bus":"yes","highway":"bus_stop","name":"\u4e8c\u738b","network":"\u81fa\u5357\u5e02\u516c\u8eca","note":"\u8208\u5357\u5ba2\u904b","operator":"\u81fa\u5357\u5e02\u516c\u8eca","public_transport":"platform"},"geometry":{"type":"Point","coordinates":[120.2473808,23.0213042]}},{"type":"Feature","properties":{"bus":"yes","highway":"bus_stop","name":"\u5eb7\u798f\u65b0\u57ce","network":"\u81fa\u5357\u5e02\u516c\u8eca","note":"\u8208\u5357\u5ba2\u904b","operator":"\u81fa\u5357\u5e02\u516c\u8eca","public_transport":"platform"},"geometry":{"type":"Point","coordinates":[120.2433544,23.0201963]}},{"type":"Feature","properties":{"bus":"yes","highway":"bus_stop","name":"\u4e2d\u8208","network":"\u81fa\u5357\u5e02\u516c\u8eca","note":"\u8208\u5357\u5ba2\u904b","operator":"\u81fa\u5357\u5e02\u516c\u8eca","public_transport":"platform"},"geometry":{"type":"Point","coordinates":[120.240306,23.0185293]}},{"type":"Feature","properties":{"bench":"yes","bus":"yes","highway":"bus_stop","name":"\u5357\u5de5\u793e\u5340","network":"\u81fa\u5357\u5e02\u516c\u8eca","operator":"\u81fa\u5357\u5e02\u516c\u8eca","public_transport":"platform","shelter":"yes"},"geometry":{"type":"Point","coordinates":[120.2347779,23.014906]}},{"type":"Feature","properties":{"bus":"yes","highway":"bus_stop","name":"\u53f0\u5357\u9ad8\u5de5","network":"\u81fa\u5357\u5e02\u516c\u8eca","operator":"\u81fa\u5357\u5e02\u516c\u8eca","public_transport":"platform"},"geometry":{"type":"Point","coordinates":[120.2305628,23.0139661]}},{"type":"Feature","properties":{"bench":"no","bus":"yes","highway":"bus_stop","name":"\u5927\u6a4b","network":"\u81fa\u5357\u5e02\u516c\u8eca","operator":"\u81fa\u5357\u5e02\u516c\u8eca","public_transport":"platform","shelter":"no"},"geometry":{"type":"Point","coordinates":[120.2264558,23.0184912]}},{"type":"Feature","properties":{"bus":"yes","highway":"bus_stop","name":"\u5947\u7f8e\u91ab\u9662","network":"\u81fa\u5357\u5e02\u516c\u8eca","operator":"\u81fa\u5357\u5e02\u516c\u8eca","public_transport":"platform"},"geometry":{"type":"Point","coordinates":[120.2216865,23.0214877]}},{"type":"Feature","properties":{"from":"\u95dc\u5edf","name":"\u7d0510(\u6b63\u7dda_\u5f80\u7a0b)","public_transport:version":"2","ref":"\u7d0510","route":"bus","to":"\u5947\u7f8e\u91ab\u9662","type":"route"},"geometry":{"type":"LineString","coordinates":[[120.3370938,22.9633695],[120.3371338,22.9634482],[120.33717,22.9635173],[120.3372129,22.9635519],[120.3373631,22.9635334],[120.3374128,22.963484],[120.3374926,22.963346]]}},{"type":"Feature","properties":{"from":"\u95dc\u5edf","name":"\u7d0510(\u6b63\u7dda_\u5f80\u7a0b)","public_transport:version":"2","ref":"\u7d0510","route":"bus","to":"\u5947\u7f8e\u91ab\u9662","type":"route"},"geometry":{"type":"LineString","coordinates":[[120.3370938,22.9633695],[120.3369477,22.9633955],[120.3357288,22.9635937],[120.3356182,22.9635788],[120.3352902,22.9634662],[120.3350244,22.9633569]]}},{"type":"Feature","properties":{"from":"\u95dc\u5edf","name":"\u7d0510(\u6b63\u7dda_\u5f80\u7a0b)","public_transport:version":"2","ref":"\u7d0510","route":"bus","to":"\u5947\u7f8e\u91ab\u9662","type":"route"},"geometry":{"type":"LineString","coordinates":[[120.3283217,22.9649605],[120.3287135,22.9648275],[120.3289087,22.9647815],[120.329213,22.9646942],[120.3297701,22.9645317],[120.3303528,22.9644103],[120.3311228,22.9643085],[120.3312401,22.9642902],[120.3318983,22.9642039],[120.3321663,22.9641653],[120.3324256,22.9640999],[120.3325694,22.9640637],[120.3330603,22.9639161],[120.333233,22.9638676],[120.3339929,22.9636814],[120.3348917,22.9634215],[120.3350244,22.9633569]]}},{"type":"Feature","properties":{"from":"\u95dc\u5edf","name":"\u7d0510(\u6b63\u7dda_\u5f80\u7a0b)","public_transport:version":"2","ref":"\u7d0510","route":"bus","to":"\u5947\u7f8e\u91ab\u9662","type":"route"},"geometry":{"type":"LineString","coordinates":[[120.3273896,22.9628243],[120.3276024,22.963466],[120.3278654,22.9639931],[120.3280949,22.9644463],[120.3283217,22.9649605]]}},{"type":"Feature","properties":{"from":"\u95dc\u5edf","name":"\u7d0510(\u6b63\u7dda_\u5f80\u7a0b)","public_transport:version":"2","ref":"\u7d0510","route":"bus","to":"\u5947\u7f8e\u91ab\u9662","type":"route"},"geometry":{"type":"LineString","coordinates":[[120.3284855,22.9625159],[120.3273896,22.9628243]]}},{"type":"Feature","properties":{"from":"\u95dc\u5edf","name":"\u7d0510(\u6b63\u7dda_\u5f80\u7a0b)","public_transport:version":"2","ref":"\u7d0510","route":"bus","to":"\u5947\u7f8e\u91ab\u9662","type":"route"},"geometry":{"type":"LineString","coordinates":[[120.3310423,22.9617802],[120.3306946,22.9618846],[120.3302583,22.9620169],[120.3296646,22.962194],[120.3293209,22.962287],[120.3284855,22.9625159]]}},{"type":"Feature","properties":{"from":"\u95dc\u5edf","name":"\u7d0510(\u6b63\u7dda_\u5f80\u7a0b)","public_transport:version":"2","ref":"\u7d0510","route":"bus","to":"\u5947\u7f8e\u91ab\u9662","type":"route"},"geometry":{"type":"LineString","coordinates":[[120.3310423,22.9617802],[120.3307834,22.961045],[120.3304773,22.9601801],[120.3301544,22.9592607]]}},{"type":"Feature","properties":{"from":"\u95dc\u5edf","name":"\u7d0510(\u6b63\u7dda_\u5f80\u7a0b)","public_transport:version":"2","ref":"\u7d0510","route":"bus","to":"\u5947\u7f8e\u91ab\u9662","type":"route"},"geometry":{"type":"LineString","coordinates":[[120.3301544,22.9592607],[120.32959,22.9594066],[120.3284258,22.9597407],[120.3278794,22.9598795]]}},{"type":"Feature","properties":{"from":"\u95dc\u5edf","name":"\u7d0510(\u6b63\u7dda_\u5f80\u7a0b)","public_transport:version":"2","ref":"\u7d0510","route":"bus","to":"\u5947\u7f8e\u91ab\u9662","type":"route"},"geometry":{"type":"LineString","coordinates":[[120.3278794,22.9598795],[120.3272239,22.960002],[120.3268571,22.9600705]]}},{"type":"Feature","properties":{"from":"\u95dc\u5edf","name":"\u7d0510(\u6b63\u7dda_\u5f80\u7a0b)","public_transport:version":"2","ref":"\u7d0510","route":"bus","to":"\u5947\u7f8e\u91ab\u9662","type":"route"},"geometry":{"type":"LineString","coordinates":[[120.3268571,22.9600705],[120.3265416,22.9601353],[120.3261864,22.9601873],[120.3260302,22.9602204]]}},{"type":"Feature","properties":{"from":"\u95dc\u5edf","name":"\u7d0510(\u6b63\u7dda_\u5f80\u7a0b)","public_transport:version":"2","ref":"\u7d0510","route":"bus","to":"\u5947\u7f8e\u91ab\u9662","type":"route"},"geometry":{"type":"LineString","coordinates":[[120.3260302,22.9602204],[120.3253322,22.9603405],[120.3249927,22.9604061]]}},{"type":"Feature","properties":{"from":"\u95dc\u5edf","name":"\u7d0510(\u6b63\u7dda_\u5f80\u7a0b)","public_transport:version":"2","ref":"\u7d0510","route":"bus","to":"\u5947\u7f8e\u91ab\u9662","type":"route"},"geometry":{"type":"LineString","coordinates":[[120.3249927,22.9604061],[120.3248319,22.9604418],[120.3240411,22.9605569]]}},{"type":"Feature","properties":{"from":"\u95dc\u5edf","name":"\u7d0510(\u6b63\u7dda_\u5f80\u7a0b)","public_transport:version":"2","ref":"\u7d0510","route":"bus","to":"\u5947\u7f8e\u91ab\u9662","type":"route"},"geometry":{"type":"LineString","coordinates":[[120.3240411,22.9605569],[120.3238547,22.9606742],[120.322059,22.9609841],[120.3186865,22.9616186],[120.3161296,22.9620599],[120.3149836,22.9622933],[120.3137287,22.9626349]]}},{"type":"Feature","properties":{"from":"\u95dc\u5edf","name":"\u7d0510(\u6b63\u7dda_\u5f80\u7a0b)","public_transport:version":"2","ref":"\u7d0510","route":"bus","to":"\u5947\u7f8e\u91ab\u9662","type":"route"},"geometry":{"type":"LineString","coordinates":[[120.3137287,22.9626349],[120.3132101,22.9627749],[120.3129492,22.9628453],[120.3127681,22.9628919],[120.311411,22.9633125],[120.3106867,22.9635365],[120.3101425,22.9636896],[120.3098618,22.9637726],[120.309623,22.963838],[120.3092688,22.9639336],[120.308744,22.9640807],[120.308705,22.9640914],[120.3085289,22.9641409],[120.3041272,22.9654541],[120.303162,22.9657334],[120.3029359,22.965798],[120.3027854,22.9658259]]}},{"type":"Feature","properties":{"from":"\u95dc\u5edf","name":"\u7d0510(\u6b63\u7dda_\u5f80\u7a0b)","public_transport:version":"2","ref":"\u7d0510","route":"bus","to":"\u5947\u7f8e\u91ab\u9662","type":"route"},"geometry":{"type":"LineString","coordinates":[[120.3027854,22.9658259],[120.3023513,22.9658783],[120.3016296,22.9659655],[120.300578,22.9660926],[120.3000095,22.9661527],[120.2977638,22.96639],[120.2963945,22.9665347]]}},{"type":"Feature","properties":{"from":"\u95dc\u5edf","name":"\u7d0510(\u6b63\u7dda_\u5f80\u7a0b)","public_transport:version":"2","ref":"\u7d0510","route":"bus","to":"\u5947\u7f8e\u91ab\u9662","type":"route"},"geometry":{"type":"LineString","coordinates":[[120.2963945,22.9665347],[120.2961784,22.9665616],[120.2946547,22.9667704],[120.2945999,22.9667859]]}},{"type":"Feature","properties":{"from":"\u95dc\u5edf","name":"\u7d0510(\u6b63\u7dda_\u5f80\u7a0b)","public_transport:version":"2","ref":"\u7d0510","route":"bus","to":"\u5947\u7f8e\u91ab\u9662","type":"route"},"geometry":{"type":"LineString","coordinates":[[120.293992,22.9667946],[120.2939859,22.9667379],[120.2939934,22.9666764],[120.2940152,22.9666178],[120.2940502,22.9665649],[120.2940969,22.9665202],[120.2941529,22.9664859],[120.2942157,22.9664636],[120.2942852,22.9664542],[120.2943552,22.9664595],[120.2944222,22.9664792],[120.2944825,22.9665123],[120.2945332,22.9665571],[120.2945716,22.9666114],[120.2945957,22.9666721],[120.294604,22.9667288],[120.2945999,22.9667859],[120.2945903,22.9668232],[120.2945753,22.9668589],[120.2945552,22.9668925],[120.2945303,22.9669233],[120.2945012,22.9669508],[120.2944684,22.9669744],[120.2944324,22.9669937],[120.2943939,22.9670084],[120.2943536,22.9670182],[120.2943013,22.9670232],[120.2942488,22.9670201],[120.2941977,22.9670088],[120.2941493,22.9669897],[120.2941052,22.9669633],[120.2940666,22.9669304],[120.2940346,22.966892],[120.2940101,22.9668491],[120.293992,22.9667946]]}},{"type":"Feature","properties":{"from":"\u95dc\u5edf","name":"\u7d0510(\u6b63\u7dda_\u5f80\u7a0b)","public_transport:version":"2","ref":"\u7d0510","route":"bus","to":"\u5947\u7f8e\u91ab\u9662","type":"route"},"geometry":{"type":"LineString","coordinates":[[120.2940101,22.9668491],[120.292899,22.9669758],[120.292249,22.9670499],[120.2902004,22.9672833],[120.289048,22.9674145],[120.287892,22.9675462]]}},{"type":"Feature","properties":{"from":"\u95dc\u5edf","name":"\u7d0510(\u6b63\u7dda_\u5f80\u7a0b)","public_transport:version":"2","ref":"\u7d0510","route":"bus","to":"\u5947\u7f8e\u91ab\u9662","type":"route"},"geometry":{"type":"LineString","coordinates":[[120.287892,22.9675462],[120.2875183,22.9675888],[120.2857267,22.9677929],[120.2847156,22.9679081],[120.2842258,22.9679639],[120.2840101,22.9679885],[120.2837162,22.9680219],[120.2831331,22.9680884],[120.2825325,22.9681568],[120.2810096,22.9683303],[120.2790425,22.9685544],[120.2776577,22.9687121],[120.2765162,22.9688422],[120.2752387,22.9689877],[120.2724175,22.9693091],[120.272192,22.9693348]]}},{"type":"Feature","properties":{"from":"\u95dc\u5edf","name":"\u7d0510(\u6b63\u7dda_\u5f80\u7a0b)","public_transport:version":"2","ref":"\u7d0510","route":"bus","to":"\u5947\u7f8e\u91ab\u9662","type":"route"},"geometry":{"type":"LineString","coordinates":[[120.272192,22.9693348],[120.2719258,22.9693725]]}},{"type":"Feature","properties":{"from":"\u95dc\u5edf","name":"\u7d0510(\u6b63\u7dda_\u5f80\u7a0b)","public_transport:version":"2","ref":"\u7d0510","route":"bus","to":"\u5947\u7f8e\u91ab\u9662","type":"route"},"geometry":{"type":"LineString","coordinates":[[120.2719258,22.9693725],[120.2715407,22.9693986]]}},{"type":"Feature","properties":{"from":"\u95dc\u5edf","name":"\u7d0510(\u6b63\u7dda_\u5f80\u7a0b)","public_transport:version":"2","ref":"\u7d0510","route":"bus","to":"\u5947\u7f8e\u91ab\u9662","type":"route"},"geometry":{"type":"LineString","coordinates":[[120.2715407,22.9693986],[120.2712217,22.9694219],[120.2709027,22.9694452],[120.2691928,22.9696508],[120.2681553,22.9697857],[120.2675293,22.9698435],[120.2664348,22.9699673],[120.2650908,22.9700893],[120.2639972,22.9702325],[120.2628915,22.9703581],[120.2618434,22.9704819],[120.2601218,22.9706784],[120.2594569,22.9707523],[120.2582311,22.9708906],[120.2568142,22.9710536],[120.2560228,22.9711548],[120.2552774,22.9712268],[120.2543561,22.9713312],[120.2532238,22.9714696],[120.2525269,22.9715421],[120.2516673,22.9716483]]}},{"type":"Feature","properties":{"from":"\u95dc\u5edf","name":"\u7d0510(\u6b63\u7dda_\u5f80\u7a0b)","public_transport:version":"2","ref":"\u7d0510","route":"bus","to":"\u5947\u7f8e\u91ab\u9662","type":"route"},"geometry":{"type":"LineString","coordinates":[[120.2516673,22.9716483],[120.2513056,22.9716796]]}},{"type":"Feature","properties":{"from":"\u95dc\u5edf","name":"\u7d0510(\u6b63\u7dda_\u5f80\u7a0b)","public_transport:version":"2","ref":"\u7d0510","route":"bus","to":"\u5947\u7f8e\u91ab\u9662","type":"route"},"geometry":{"type":"LineString","coordinates":[[120.2562959,22.9800755],[120.2556159,22.9791427],[120.2552239,22.978662],[120.2549422,22.9783014],[120.2546848,22.9779471],[120.2545118,22.9776853],[120.2540383,22.9766037],[120.253518,22.9755073],[120.2532404,22.9749319],[120.2527841,22.9740275],[120.2527609,22.973973],[120.2526141,22.9736674],[120.2524185,22.9732839],[120.2521866,22.9727956],[120.2519254,22.9722558],[120.2516673,22.9716483]]}},{"type":"Feature","properties":{"from":"\u95dc\u5edf","name":"\u7d0510(\u6b63\u7dda_\u5f80\u7a0b)","public_transport:version":"2","ref":"\u7d0510","route":"bus","to":"\u5947\u7f8e\u91ab\u9662","type":"route"},"geometry":{"type":"LineString","coordinates":[[120.2562959,22.9800755],[120.2564375,22.980255],[120.2575499,22.9816806],[120.2578534,22.9820455],[120.2579319,22.9821359],[120.2580314,22.9822564],[120.2581192,22.9823843],[120.2581837,22.9824797],[120.2582116,22.9825386]]}},{"type":"Feature","properties":{"from":"\u95dc\u5edf","name":"\u7d0510(\u6b63\u7dda_\u5f80\u7a0b)","public_transport:version":"2","ref":"\u7d0510","route":"bus","to":"\u5947\u7f8e\u91ab\u9662","type":"route"},"geometry":{"type":"LineString","coordinates":[[120.2582116,22.9825386],[120.2582721,22.982736],[120.2583579,22.9830366],[120.258419,22.983315],[120.2585335,22.9840521],[120.2588042,22.9862909],[120.2588982,22.9870394],[120.2589041,22.9870908]]}},{"type":"Feature","properties":{"from":"\u95dc\u5edf","name":"\u7d0510(\u6b63\u7dda_\u5f80\u7a0b)","public_transport:version":"2","ref":"\u7d0510","route":"bus","to":"\u5947\u7f8e\u91ab\u9662","type":"route"},"geometry":{"type":"LineString","coordinates":[[120.2589041,22.9870908],[120.2588543,22.9872259],[120.2583596,22.9877238],[120.257685,22.9884655],[120.2564942,22.9897299],[120.2563229,22.9898933],[120.2560585,22.9902118],[120.2559751,22.9903505],[120.2558971,22.9905253],[120.2558603,22.9906571],[120.2558213,22.9908423],[120.2558053,22.9910592],[120.2558069,22.9912569],[120.2558179,22.9914284]]}},{"type":"Feature","properties":{"from":"\u95dc\u5edf","name":"\u7d0510(\u6b63\u7dda_\u5f80\u7a0b)","public_transport:version":"2","ref":"\u7d0510","route":"bus","to":"\u5947\u7f8e\u91ab\u9662","type":"route"},"geometry":{"type":"LineString","coordinates":[[120.2558179,22.9914284],[120.2565246,22.9932629],[120.2565427,22.9933099]]}},{"type":"Feature","properties":{"from":"\u95dc\u5edf","name":"\u7d0510(\u6b63\u7dda_\u5f80\u7a0b)","public_transport:version":"2","ref":"\u7d0510","route":"bus","to":"\u5947\u7f8e\u91ab\u9662","type":"route"},"geometry":{"type":"LineString","coordinates":[[120.2565427,22.9933099],[120.2566459,22.99358]]}},{"type":"Feature","properties":{"from":"\u95dc\u5edf","name":"\u7d0510(\u6b63\u7dda_\u5f80\u7a0b)","public_transport:version":"2","ref":"\u7d0510","route":"bus","to":"\u5947\u7f8e\u91ab\u9662","type":"route"},"geometry":{"type":"LineString","coordinates":[[120.2566459,22.99358],[120.2566845,22.9936757],[120.2570111,22.9944863],[120.2571972,22.9949482],[120.258325,22.9977469],[120.2583965,22.9979245],[120.259295,23.000154],[120.259326,23.000231]]}},{"type":"Feature","properties":{"from":"\u95dc\u5edf","name":"\u7d0510(\u6b63\u7dda_\u5f80\u7a0b)","public_transport:version":"2","ref":"\u7d0510","route":"bus","to":"\u5947\u7f8e\u91ab\u9662","type":"route"},"geometry":{"type":"LineString","coordinates":[[120.259326,23.000231],[120.2593904,23.0003974],[120.2595813,23.0008749],[120.2598592,23.0015519],[120.2604528,23.0029965],[120.2605693,23.0032882],[120.2608284,23.003924],[120.2609163,23.0041325],[120.2609768,23.0043058],[120.2610182,23.0044162],[120.2612422,23.0049822]]}},{"type":"Feature","properties":{"from":"\u95dc\u5edf","name":"\u7d0510(\u6b63\u7dda_\u5f80\u7a0b)","public_transport:version":"2","ref":"\u7d0510","route":"bus","to":"\u5947\u7f8e\u91ab\u9662","type":"route"},"geometry":{"type":"LineString","coordinates":[[120.2612422,23.0049822],[120.261664,23.0060151],[120.261957,23.0068558]]}},{"type":"Feature","properties":{"from":"\u95dc\u5edf","name":"\u7d0510(\u6b63\u7dda_\u5f80\u7a0b)","public_transport:version":"2","ref":"\u7d0510","route":"bus","to":"\u5947\u7f8e\u91ab\u9662","type":"route"},"geometry":{"type":"LineString","coordinates":[[120.261957,23.0068558],[120.2622839,23.0079387],[120.2624918,23.0086912],[120.2626403,23.009233],[120.2629839,23.0105761],[120.2632732,23.0115218],[120.2635732,23.0124151],[120.263677,23.0128445],[120.2638022,23.0132665],[120.2638529,23.0134879],[120.2638554,23.0138235],[120.2638387,23.0140228]]}},{"type":"Feature","properties":{"from":"\u95dc\u5edf","name":"\u7d0510(\u6b63\u7dda_\u5f80\u7a0b)","public_transport:version":"2","ref":"\u7d0510","route":"bus","to":"\u5947\u7f8e\u91ab\u9662","type":"route"},"geometry":{"type":"LineString","coordinates":[[120.2638387,23.0140228],[120.263586,23.0149054],[120.2631618,23.0163683],[120.2628869,23.0172828],[120.262531,23.0183237],[120.2623367,23.0190906],[120.2620326,23.0200473],[120.2617361,23.0207838],[120.2614911,23.0214139],[120.2613906,23.021882],[120.2612936,23.0225037],[120.2612126,23.0232355],[120.26096,23.0246387]]}},{"type":"Feature","properties":{"from":"\u95dc\u5edf","name":"\u7d0510(\u6b63\u7dda_\u5f80\u7a0b)","public_transport:version":"2","ref":"\u7d0510","route":"bus","to":"\u5947\u7f8e\u91ab\u9662","type":"route"},"geometry":{"type":"LineString","coordinates":[[120.26096,23.0246387],[120.2608926,23.0255238],[120.2608004,23.0263861],[120.2607531,23.0269062],[120.2607071,23.0274186]]}},{"type":"Feature","properties":{"from":"\u95dc\u5edf","name":"\u7d0510(\u6b63\u7dda_\u5f80\u7a0b)","public_transport:version":"2","ref":"\u7d0510","route":"bus","to":"\u5947\u7f8e\u91ab\u9662","type":"route"},"geometry":{"type":"LineString","coordinates":[[120.2607071,23.0274186],[120.2604605,23.0286909],[120.2603302,23.0296313],[120.2601239,23.0306369],[120.2598603,23.0325616],[120.259696,23.0335914],[120.2596302,23.0341211],[120.2595633,23.0346554]]}},{"type":"Feature","properties":{"from":"\u95dc\u5edf","name":"\u7d0510(\u6b63\u7dda_\u5f80\u7a0b)","public_transport:version":"2","ref":"\u7d0510","route":"bus","to":"\u5947\u7f8e\u91ab\u9662","type":"route"},"geometry":{"type":"LineString","coordinates":[[120.2595633,23.0346554],[120.2594493,23.0346426]]}},{"type":"Feature","properties":{"from":"\u95dc\u5edf","name":"\u7d0510(\u6b63\u7dda_\u5f80\u7a0b)","public_transport:version":"2","ref":"\u7d0510","route":"bus","to":"\u5947\u7f8e\u91ab\u9662","type":"route"},"geometry":{"type":"LineString","coordinates":[[120.2547147,23.0351386],[120.2562033,23.0350038],[120.2568926,23.0349254],[120.258039,23.0347794],[120.258907,23.0346817],[120.2594493,23.0346426]]}},{"type":"Feature","properties":{"from":"\u95dc\u5edf","name":"\u7d0510(\u6b63\u7dda_\u5f80\u7a0b)","public_transport:version":"2","ref":"\u7d0510","route":"bus","to":"\u5947\u7f8e\u91ab\u9662","type":"route"},"geometry":{"type":"LineString","coordinates":[[120.2547147,23.0351386],[120.2544379,23.0360568],[120.2542683,23.036669],[120.2541748,23.0370064]]}},{"type":"Feature","properties":{"from":"\u95dc\u5edf","name":"\u7d0510(\u6b63\u7dda_\u5f80\u7a0b)","public_transport:version":"2","ref":"\u7d0510","route":"bus","to":"\u5947\u7f8e\u91ab\u9662","type":"route"},"geometry":{"type":"LineString","coordinates":[[120.2512614,23.0362562],[120.2518514,23.0364752],[120.2523698,23.0366028],[120.2528023,23.0367155],[120.25305,23.0367752],[120.2534957,23.0368665],[120.2537243,23.0369134],[120.2538321,23.0369355],[120.2541748,23.0370064]]}},{"type":"Feature","properties":{"from":"\u95dc\u5edf","name":"\u7d0510(\u6b63\u7dda_\u5f80\u7a0b)","public_transport:version":"2","ref":"\u7d0510","route":"bus","to":"\u5947\u7f8e\u91ab\u9662","type":"route"},"geometry":{"type":"LineString","coordinates":[[120.2512614,23.0362562],[120.2514444,23.0356977],[120.2515779,23.035341]]}},{"type":"Feature","properties":{"from":"\u95dc\u5edf","name":"\u7d0510(\u6b63\u7dda_\u5f80\u7a0b)","public_transport:version":"2","ref":"\u7d0510","route":"bus","to":"\u5947\u7f8e\u91ab\u9662","type":"route"},"geometry":{"type":"LineString","coordinates":[[120.2515779,23.035341],[120.2519614,23.0353139],[120.2531618,23.0352296],[120.2538242,23.0351831],[120.2542171,23.035167],[120.2547147,23.0351386]]}},{"type":"Feature","properties":{"from":"\u95dc\u5edf","name":"\u7d0510(\u6b63\u7dda_\u5f80\u7a0b)","public_transport:version":"2","ref":"\u7d0510","route":"bus","to":"\u5947\u7f8e\u91ab\u9662","type":"route"},"geometry":{"type":"LineString","coordinates":[[120.2547147,23.0351386],[120.2550406,23.0339637],[120.2552513,23.0332532],[120.2554215,23.0326616],[120.2556159,23.0319902],[120.2556642,23.0318002],[120.2558372,23.0312028],[120.2561135,23.0302611],[120.2561403,23.0301685],[120.256269,23.0297155],[120.2564179,23.0291922],[120.2565627,23.0285747],[120.256603,23.0284303],[120.2567948,23.0277502],[120.2568444,23.0274959],[120.2571931,23.0263728],[120.2572937,23.0259927]]}},{"type":"Feature","properties":{"from":"\u95dc\u5edf","name":"\u7d0510(\u6b63\u7dda_\u5f80\u7a0b)","public_transport:version":"2","ref":"\u7d0510","route":"bus","to":"\u5947\u7f8e\u91ab\u9662","type":"route"},"geometry":{"type":"LineString","coordinates":[[120.2572937,23.0259927],[120.2571408,23.0259581],[120.256818,23.0258809],[120.2563611,23.0257341],[120.2557751,23.0255556],[120.2550159,23.0251186],[120.2546291,23.0248798],[120.2544326,23.0247522],[120.2538588,23.0243924],[120.2537961,23.024357],[120.2535005,23.0242078],[120.2526834,23.0237751],[120.251903,23.0233466],[120.2501609,23.0223362],[120.2498028,23.0220768],[120.2493044,23.0218817],[120.2486285,23.0216087],[120.2485855,23.0215829],[120.2470506,23.0210726],[120.2459133,23.020696],[120.2456441,23.0205793],[120.2450518,23.0204051],[120.2446568,23.0202627],[120.2444197,23.0202013],[120.2440715,23.0201382],[120.2433196,23.0200799],[120.2430393,23.0200334],[120.2428501,23.0199641],[120.2424577,23.0197653],[120.2422233,23.0196237],[120.2420395,23.0194997],[120.2419336,23.0194282],[120.2417929,23.0193396],[120.241421,23.0191056],[120.2412225,23.0189822],[120.2408077,23.0187258],[120.2406613,23.0186353],[120.2401034,23.0182949],[120.2399394,23.0181922],[120.2395758,23.017954],[120.2393376,23.0177979],[120.2392746,23.0177571],[120.2392089,23.0177083],[120.2388619,23.0174491],[120.2388156,23.0174096],[120.2384556,23.0171927],[120.2379463,23.0168598],[120.2372148,23.0163789],[120.2371702,23.0163471],[120.2362829,23.0157149],[120.2362071,23.0156754],[120.2358073,23.0154142],[120.2356569,23.015291],[120.2352503,23.0150499],[120.2351284,23.0149689],[120.2348486,23.0147971],[120.2345534,23.0146348],[120.2341586,23.0144805],[120.2340499,23.01442],[120.2335478,23.0142923],[120.2320431,23.0138543],[120.2308306,23.0134634]]}},{"type":"Feature","properties":{"from":"\u95dc\u5edf","name":"\u7d0510(\u6b63\u7dda_\u5f80\u7a0b)","public_transport:version":"2","ref":"\u7d0510","route":"bus","to":"\u5947\u7f8e\u91ab\u9662","type":"route"},"geometry":{"type":"LineString","coordinates":[[120.2308306,23.0134634],[120.2305041,23.0139954],[120.2301049,23.0146219],[120.2300667,23.0146808],[120.2294105,23.0156939],[120.2288968,23.0163592],[120.228534,23.0168085],[120.2281857,23.0171531]]}},{"type":"Feature","properties":{"from":"\u95dc\u5edf","name":"\u7d0510(\u6b63\u7dda_\u5f80\u7a0b)","public_transport:version":"2","ref":"\u7d0510","route":"bus","to":"\u5947\u7f8e\u91ab\u9662","type":"route"},"geometry":{"type":"LineString","coordinates":[[120.2281857,23.0171531],[120.2273236,23.0178713],[120.2270595,23.0180589],[120.2267765,23.0182391],[120.2258089,23.0188448],[120.2257528,23.0188704]]}},{"type":"Feature","properties":{"from":"\u95dc\u5edf","name":"\u7d0510(\u6b63\u7dda_\u5f80\u7a0b)","public_transport:version":"2","ref":"\u7d0510","route":"bus","to":"\u5947\u7f8e\u91ab\u9662","type":"route"},"geometry":{"type":"LineString","coordinates":[[120.2257528,23.0188704],[120.224458,23.0196872],[120.222389,23.0209945]]}},{"type":"Feature","properties":{"from":"\u95dc\u5edf","name":"\u7d0510(\u6b63\u7dda_\u5f80\u7a0b)","public_transport:version":"2","ref":"\u7d0510","route":"bus","to":"\u5947\u7f8e\u91ab\u9662","type":"route"},"geometry":{"type":"LineString","coordinates":[[120.222389,23.0209945],[120.2221208,23.021166],[120.2217889,23.0213801],[120.221634,23.0214795]]}},{"type":"Feature","properties":{"from":"\u95dc\u5edf","name":"\u7d0510(\u6b63\u7dda_\u5f80\u7a0b)","public_transport:version":"2","ref":"\u7d0510","route":"bus","to":"\u5947\u7f8e\u91ab\u9662","type":"route"},"geometry":{"type":"LineString","coordinates":[[120.221634,23.0214795],[120.2216273,23.0213685]]}},{"type":"Feature","properties":{"from":"\u95dc\u5edf","name":"\u7d0510(\u6b63\u7dda_\u5f80\u7a0b)","public_transport:version":"2","ref":"\u7d0510","route":"bus","to":"\u5947\u7f8e\u91ab\u9662","type":"route"},"geometry":{"type":"LineString","coordinates":[[120.2216273,23.0213685],[120.2214288,23.0210243]]}},{"type":"Feature","properties":{"bus":"yes","highway":"bus_stop","name":"\u5947\u7f8e\u91ab\u9662","network":"\u81fa\u5357\u5e02\u516c\u8eca","operator":"\u81fa\u5357\u5e02\u516c\u8eca","public_transport":"platform"},"geometry":{"type":"Point","coordinates":[120.221591,23.0209559]}},{"type":"Feature","properties":{"bench":"no","bus":"yes","highway":"bus_stop","name":"\u5927\u6a4b","network":"\u81fa\u5357\u5e02\u516c\u8eca","operator":"\u81fa\u5357\u5e02\u516c\u8eca","public_transport":"platform","shelter":"no"},"geometry":{"type":"Point","coordinates":[120.2273197,23.0176478]}},{"type":"Feature","properties":{"bus":"yes","highway":"bus_stop","name":"\u53f0\u5357\u9ad8\u5de5","network":"\u81fa\u5357\u5e02\u516c\u8eca","operator":"\u81fa\u5357\u5e02\u516c\u8eca","public_transport":"platform"},"geometry":{"type":"Point","coordinates":[120.2303248,23.0138466]}},{"type":"Feature","properties":{"bench":"no","bus":"yes","highway":"bus_stop","name":"\u5357\u5de5\u793e\u5340","network":"\u81fa\u5357\u5e02\u516c\u8eca","operator":"\u81fa\u5357\u5e02\u516c\u8eca","public_transport":"platform","shelter":"no"},"geometry":{"type":"Point","coordinates":[120.2346667,23.0146761]}},{"type":"Feature","properties":{"bus":"yes","highway":"bus_stop","name":"\u4e2d\u8208","network":"\u81fa\u5357\u5e02\u516c\u8eca","note":"\u8208\u5357\u5ba2\u904b","operator":"\u81fa\u5357\u5e02\u516c\u8eca","public_transport":"platform"},"geometry":{"type":"Point","coordinates":[120.2403232,23.0183708]}},{"type":"Feature","properties":{"bus":"yes","highway":"bus_stop","name":"\u5eb7\u798f\u65b0\u57ce","network":"\u81fa\u5357\u5e02\u516c\u8eca","note":"\u8208\u5357\u5ba2\u904b","operator":"\u81fa\u5357\u5e02\u516c\u8eca","public_transport":"platform"},"geometry":{"type":"Point","coordinates":[120.2434212,23.0200695]}},{"type":"Feature","properties":{"bus":"yes","highway":"bus_stop","name":"\u4e8c\u738b","network":"\u81fa\u5357\u5e02\u516c\u8eca","note":"\u8208\u5357\u5ba2\u904b","operator":"\u81fa\u5357\u5e02\u516c\u8eca","public_transport":"platform"},"geometry":{"type":"Point","coordinates":[120.247393,23.0211641]}},{"type":"Feature","properties":{"bus":"yes","highway":"bus_stop","name":"\u53f0\u5357\u5927\u5b78\u9644\u4e2d","network":"\u81fa\u5357\u5e02\u516c\u8eca","note":"\u8208\u5357\u5ba2\u904b","operator":"\u81fa\u5357\u5e02\u516c\u8eca","public_transport":"platform"},"geometry":{"type":"Point","coordinates":[120.2522537,23.0234622]}},{"type":"Feature","properties":{"bus":"yes","highway":"bus_stop","name":"\u6c38\u5eb7\u8fb2\u6703","network":"\u81fa\u5357\u5e02\u516c\u8eca","note":"\u8208\u5357\u5ba2\u904b","operator":"\u81fa\u5357\u5e02\u516c\u8eca","public_transport":"platform"},"geometry":{"type":"Point","coordinates":[120.254865,23.0249199]}},{"type":"Feature","properties":{"bus":"yes","highway":"bus_stop","name":"\u81ea\u5f37\u8def\u53e3","network":"\u81fa\u5357\u5e02\u516c\u8eca","operator":"\u81fa\u5357\u5e02\u516c\u8eca","public_transport":"platform"},"geometry":{"type":"Point","coordinates":[120.2560262,23.0306264]}},{"type":"Feature","properties":{"bus":"yes","highway":"bus_stop","name":"\u6c38\u5eb7\u706b\u8eca\u7ad9","network":"\u81fa\u5357\u5e02\u516c\u8eca","operator":"\u81fa\u5357\u5e02\u516c\u8eca","public_transport":"platform"},"geometry":{"type":"Point","coordinates":[120.254283,23.0368865]}},{"type":"Feature","properties":{"bus":"yes","highway":"bus_stop","name":"\u57d4\u5712\u91cc","network":"\u81fa\u5357\u5e02\u516c\u8eca","operator":"\u81fa\u5357\u5e02\u516c\u8eca","public_transport":"platform"},"geometry":{"type":"Point","coordinates":[120.2593772,23.0343681]}},{"type":"Feature","properties":{"bus":"yes","highway":"bus_stop","name":"\u6c38\u5927\u8def\u57d4\u8056\u8857\u53e3","network":"\u81fa\u5357\u5e02\u516c\u8eca","operator":"\u81fa\u5357\u5e02\u516c\u8eca","public_transport":"platform"},"geometry":{"type":"Point","coordinates":[120.2603166,23.0285058]}},{"type":"Feature","properties":{"bus":"yes","highway":"bus_stop","name":"\u6c38\u5eb7(\u6c38\u5927\u8def)","network":"\u81fa\u5357\u5e02\u516c\u8eca","operator":"\u81fa\u5357\u5e02\u516c\u8eca","public_transport":"platform"},"geometry":{"type":"Point","coordinates":[120.2608186,23.0242201]}},{"type":"Feature","properties":{"bus":"yes","highway":"bus_stop","name":"\u570b\u901a\u6c7d\u8eca\u516c\u53f8","network":"\u81fa\u5357\u5e02\u516c\u8eca","operator":"\u81fa\u5357\u5e02\u516c\u8eca","public_transport":"platform"},"geometry":{"type":"Point","coordinates":[120.2612544,23.0216035]}},{"type":"Feature","properties":{"bench":"no","bus":"yes","highway":"bus_stop","name":"\u6c38\u5927\u516c\u5712","network":"\u81fa\u5357\u5e02\u516c\u8eca","operator":"\u5e9c\u57ce\u5ba2\u904b","public_transport":"platform","shelter":"no"},"geometry":{"type":"Point","coordinates":[120.2636256,23.0134709]}},{"type":"Feature","properties":{"bus":"yes","highway":"bus_stop","name":"\u694a\u6176\u7965\u4e2d\u91ab\u8a3a\u6240","network":"\u81fa\u5357\u5e02\u516c\u8eca","operator":"\u81fa\u5357\u5e02\u516c\u8eca","public_transport":"platform"},"geometry":{"type":"Point","coordinates":[120.2623766,23.0090602]}},{"type":"Feature","properties":{"bus":"yes","highway":"bus_stop","name":"\u4e0b\u5df7\u4ed4","network":"\u81fa\u5357\u5e02\u516c\u8eca","operator":"\u81fa\u5357\u5e02\u516c\u8eca","public_transport":"platform"},"geometry":{"type":"Point","coordinates":[120.2612327,23.0054173]}},{"type":"Feature","properties":{"bus":"yes","highway":"bus_stop","name":"\u5927\u7063\u5929\u516c\u5edf","network":"\u81fa\u5357\u5e02\u516c\u8eca","operator":"\u81fa\u5357\u5e02\u516c\u8eca","public_transport":"platform"},"geometry":{"type":"Point","coordinates":[120.2607979,23.0043767]}},{"type":"Feature","properties":{"bus":"yes","highway":"bus_stop","name":"\u571f\u5eab","network":"\u81fa\u5357\u5e02\u516c\u8eca","operator":"\u81fa\u5357\u5e02\u516c\u8eca","public_transport":"platform"},"geometry":{"type":"Point","coordinates":[120.2581722,22.9876317]}},{"type":"Feature","properties":{"bus":"yes","highway":"bus_stop","name":"\u6f22\u5e73\u516c\u53f8","network":"\u81fa\u5357\u5e02\u516c\u8eca","operator":"\u81fa\u5357\u5e02\u516c\u8eca","public_transport":"platform"},"geometry":{"type":"Point","coordinates":[120.2550749,22.9786117]}},{"type":"Feature","properties":{"bus":"yes","highway":"bus_stop","name":"\u4e00\u7532\u5edf\u8def\u53e3","network":"\u81fa\u5357\u5e02\u516c\u8eca","operator":"\u81fa\u5357\u5e02\u516c\u8eca","public_transport":"platform"},"geometry":{"type":"Point","coordinates":[120.2540873,22.9770398]}},{"type":"Feature","properties":{"bus":"yes","highway":"bus_stop","name":"\u4ec1\u5fb7\u516c\u6240","network":"\u81fa\u5357\u5e02\u516c\u8eca","operator":"\u81fa\u5357\u5e02\u516c\u8eca","public_transport":"platform"},"geometry":{"type":"Point","coordinates":[120.2518866,22.9725256]}},{"type":"Feature","properties":{"bus":"yes","highway":"bus_stop","name":"\u4ec1\u5fb7","network":"\u81fa\u5357\u5e02\u516c\u8eca","note":"\u8208\u5357\u5ba2\u904b","operator":"\u81fa\u5357\u5e02\u516c\u8eca","public_transport":"platform"},"geometry":{"type":"Point","coordinates":[120.2520464,22.9714696]}},{"type":"Feature","properties":{"bus":"yes","highway":"bus_stop","name":"\u4ec1\u7fa9\u91cc","network":"\u81fa\u5357\u5e02\u516c\u8eca","note":"\u8208\u5357\u5ba2\u904b","operator":"\u81fa\u5357\u5e02\u516c\u8eca","public_transport":"platform"},"geometry":{"type":"Point","coordinates":[120.2557111,22.971064]}},{"type":"Feature","properties":{"bus":"yes","highway":"bus_stop","name":"\u937e\u539d","network":"\u81fa\u5357\u5e02\u516c\u8eca","operator":"\u81fa\u5357\u5e02\u516c\u8eca","public_transport":"platform","ref":"1516"},"geometry":{"type":"Point","coordinates":[120.258013,22.9708035]}},{"type":"Feature","properties":{"bus":"yes","highway":"bus_stop","name":"\u6148\u6fdf\u53f0\u5357\u5206\u6703","network":"\u81fa\u5357\u5e02\u516c\u8eca","note":"\u8208\u5357\u5ba2\u904b","operator":"\u81fa\u5357\u5e02\u516c\u8eca","public_transport":"platform"},"geometry":{"type":"Point","coordinates":[120.2604222,22.9705295]}},{"type":"Feature","properties":{"bus":"yes","highway":"bus_stop","name":"\u7fa9\u6797\u4e00\u8857\u53e3","network":"\u81fa\u5357\u5e02\u516c\u8eca","note":"\u8208\u5357\u5ba2\u904b","operator":"\u81fa\u5357\u5e02\u516c\u8eca","public_transport":"platform","ref":"8374"},"geometry":{"type":"Point","coordinates":[120.2621061,22.9703476]}},{"type":"Feature","properties":{"bus":"yes","highway":"bus_stop","name":"\u6797\u4ed4","network":"\u81fa\u5357\u5e02\u516c\u8eca","note":"\u8208\u5357\u5ba2\u904b","operator":"\u81fa\u5357\u5e02\u516c\u8eca","public_transport":"platform"},"geometry":{"type":"Point","coordinates":[120.2648953,22.9700091]}},{"type":"Feature","properties":{"bus":"yes","highway":"bus_stop","name":"\u8c9d\u6c5d\u6d41\u901a","network":"\u81fa\u5357\u5e02\u516c\u8eca","note":"\u8208\u5357\u5ba2\u904b","operator":"\u81fa\u5357\u5e02\u516c\u8eca","public_transport":"platform"},"geometry":{"type":"Point","coordinates":[120.2703992,22.9694076]}},{"type":"Feature","properties":{"bus":"yes","highway":"bus_stop","name":"\u4e0a\u5e1d\u5edf","network":"\u81fa\u5357\u5e02\u516c\u8eca","note":"\u8208\u5357\u5ba2\u904b","operator":"\u81fa\u5357\u5e02\u516c\u8eca","public_transport":"platform"},"geometry":{"type":"Point","coordinates":[120.2738244,22.9689566]}},{"type":"Feature","properties":{"bus":"yes","highway":"bus_stop","name":"\u5357\u8208\u91cc","network":"\u81fa\u5357\u5e02\u516c\u8eca","note":"\u8208\u5357\u5ba2\u904b","operator":"\u81fa\u5357\u5e02\u516c\u8eca","public_transport":"platform"},"geometry":{"type":"Point","coordinates":[120.2775111,22.9685692]}},{"type":"Feature","properties":{"bus":"yes","highway":"bus_stop","name":"\u5357\u4fdd","network":"\u81fa\u5357\u5e02\u516c\u8eca","note":"\u8208\u5357\u5ba2\u904b","operator":"\u81fa\u5357\u5e02\u516c\u8eca","public_transport":"platform"},"geometry":{"type":"Point","coordinates":[120.2815589,22.9680895]}},{"type":"Feature","properties":{"bus":"yes","highway":"bus_stop","name":"\u59d3\u674e\u4ed4","network":"\u81fa\u5357\u5e02\u516c\u8eca","note":"\u8208\u5357\u5ba2\u904b","operator":"\u81fa\u5357\u5e02\u516c\u8eca","public_transport":"platform"},"geometry":{"type":"Point","coordinates":[120.2854749,22.9676324]}},{"type":"Feature","properties":{"bus":"yes","highway":"bus_stop","name":"\u5f8c\u5e02","network":"\u81fa\u5357\u5e02\u516c\u8eca","note":"\u8208\u5357\u5ba2\u904b","operator":"\u81fa\u5357\u5e02\u516c\u8eca","public_transport":"platform"},"geometry":{"type":"Point","coordinates":[120.2893284,22.9671997]}},{"type":"Feature","properties":{"bus":"yes","highway":"bus_stop","name":"\u6b78\u4ec1\u516c\u6240","name:en":"Gueiren District Office","name:zh":"\u6b78\u4ec1\u516c\u6240","network":"\u81fa\u5357\u5e02\u516c\u8eca","operator":"\u81fa\u5357\u5e02\u516c\u8eca","public_transport":"platform","ref":"1526"},"geometry":{"type":"Point","coordinates":[120.2936716,22.966707]}},{"type":"Feature","properties":{"bus":"yes","highway":"bus_stop","name":"\u6b78\u4ec1\u5e02\u5834","network":"\u81fa\u5357\u5e02\u516c\u8eca","operator":"\u81fa\u5357\u5e02\u516c\u8eca","public_transport":"platform"},"geometry":{"type":"Point","coordinates":[120.295935,22.9664113]}},{"type":"Feature","properties":{"bus":"yes","highway":"bus_stop","name":"\u6b78\u4ec1\u6587\u5316\u4e2d\u5fc3","network":"\u81fa\u5357\u5e02\u516c\u8eca","operator":"\u81fa\u5357\u5e02\u516c\u8eca","public_transport":"platform","ref":"8942"},"geometry":{"type":"Point","coordinates":[120.2981955,22.9661777]}},{"type":"Feature","properties":{"bus":"yes","highway":"bus_stop","name":"\u5584\u5316\u5bfa","network":"\u81fa\u5357\u5e02\u516c\u8eca","note":"\u8208\u5357\u5ba2\u904b","operator":"\u81fa\u5357\u5e02\u516c\u8eca","public_transport":"platform"},"geometry":{"type":"Point","coordinates":[120.3007044,22.9658798]}},{"type":"Feature","properties":{"bus":"yes","highway":"bus_stop","name":"\u770b\u6771\u91cc","network":"\u81fa\u5357\u5e02\u516c\u8eca","note":"\u8208\u5357\u5ba2\u904b","operator":"\u81fa\u5357\u5e02\u516c\u8eca","public_transport":"platform"},"geometry":{"type":"Point","coordinates":[120.303944,22.9652039]}},{"type":"Feature","properties":{"bus":"yes","highway":"bus_stop","name":"\u4fee\u5143\u5802","network":"\u81fa\u5357\u5e02\u516c\u8eca","note":"\u8208\u5357\u5ba2\u904b","operator":"\u81fa\u5357\u5e02\u516c\u8eca","public_transport":"platform"},"geometry":{"type":"Point","coordinates":[120.30706,22.9641986]}},{"type":"Feature","properties":{"bus":"yes","highway":"bus_stop","name":"\u6b78\u4ec1\u4ea4\u6d41\u9053","network":"\u81fa\u5357\u5e02\u516c\u8eca","note":"\u8208\u5357\u5ba2\u904b","operator":"\u81fa\u5357\u5e02\u516c\u8eca","public_transport":"platform"},"geometry":{"type":"Point","coordinates":[120.3128615,22.962492]}},{"type":"Feature","properties":{"bus":"yes","highway":"bus_stop","name":"\u5927\u4e9e\u516c\u53f8","network":"\u81fa\u5357\u5e02\u516c\u8eca","note":"\u8208\u5357\u5ba2\u904b","operator":"\u81fa\u5357\u5e02\u516c\u8eca","public_transport":"platform"},"geometry":{"type":"Point","coordinates":[120.3165214,22.9617066]}},{"type":"Feature","properties":{"bus":"yes","highway":"bus_stop","name":"\u95dc\u5edf\u570b\u4e2d","network":"\u81fa\u5357\u5e02\u516c\u8eca","note":"\u8208\u5357\u5ba2\u904b","operator":"\u81fa\u5357\u5e02\u516c\u8eca","public_transport":"platform","ref":"1533"},"geometry":{"type":"Point","coordinates":[120.3248457,22.9603171]}},{"type":"Feature","properties":{"bus":"yes","highway":"bus_stop","name":"\u5f97\u7389\u8208\u66f8\u5c40","network":"\u81fa\u5357\u5e02\u516c\u8eca","note":"\u8208\u5357\u5ba2\u904b","operator":"\u81fa\u5357\u5e02\u516c\u8eca","public_transport":"platform"},"geometry":{"type":"Point","coordinates":[120.3292478,22.9594043]}},{"type":"Feature","properties":{"bus":"yes","highway":"bus_stop","name":"\u5317\u52e2\u91cc[\u7d0510]","network":"\u81fa\u5357\u5e02\u516c\u8eca","note":"\u8208\u5357\u5ba2\u904b","operator":"\u81fa\u5357\u5e02\u516c\u8eca","public_transport":"platform","ref":"3349"},"geometry":{"type":"Point","coordinates":[120.330613,22.9619697]}},{"type":"Feature","properties":{"bus":"yes","highway":"bus_stop","name":"\u95dc\u5edf\u516c\u6240","network":"\u81fa\u5357\u5e02\u516c\u8eca","note":"\u8208\u5357\u5ba2\u904b","operator":"\u81fa\u5357\u5e02\u516c\u8eca","public_transport":"platform"},"geometry":{"type":"Point","coordinates":[120.327626,22.9628331]}},{"type":"Feature","properties":{"bus":"yes","highway":"bus_stop","name":"\u5317\u52e2\u91cc\u6d3b\u52d5\u4e2d\u5fc3","network":"\u81fa\u5357\u5e02\u516c\u8eca","note":"\u8208\u5357\u5ba2\u904b","operator":"\u81fa\u5357\u5e02\u516c\u8eca","public_transport":"platform","ref":"3349"},"geometry":{"type":"Point","coordinates":[120.3321657,22.9641008]}},{"type":"Feature","properties":{"bus":"yes","highway":"bus_stop","name":"\u95dc\u5edf\u8f49\u904b\u7ad9","network":"\u81fa\u5357\u5e02\u516c\u8eca","note":"\u8fd4\u7a0b","operator":"\u81fa\u5357\u5e02\u516c\u8eca","public_transport":"platform","ref":"3347"},"geometry":{"type":"Point","coordinates":[120.3372556,22.9636506]}},{"type":"Feature","properties":{"from":"\u5947\u7f8e\u91ab\u9662","name":"\u7d0510(\u6b63\u7dda_\u8fd4\u7a0b)","public_transport:version":"2","ref":"\u7d0510","route":"bus","to":"\u95dc\u5edf\u516c\u6240","type":"route"},"geometry":{"type":"LineString","coordinates":[[120.2214288,23.0210243],[120.2215394,23.0209362],[120.2216765,23.0208871],[120.2218,23.0208843],[120.2218823,23.0209152],[120.2220699,23.0210883]]}},{"type":"Feature","properties":{"from":"\u5947\u7f8e\u91ab\u9662","name":"\u7d0510(\u6b63\u7dda_\u8fd4\u7a0b)","public_transport:version":"2","ref":"\u7d0510","route":"bus","to":"\u95dc\u5edf\u516c\u6240","type":"route"},"geometry":{"type":"LineString","coordinates":[[120.2220699,23.0210883],[120.2223193,23.0209304]]}},{"type":"Feature","properties":{"from":"\u5947\u7f8e\u91ab\u9662","name":"\u7d0510(\u6b63\u7dda_\u8fd4\u7a0b)","public_transport:version":"2","ref":"\u7d0510","route":"bus","to":"\u95dc\u5edf\u516c\u6240","type":"route"},"geometry":{"type":"LineString","coordinates":[[120.2223193,23.0209304],[120.2244181,23.0196275],[120.2257126,23.0188139]]}},{"type":"Feature","properties":{"from":"\u5947\u7f8e\u91ab\u9662","name":"\u7d0510(\u6b63\u7dda_\u8fd4\u7a0b)","public_transport:version":"2","ref":"\u7d0510","route":"bus","to":"\u95dc\u5edf\u516c\u6240","type":"route"},"geometry":{"type":"LineString","coordinates":[[120.2257126,23.0188139],[120.2257679,23.0187907],[120.2267134,23.0181675],[120.2270225,23.0179623],[120.2272579,23.017796],[120.2280941,23.0170974]]}},{"type":"Feature","properties":{"from":"\u5947\u7f8e\u91ab\u9662","name":"\u7d0510(\u6b63\u7dda_\u8fd4\u7a0b)","public_transport:version":"2","ref":"\u7d0510","route":"bus","to":"\u95dc\u5edf\u516c\u6240","type":"route"},"geometry":{"type":"LineString","coordinates":[[120.2280941,23.0170974],[120.2284508,23.0167492],[120.2288351,23.0162901],[120.2293108,23.0156401],[120.2299561,23.0146257],[120.2300005,23.0145559],[120.2303994,23.0139189],[120.2307341,23.0134165]]}},{"type":"Feature","properties":{"from":"\u5947\u7f8e\u91ab\u9662","name":"\u7d0510(\u6b63\u7dda_\u8fd4\u7a0b)","public_transport:version":"2","ref":"\u7d0510","route":"bus","to":"\u95dc\u5edf\u516c\u6240","type":"route"},"geometry":{"type":"LineString","coordinates":[[120.2307341,23.0134165],[120.2308306,23.0134634]]}},{"type":"Feature","properties":{"from":"\u5947\u7f8e\u91ab\u9662","name":"\u7d0510(\u6b63\u7dda_\u8fd4\u7a0b)","public_transport:version":"2","ref":"\u7d0510","route":"bus","to":"\u95dc\u5edf\u516c\u6240","type":"route"},"geometry":{"type":"LineString","coordinates":[[120.2572937,23.0259927],[120.2571408,23.0259581],[120.256818,23.0258809],[120.2563611,23.0257341],[120.2557751,23.0255556],[120.2550159,23.0251186],[120.2546291,23.0248798],[120.2544326,23.0247522],[120.2538588,23.0243924],[120.2537961,23.024357],[120.2535005,23.0242078],[120.2526834,23.0237751],[120.251903,23.0233466],[120.2501609,23.0223362],[120.2498028,23.0220768],[120.2493044,23.0218817],[120.2486285,23.0216087],[120.2485855,23.0215829],[120.2470506,23.0210726],[120.2459133,23.020696],[120.2456441,23.0205793],[120.2450518,23.0204051],[120.2446568,23.0202627],[120.2444197,23.0202013],[120.2440715,23.0201382],[120.2433196,23.0200799],[120.2430393,23.0200334],[120.2428501,23.0199641],[120.2424577,23.0197653],[120.2422233,23.0196237],[120.2420395,23.0194997],[120.2419336,23.0194282],[120.2417929,23.0193396],[120.241421,23.0191056],[120.2412225,23.0189822],[120.2408077,23.0187258],[120.2406613,23.0186353],[120.2401034,23.0182949],[120.2399394,23.0181922],[120.2395758,23.017954],[120.2393376,23.0177979],[120.2392746,23.0177571],[120.2392089,23.0177083],[120.2388619,23.0174491],[120.2388156,23.0174096],[120.2384556,23.0171927],[120.2379463,23.0168598],[120.2372148,23.0163789],[120.2371702,23.0163471],[120.2362829,23.0157149],[120.2362071,23.0156754],[120.2358073,23.0154142],[120.2356569,23.015291],[120.2352503,23.0150499],[120.2351284,23.0149689],[120.2348486,23.0147971],[120.2345534,23.0146348],[120.2341586,23.0144805],[120.2340499,23.01442],[120.2335478,23.0142923],[120.2320431,23.0138543],[120.2308306,23.0134634]]}},{"type":"Feature","properties":{"from":"\u5947\u7f8e\u91ab\u9662","name":"\u7d0510(\u6b63\u7dda_\u8fd4\u7a0b)","public_transport:version":"2","ref":"\u7d0510","route":"bus","to":"\u95dc\u5edf\u516c\u6240","type":"route"},"geometry":{"type":"LineString","coordinates":[[120.2547147,23.0351386],[120.2550406,23.0339637],[120.2552513,23.0332532],[120.2554215,23.0326616],[120.2556159,23.0319902],[120.2556642,23.0318002],[120.2558372,23.0312028],[120.2561135,23.0302611],[120.2561403,23.0301685],[120.256269,23.0297155],[120.2564179,23.0291922],[120.2565627,23.0285747],[120.256603,23.0284303],[120.2567948,23.0277502],[120.2568444,23.0274959],[120.2571931,23.0263728],[120.2572937,23.0259927]]}},{"type":"Feature","properties":{"from":"\u5947\u7f8e\u91ab\u9662","name":"\u7d0510(\u6b63\u7dda_\u8fd4\u7a0b)","public_transport:version":"2","ref":"\u7d0510","route":"bus","to":"\u95dc\u5edf\u516c\u6240","type":"route"},"geometry":{"type":"LineString","coordinates":[[120.2515779,23.035341],[120.2519614,23.0353139],[120.2531618,23.0352296],[120.2538242,23.0351831],[120.2542171,23.035167],[120.2547147,23.0351386]]}},{"type":"Feature","properties":{"from":"\u5947\u7f8e\u91ab\u9662","name":"\u7d0510(\u6b63\u7dda_\u8fd4\u7a0b)","public_transport:version":"2","ref":"\u7d0510","route":"bus","to":"\u95dc\u5edf\u516c\u6240","type":"route"},"geometry":{"type":"LineString","coordinates":[[120.2512614,23.0362562],[120.2514444,23.0356977],[120.2515779,23.035341]]}},{"type":"Feature","properties":{"from":"\u5947\u7f8e\u91ab\u9662","name":"\u7d0510(\u6b63\u7dda_\u8fd4\u7a0b)","public_transport:version":"2","ref":"\u7d0510","route":"bus","to":"\u95dc\u5edf\u516c\u6240","type":"route"},"geometry":{"type":"LineString","coordinates":[[120.2512614,23.0362562],[120.2518514,23.0364752],[120.2523698,23.0366028],[120.2528023,23.0367155],[120.25305,23.0367752],[120.2534957,23.0368665],[120.2537243,23.0369134],[120.2538321,23.0369355],[120.2541748,23.0370064]]}},{"type":"Feature","properties":{"from":"\u5947\u7f8e\u91ab\u9662","name":"\u7d0510(\u6b63\u7dda_\u8fd4\u7a0b)","public_transport:version":"2","ref":"\u7d0510","route":"bus","to":"\u95dc\u5edf\u516c\u6240","type":"route"},"geometry":{"type":"LineString","coordinates":[[120.2547147,23.0351386],[120.2544379,23.0360568],[120.2542683,23.036669],[120.2541748,23.0370064]]}},{"type":"Feature","properties":{"from":"\u5947\u7f8e\u91ab\u9662","name":"\u7d0510(\u6b63\u7dda_\u8fd4\u7a0b)","public_transport:version":"2","ref":"\u7d0510","route":"bus","to":"\u95dc\u5edf\u516c\u6240","type":"route"},"geometry":{"type":"LineString","coordinates":[[120.2547147,23.0351386],[120.2562033,23.0350038],[120.2568926,23.0349254],[120.258039,23.0347794],[120.258907,23.0346817],[120.2594493,23.0346426]]}},{"type":"Feature","properties":{"from":"\u5947\u7f8e\u91ab\u9662","name":"\u7d0510(\u6b63\u7dda_\u8fd4\u7a0b)","public_transport:version":"2","ref":"\u7d0510","route":"bus","to":"\u95dc\u5edf\u516c\u6240","type":"route"},"geometry":{"type":"LineString","coordinates":[[120.2594493,23.0346426],[120.2595238,23.0340217],[120.2597459,23.0325939],[120.2600163,23.0306127],[120.2603467,23.0286852],[120.2604112,23.0283492],[120.2605757,23.0274034]]}},{"type":"Feature","properties":{"from":"\u5947\u7f8e\u91ab\u9662","name":"\u7d0510(\u6b63\u7dda_\u8fd4\u7a0b)","public_transport:version":"2","ref":"\u7d0510","route":"bus","to":"\u95dc\u5edf\u516c\u6240","type":"route"},"geometry":{"type":"LineString","coordinates":[[120.2605757,23.0274034],[120.2606814,23.0263601],[120.2608379,23.0246659]]}},{"type":"Feature","properties":{"from":"\u5947\u7f8e\u91ab\u9662","name":"\u7d0510(\u6b63\u7dda_\u8fd4\u7a0b)","public_transport:version":"2","ref":"\u7d0510","route":"bus","to":"\u95dc\u5edf\u516c\u6240","type":"route"},"geometry":{"type":"LineString","coordinates":[[120.2608379,23.0246659],[120.2610833,23.0232165],[120.2611384,23.0227839],[120.2612716,23.021723],[120.2613768,23.0213725],[120.2616514,23.0207511],[120.2619363,23.0200234],[120.2620712,23.0195819],[120.2622123,23.0190342],[120.2624288,23.0182971],[120.2626498,23.0176751],[120.2627582,23.0172471],[120.2630275,23.0163938],[120.2634538,23.0148944],[120.263534,23.0146207],[120.2636983,23.0139962]]}},{"type":"Feature","properties":{"from":"\u5947\u7f8e\u91ab\u9662","name":"\u7d0510(\u6b63\u7dda_\u8fd4\u7a0b)","public_transport:version":"2","ref":"\u7d0510","route":"bus","to":"\u95dc\u5edf\u516c\u6240","type":"route"},"geometry":{"type":"LineString","coordinates":[[120.2636983,23.0139962],[120.2637306,23.0138357],[120.2637233,23.0134882],[120.2636801,23.013298],[120.263559,23.0128465],[120.2634574,23.012439],[120.2634053,23.0123141],[120.2631631,23.0115155],[120.2629009,23.0106178],[120.2625455,23.0092594],[120.262412,23.0088015],[120.2622515,23.008332],[120.2621761,23.0079643],[120.261976,23.0073358],[120.2618483,23.006895]]}},{"type":"Feature","properties":{"from":"\u5947\u7f8e\u91ab\u9662","name":"\u7d0510(\u6b63\u7dda_\u8fd4\u7a0b)","public_transport:version":"2","ref":"\u7d0510","route":"bus","to":"\u95dc\u5edf\u516c\u6240","type":"route"},"geometry":{"type":"LineString","coordinates":[[120.2618483,23.006895],[120.2615091,23.00599],[120.261136,23.0050238]]}},{"type":"Feature","properties":{"from":"\u5947\u7f8e\u91ab\u9662","name":"\u7d0510(\u6b63\u7dda_\u8fd4\u7a0b)","public_transport:version":"2","ref":"\u7d0510","route":"bus","to":"\u95dc\u5edf\u516c\u6240","type":"route"},"geometry":{"type":"LineString","coordinates":[[120.261136,23.0050238],[120.2609006,23.0043965],[120.2608077,23.0041835],[120.2607141,23.0039685],[120.260464,23.0033294],[120.2603403,23.0030248],[120.2601031,23.0024512],[120.259756,23.001583],[120.2594032,23.0006856],[120.2592663,23.0003689],[120.2592089,23.0002062]]}},{"type":"Feature","properties":{"from":"\u5947\u7f8e\u91ab\u9662","name":"\u7d0510(\u6b63\u7dda_\u8fd4\u7a0b)","public_transport:version":"2","ref":"\u7d0510","route":"bus","to":"\u95dc\u5edf\u516c\u6240","type":"route"},"geometry":{"type":"LineString","coordinates":[[120.2592089,23.0002062],[120.259173,23.0001175],[120.2590249,22.9997512],[120.2582723,22.9978901],[120.258207,22.9977285],[120.2573,22.9954854],[120.2565542,22.993641],[120.2565217,22.9935606]]}},{"type":"Feature","properties":{"from":"\u5947\u7f8e\u91ab\u9662","name":"\u7d0510(\u6b63\u7dda_\u8fd4\u7a0b)","public_transport:version":"2","ref":"\u7d0510","route":"bus","to":"\u95dc\u5edf\u516c\u6240","type":"route"},"geometry":{"type":"LineString","coordinates":[[120.2565217,22.9935606],[120.2564085,22.9932823]]}},{"type":"Feature","properties":{"from":"\u5947\u7f8e\u91ab\u9662","name":"\u7d0510(\u6b63\u7dda_\u8fd4\u7a0b)","public_transport:version":"2","ref":"\u7d0510","route":"bus","to":"\u95dc\u5edf\u516c\u6240","type":"route"},"geometry":{"type":"LineString","coordinates":[[120.2564085,22.9932823],[120.255663,22.9914399]]}},{"type":"Feature","properties":{"from":"\u5947\u7f8e\u91ab\u9662","name":"\u7d0510(\u6b63\u7dda_\u8fd4\u7a0b)","public_transport:version":"2","ref":"\u7d0510","route":"bus","to":"\u95dc\u5edf\u516c\u6240","type":"route"},"geometry":{"type":"LineString","coordinates":[[120.255663,22.9914399],[120.2556656,22.9912658],[120.2556653,22.9910628],[120.2556865,22.9908232],[120.255729,22.9906233],[120.2557968,22.990435],[120.2558737,22.9902876],[120.2559657,22.9901358],[120.2562383,22.9898169],[120.2575861,22.9883869],[120.2582619,22.987645],[120.2584536,22.9874321],[120.2587401,22.9871637],[120.2587817,22.9870508]]}},{"type":"Feature","properties":{"from":"\u5947\u7f8e\u91ab\u9662","name":"\u7d0510(\u6b63\u7dda_\u8fd4\u7a0b)","public_transport:version":"2","ref":"\u7d0510","route":"bus","to":"\u95dc\u5edf\u516c\u6240","type":"route"},"geometry":{"type":"LineString","coordinates":[[120.2587817,22.9870508],[120.25867,22.9862958],[120.258396,22.9840479],[120.2583703,22.9838136],[120.2583065,22.9833448],[120.2582347,22.9830074],[120.2581495,22.9827766],[120.2580412,22.9825017]]}},{"type":"Feature","properties":{"from":"\u5947\u7f8e\u91ab\u9662","name":"\u7d0510(\u6b63\u7dda_\u8fd4\u7a0b)","public_transport:version":"2","ref":"\u7d0510","route":"bus","to":"\u95dc\u5edf\u516c\u6240","type":"route"},"geometry":{"type":"LineString","coordinates":[[120.2580412,22.9825017],[120.2579165,22.9823124],[120.2577575,22.9821128],[120.2574316,22.9817267],[120.256311,22.9802505],[120.2562959,22.9800755]]}},{"type":"Feature","properties":{"from":"\u5947\u7f8e\u91ab\u9662","name":"\u7d0510(\u6b63\u7dda_\u8fd4\u7a0b)","public_transport:version":"2","ref":"\u7d0510","route":"bus","to":"\u95dc\u5edf\u516c\u6240","type":"route"},"geometry":{"type":"LineString","coordinates":[[120.2562959,22.9800755],[120.2556159,22.9791427],[120.2552239,22.978662],[120.2549422,22.9783014],[120.2546848,22.9779471],[120.2545118,22.9776853],[120.2540383,22.9766037],[120.253518,22.9755073],[120.2532404,22.9749319],[120.2527841,22.9740275],[120.2527609,22.973973],[120.2526141,22.9736674],[120.2524185,22.9732839],[120.2521866,22.9727956],[120.2519254,22.9722558],[120.2516673,22.9716483]]}},{"type":"Feature","properties":{"from":"\u5947\u7f8e\u91ab\u9662","name":"\u7d0510(\u6b63\u7dda_\u8fd4\u7a0b)","public_transport:version":"2","ref":"\u7d0510","route":"bus","to":"\u95dc\u5edf\u516c\u6240","type":"route"},"geometry":{"type":"LineString","coordinates":[[120.2516673,22.9716483],[120.2516371,22.9715433]]}},{"type":"Feature","properties":{"from":"\u5947\u7f8e\u91ab\u9662","name":"\u7d0510(\u6b63\u7dda_\u8fd4\u7a0b)","public_transport:version":"2","ref":"\u7d0510","route":"bus","to":"\u95dc\u5edf\u516c\u6240","type":"route"},"geometry":{"type":"LineString","coordinates":[[120.2516371,22.9715433],[120.2525191,22.9714441],[120.2532127,22.9713734],[120.2542036,22.9712462],[120.2543438,22.9712282],[120.2544352,22.9712178],[120.2553266,22.9711164],[120.2559561,22.9710573],[120.2594438,22.9706653],[120.2601126,22.9706133],[120.2618353,22.9704175],[120.2628867,22.9702942],[120.2639087,22.9701523],[120.2656888,22.9699725],[120.2664332,22.9698848],[120.2681441,22.9696948],[120.2688387,22.9696113],[120.2692116,22.9695619],[120.2709081,22.9693563],[120.2715365,22.9693009]]}},{"type":"Feature","properties":{"from":"\u5947\u7f8e\u91ab\u9662","name":"\u7d0510(\u6b63\u7dda_\u8fd4\u7a0b)","public_transport:version":"2","ref":"\u7d0510","route":"bus","to":"\u95dc\u5edf\u516c\u6240","type":"route"},"geometry":{"type":"LineString","coordinates":[[120.2715365,22.9693009],[120.2719244,22.9692453]]}},{"type":"Feature","properties":{"from":"\u5947\u7f8e\u91ab\u9662","name":"\u7d0510(\u6b63\u7dda_\u8fd4\u7a0b)","public_transport:version":"2","ref":"\u7d0510","route":"bus","to":"\u95dc\u5edf\u516c\u6240","type":"route"},"geometry":{"type":"LineString","coordinates":[[120.2719244,22.9692453],[120.272186,22.9692064]]}},{"type":"Feature","properties":{"from":"\u5947\u7f8e\u91ab\u9662","name":"\u7d0510(\u6b63\u7dda_\u8fd4\u7a0b)","public_transport:version":"2","ref":"\u7d0510","route":"bus","to":"\u95dc\u5edf\u516c\u6240","type":"route"},"geometry":{"type":"LineString","coordinates":[[120.272186,22.9692064],[120.2725408,22.9691662],[120.2752264,22.9688621],[120.2764985,22.9687181],[120.2776487,22.9685879],[120.2796239,22.9683642],[120.2810049,22.9682078],[120.2825242,22.9680358],[120.2831239,22.9679679],[120.2840545,22.9678625],[120.2842185,22.9678439],[120.286016,22.9676404],[120.2864893,22.9675868],[120.2878871,22.9674285]]}},{"type":"Feature","properties":{"from":"\u5947\u7f8e\u91ab\u9662","name":"\u7d0510(\u6b63\u7dda_\u8fd4\u7a0b)","public_transport:version":"2","ref":"\u7d0510","route":"bus","to":"\u95dc\u5edf\u516c\u6240","type":"route"},"geometry":{"type":"LineString","coordinates":[[120.2878871,22.9674285],[120.2887142,22.9673349],[120.2890449,22.9672974],[120.2900391,22.9671849],[120.2901931,22.9671674],[120.2907215,22.9671076],[120.2922333,22.9669364],[120.2928851,22.9668626],[120.2939859,22.9667379]]}},{"type":"Feature","properties":{"from":"\u5947\u7f8e\u91ab\u9662","name":"\u7d0510(\u6b63\u7dda_\u8fd4\u7a0b)","public_transport:version":"2","ref":"\u7d0510","route":"bus","to":"\u95dc\u5edf\u516c\u6240","type":"route"},"geometry":{"type":"LineString","coordinates":[[120.293992,22.9667946],[120.2939859,22.9667379],[120.2939934,22.9666764],[120.2940152,22.9666178],[120.2940502,22.9665649],[120.2940969,22.9665202],[120.2941529,22.9664859],[120.2942157,22.9664636],[120.2942852,22.9664542],[120.2943552,22.9664595],[120.2944222,22.9664792],[120.2944825,22.9665123],[120.2945332,22.9665571],[120.2945716,22.9666114],[120.2945957,22.9666721],[120.294604,22.9667288],[120.2945999,22.9667859],[120.2945903,22.9668232],[120.2945753,22.9668589],[120.2945552,22.9668925],[120.2945303,22.9669233],[120.2945012,22.9669508],[120.2944684,22.9669744],[120.2944324,22.9669937],[120.2943939,22.9670084],[120.2943536,22.9670182],[120.2943013,22.9670232],[120.2942488,22.9670201],[120.2941977,22.9670088],[120.2941493,22.9669897],[120.2941052,22.9669633],[120.2940666,22.9669304],[120.2940346,22.966892],[120.2940101,22.9668491],[120.293992,22.9667946]]}},{"type":"Feature","properties":{"from":"\u5947\u7f8e\u91ab\u9662","name":"\u7d0510(\u6b63\u7dda_\u8fd4\u7a0b)","public_transport:version":"2","ref":"\u7d0510","route":"bus","to":"\u95dc\u5edf\u516c\u6240","type":"route"},"geometry":{"type":"LineString","coordinates":[[120.2945957,22.9666721],[120.2961704,22.9664508],[120.2963382,22.9664287]]}},{"type":"Feature","properties":{"from":"\u5947\u7f8e\u91ab\u9662","name":"\u7d0510(\u6b63\u7dda_\u8fd4\u7a0b)","public_transport:version":"2","ref":"\u7d0510","route":"bus","to":"\u95dc\u5edf\u516c\u6240","type":"route"},"geometry":{"type":"LineString","coordinates":[[120.2963382,22.9664287],[120.2971518,22.9663424],[120.2974559,22.9663101],[120.2977815,22.9662756],[120.3005538,22.9659815],[120.3010319,22.965924],[120.3017544,22.9658372],[120.3023435,22.9657664],[120.3028552,22.9657049]]}},{"type":"Feature","properties":{"from":"\u5947\u7f8e\u91ab\u9662","name":"\u7d0510(\u6b63\u7dda_\u8fd4\u7a0b)","public_transport:version":"2","ref":"\u7d0510","route":"bus","to":"\u95dc\u5edf\u516c\u6240","type":"route"},"geometry":{"type":"LineString","coordinates":[[120.3028552,22.9657049],[120.3031282,22.9656248],[120.3037259,22.9654518],[120.3040928,22.9653456],[120.308495,22.9640323],[120.3086714,22.9639752],[120.3092309,22.9638323],[120.3095885,22.9637233],[120.3098294,22.963657],[120.3100685,22.9635915],[120.310653,22.9634278],[120.3113999,22.9632031],[120.3130733,22.9627097],[120.3136908,22.9625483]]}},{"type":"Feature","properties":{"from":"\u5947\u7f8e\u91ab\u9662","name":"\u7d0510(\u6b63\u7dda_\u8fd4\u7a0b)","public_transport:version":"2","ref":"\u7d0510","route":"bus","to":"\u95dc\u5edf\u516c\u6240","type":"route"},"geometry":{"type":"LineString","coordinates":[[120.3136908,22.9625483],[120.3149703,22.9622138],[120.3161156,22.9619689],[120.3186656,22.9615111],[120.3219329,22.9609236],[120.3238185,22.9605723],[120.3240411,22.9605569]]}},{"type":"Feature","properties":{"from":"\u5947\u7f8e\u91ab\u9662","name":"\u7d0510(\u6b63\u7dda_\u8fd4\u7a0b)","public_transport:version":"2","ref":"\u7d0510","route":"bus","to":"\u95dc\u5edf\u516c\u6240","type":"route"},"geometry":{"type":"LineString","coordinates":[[120.3249927,22.9604061],[120.3248319,22.9604418],[120.3240411,22.9605569]]}},{"type":"Feature","properties":{"from":"\u5947\u7f8e\u91ab\u9662","name":"\u7d0510(\u6b63\u7dda_\u8fd4\u7a0b)","public_transport:version":"2","ref":"\u7d0510","route":"bus","to":"\u95dc\u5edf\u516c\u6240","type":"route"},"geometry":{"type":"LineString","coordinates":[[120.3260302,22.9602204],[120.3253322,22.9603405],[120.3249927,22.9604061]]}},{"type":"Feature","properties":{"from":"\u5947\u7f8e\u91ab\u9662","name":"\u7d0510(\u6b63\u7dda_\u8fd4\u7a0b)","public_transport:version":"2","ref":"\u7d0510","route":"bus","to":"\u95dc\u5edf\u516c\u6240","type":"route"},"geometry":{"type":"LineString","coordinates":[[120.3268571,22.9600705],[120.3265416,22.9601353],[120.3261864,22.9601873],[120.3260302,22.9602204]]}},{"type":"Feature","properties":{"from":"\u5947\u7f8e\u91ab\u9662","name":"\u7d0510(\u6b63\u7dda_\u8fd4\u7a0b)","public_transport:version":"2","ref":"\u7d0510","route":"bus","to":"\u95dc\u5edf\u516c\u6240","type":"route"},"geometry":{"type":"LineString","coordinates":[[120.3278794,22.9598795],[120.3272239,22.960002],[120.3268571,22.9600705]]}},{"type":"Feature","properties":{"from":"\u5947\u7f8e\u91ab\u9662","name":"\u7d0510(\u6b63\u7dda_\u8fd4\u7a0b)","public_transport:version":"2","ref":"\u7d0510","route":"bus","to":"\u95dc\u5edf\u516c\u6240","type":"route"},"geometry":{"type":"LineString","coordinates":[[120.3301544,22.9592607],[120.32959,22.9594066],[120.3284258,22.9597407],[120.3278794,22.9598795]]}},{"type":"Feature","properties":{"from":"\u5947\u7f8e\u91ab\u9662","name":"\u7d0510(\u6b63\u7dda_\u8fd4\u7a0b)","public_transport:version":"2","ref":"\u7d0510","route":"bus","to":"\u95dc\u5edf\u516c\u6240","type":"route"},"geometry":{"type":"LineString","coordinates":[[120.3310423,22.9617802],[120.3307834,22.961045],[120.3304773,22.9601801],[120.3301544,22.9592607]]}},{"type":"Feature","properties":{"from":"\u5947\u7f8e\u91ab\u9662","name":"\u7d0510(\u6b63\u7dda_\u8fd4\u7a0b)","public_transport:version":"2","ref":"\u7d0510","route":"bus","to":"\u95dc\u5edf\u516c\u6240","type":"route"},"geometry":{"type":"LineString","coordinates":[[120.3310423,22.9617802],[120.3306946,22.9618846],[120.3302583,22.9620169],[120.3296646,22.962194],[120.3293209,22.962287],[120.3284855,22.9625159]]}},{"type":"Feature","properties":{"from":"\u5947\u7f8e\u91ab\u9662","name":"\u7d0510(\u6b63\u7dda_\u8fd4\u7a0b)","public_transport:version":"2","ref":"\u7d0510","route":"bus","to":"\u95dc\u5edf\u516c\u6240","type":"route"},"geometry":{"type":"LineString","coordinates":[[120.3284855,22.9625159],[120.3273896,22.9628243]]}},{"type":"Feature","properties":{"from":"\u5947\u7f8e\u91ab\u9662","name":"\u7d0510(\u6b63\u7dda_\u8fd4\u7a0b)","public_transport:version":"2","ref":"\u7d0510","route":"bus","to":"\u95dc\u5edf\u516c\u6240","type":"route"},"geometry":{"type":"LineString","coordinates":[[120.3273896,22.9628243],[120.3276024,22.963466],[120.3278654,22.9639931],[120.3280949,22.9644463],[120.3283217,22.9649605]]}},{"type":"Feature","properties":{"from":"\u5947\u7f8e\u91ab\u9662","name":"\u7d0510(\u6b63\u7dda_\u8fd4\u7a0b)","public_transport:version":"2","ref":"\u7d0510","route":"bus","to":"\u95dc\u5edf\u516c\u6240","type":"route"},"geometry":{"type":"LineString","coordinates":[[120.3283217,22.9649605],[120.3287135,22.9648275],[120.3289087,22.9647815],[120.329213,22.9646942],[120.3297701,22.9645317],[120.3303528,22.9644103],[120.3311228,22.9643085],[120.3312401,22.9642902],[120.3318983,22.9642039],[120.3321663,22.9641653],[120.3324256,22.9640999],[120.3325694,22.9640637],[120.3330603,22.9639161],[120.333233,22.9638676],[120.3339929,22.9636814],[120.3348917,22.9634215],[120.3350244,22.9633569]]}},{"type":"Feature","properties":{"from":"\u5947\u7f8e\u91ab\u9662","name":"\u7d0510(\u6b63\u7dda_\u8fd4\u7a0b)","public_transport:version":"2","ref":"\u7d0510","route":"bus","to":"\u95dc\u5edf\u516c\u6240","type":"route"},"geometry":{"type":"LineString","coordinates":[[120.3370938,22.9633695],[120.3369477,22.9633955],[120.3357288,22.9635937],[120.3356182,22.9635788],[120.3352902,22.9634662],[120.3350244,22.9633569]]}},{"type":"Feature","properties":{"from":"\u5947\u7f8e\u91ab\u9662","name":"\u7d0510(\u6b63\u7dda_\u8fd4\u7a0b)","public_transport:version":"2","ref":"\u7d0510","route":"bus","to":"\u95dc\u5edf\u516c\u6240","type":"route"},"geometry":{"type":"LineString","coordinates":[[120.3374926,22.963346],[120.3372735,22.9633533],[120.3370938,22.9633695]]}},{"type":"Feature","properties":{"from":"\u5947\u7f8e\u91ab\u9662","name":"\u7d0510(\u6b63\u7dda_\u8fd4\u7a0b)","public_transport:version":"2","ref":"\u7d0510","route":"bus","to":"\u95dc\u5edf\u516c\u6240","type":"route"},"geometry":{"type":"LineString","coordinates":[[120.3370938,22.9633695],[120.3371338,22.9634482],[120.33717,22.9635173],[120.3372129,22.9635519],[120.3373631,22.9635334],[120.3374128,22.963484],[120.3374926,22.963346]]}},{"type":"Feature","properties":{"from":"\u95dc\u5edf","name":"\u7d0510(\u7e5e\u99db\u7db2\u5bee\u91cc_\u5f80\u7a0b)","public_transport:version":"2","ref":"\u7d0510","route":"bus","to":"\u5947\u7f8e\u91ab\u9662","type":"route"},"geometry":{"type":"LineString","coordinates":[[120.2627582,23.0172471],[120.2628869,23.0172828]]}},{"type":"Feature","properties":{"from":"\u95dc\u5edf","name":"\u7d0510(\u7e5e\u99db\u7db2\u5bee\u91cc_\u5f80\u7a0b)","public_transport:version":"2","ref":"\u7d0510","route":"bus","to":"\u5947\u7f8e\u91ab\u9662","type":"route"},"geometry":{"type":"LineString","coordinates":[[120.2551213,23.0150799],[120.2560922,23.0153806],[120.2565401,23.0155308],[120.2577415,23.0158666],[120.2580442,23.0159418],[120.2589492,23.016173],[120.2593349,23.0162657],[120.2597314,23.0163728],[120.260177,23.016509],[120.2610779,23.0167784],[120.2620295,23.0170514],[120.2627582,23.0172471]]}},{"type":"Feature","properties":{"from":"\u95dc\u5edf","name":"\u7d0510(\u7e5e\u99db\u7db2\u5bee\u91cc_\u5f80\u7a0b)","public_transport:version":"2","ref":"\u7d0510","route":"bus","to":"\u5947\u7f8e\u91ab\u9662","type":"route"},"geometry":{"type":"LineString","coordinates":[[120.2551213,23.0150799],[120.254985,23.0155413],[120.2548306,23.0159865],[120.2547808,23.0161682],[120.2547142,23.0163834]]}},{"type":"Feature","properties":{"from":"\u95dc\u5edf","name":"\u7d0510(\u7e5e\u99db\u7db2\u5bee\u91cc_\u5f80\u7a0b)","public_transport:version":"2","ref":"\u7d0510","route":"bus","to":"\u5947\u7f8e\u91ab\u9662","type":"route"},"geometry":{"type":"LineString","coordinates":[[120.2624288,23.0182971],[120.2616773,23.0181067],[120.2607251,23.0178618],[120.2603593,23.0177624],[120.259792,23.0176246],[120.2593536,23.0175154],[120.2589828,23.017421],[120.2585825,23.0173218],[120.2577153,23.0171437],[120.2572521,23.0170482],[120.2567972,23.016969],[120.2561961,23.0167915],[120.2552245,23.0165248],[120.2547142,23.0163834]]}},{"type":"Feature","properties":{"from":"\u95dc\u5edf","name":"\u7d0510(\u7e5e\u99db\u7db2\u5bee\u91cc_\u5f80\u7a0b)","public_transport:version":"2","ref":"\u7d0510","route":"bus","to":"\u5947\u7f8e\u91ab\u9662","type":"route"},"geometry":{"type":"LineString","coordinates":[[120.262531,23.0183237],[120.2624288,23.0182971]]}},{"type":"Feature","properties":{"bus":"yes","highway":"bus_stop","name":"\u7db2\u5bee\u91cc","network":"\u81fa\u5357\u5e02\u516c\u8eca","operator":"\u81fa\u5357\u5e02\u516c\u8eca","public_transport":"platform","ref":"1571"},"geometry":{"type":"Point","coordinates":[120.2549998,23.0164113]}},{"type":"Feature","properties":{"from":"\u5947\u7f8e\u91ab\u9662","name":"\u7d0510(\u7e5e\u99db\u7db2\u5bee\u91cc_\u8fd4\u7a0b)","public_transport:version":"2","ref":"\u7d0510","route":"bus","to":"\u95dc\u5edf\u516c\u6240","type":"route"},"geometry":{"type":"LineString","coordinates":[[120.2624288,23.0182971],[120.2616773,23.0181067],[120.2607251,23.0178618],[120.2603593,23.0177624],[120.259792,23.0176246],[120.2593536,23.0175154],[120.2589828,23.017421],[120.2585825,23.0173218],[120.2577153,23.0171437],[120.2572521,23.0170482],[120.2567972,23.016969],[120.2561961,23.0167915],[120.2552245,23.0165248],[120.2547142,23.0163834]]}},{"type":"Feature","properties":{"from":"\u5947\u7f8e\u91ab\u9662","name":"\u7d0510(\u7e5e\u99db\u7db2\u5bee\u91cc_\u8fd4\u7a0b)","public_transport:version":"2","ref":"\u7d0510","route":"bus","to":"\u95dc\u5edf\u516c\u6240","type":"route"},"geometry":{"type":"LineString","coordinates":[[120.2551213,23.0150799],[120.254985,23.0155413],[120.2548306,23.0159865],[120.2547808,23.0161682],[120.2547142,23.0163834]]}},{"type":"Feature","properties":{"from":"\u5947\u7f8e\u91ab\u9662","name":"\u7d0510(\u7e5e\u99db\u7db2\u5bee\u91cc_\u8fd4\u7a0b)","public_transport:version":"2","ref":"\u7d0510","route":"bus","to":"\u95dc\u5edf\u516c\u6240","type":"route"},"geometry":{"type":"LineString","coordinates":[[120.2551213,23.0150799],[120.2560922,23.0153806],[120.2565401,23.0155308],[120.2577415,23.0158666],[120.2580442,23.0159418],[120.2589492,23.016173],[120.2593349,23.0162657],[120.2597314,23.0163728],[120.260177,23.016509],[120.2610779,23.0167784],[120.2620295,23.0170514],[120.2627582,23.0172471]]}},{"type":"Feature","properties":{"bus":"yes","highway":"bus_stop","name":"\u7db2\u5bee\u91cc","network":"\u81fa\u5357\u5e02\u516c\u8eca","operator":"\u81fa\u5357\u5e02\u516c\u8eca","public_transport":"platform","ref":"1572"},"geometry":{"type":"Point","coordinates":[120.2548899,23.0164958]}}]}