{"type":"FeatureCollection","features":[{"type":"Feature","properties":{"bus":"yes","highway":"bus_stop","name":"\u53f0\u5357\u516c\u5712(\u516c\u5712\u8def)","network":"\u81fa\u5357\u5e02\u516c\u8eca","operator":"\u81fa\u5357\u5e02\u516c\u8eca","public_transport":"platform"},"geometry":{"type":"Point","coordinates":[120.2090443,23.001795]}},{"type":"Feature","properties":{"bench":"yes","bus":"yes","highway":"bus_stop","name":"\u81fa\u5357\u706b\u8eca\u7ad9(\u5317\u7ad9)","network":"\u81fa\u5357\u5e02\u516c\u8eca","note":"\u8208\u5357\u5ba2\u904b","operator":"\u81fa\u5357\u5e02\u516c\u8eca","public_transport":"platform","ref":"9274","shelter":"yes"},"geometry":{"type":"Point","coordinates":[120.2114063,22.9976794]}},{"type":"Feature","properties":{"bus":"yes","highway":"bus_stop","name":"\u4e2d\u5c71\u3001\u6c11\u6b0a\u8def\u53e3","network":"\u81fa\u5357\u5e02\u516c\u8eca","operator":"\u81fa\u5357\u5e02\u516c\u8eca","public_transport":"platform"},"geometry":{"type":"Point","coordinates":[120.2068438,22.9938424]}},{"type":"Feature","properties":{"bus":"yes","highway":"bus_stop","name":"\u958b\u5c71\u8def","network":"\u81fa\u5357\u5e02\u516c\u8eca","operator":"\u81fa\u5357\u5e02\u516c\u8eca","public_transport":"platform"},"geometry":{"type":"Point","coordinates":[120.2061975,22.9908105]}},{"type":"Feature","properties":{"bus":"yes","highway":"bus_stop","name":"\u5ef6\u5e73\u90e1\u738b\u7960","network":"\u81fa\u5357\u5e02\u516c\u8eca","operator":"\u81fa\u5357\u5e02\u516c\u8eca","public_transport":"platform","ref":"8861"},"geometry":{"type":"Point","coordinates":[120.2087351,22.9874128]}},{"type":"Feature","properties":{"bus":"yes","highway":"bus_stop","name":"\u806f\u5408\u5831","network":"\u81fa\u5357\u5e02\u516c\u8eca","operator":"\u81fa\u5357\u5e02\u516c\u8eca","public_transport":"platform"},"geometry":{"type":"Point","coordinates":[120.2113937,22.9822453]}},{"type":"Feature","properties":{"bus":"yes","highway":"bus_stop","name":"\u5927\u6797\u65b0\u57ce","network":"\u81fa\u5357\u5e02\u516c\u8eca","operator":"\u81fa\u5357\u5e02\u516c\u8eca","public_transport":"platform","ref":"0539"},"geometry":{"type":"Point","coordinates":[120.2134944,22.9775865]}},{"type":"Feature","properties":{"bus":"yes","highway":"bus_stop","name":"\u5fe0\u5b5d\u65b0\u6751","network":"\u81fa\u5357\u5e02\u516c\u8eca","operator":"\u81fa\u5357\u5e02\u516c\u8eca","public_transport":"platform"},"geometry":{"type":"Point","coordinates":[120.2139788,22.9753655]}},{"type":"Feature","properties":{"bus":"yes","highway":"bus_stop","name":"\u5927\u6797","network":"\u81fa\u5357\u5e02\u516c\u8eca","operator":"\u81fa\u5357\u5e02\u516c\u8eca","public_transport":"platform"},"geometry":{"type":"Point","coordinates":[120.2144549,22.9732992]}},{"type":"Feature","properties":{"bus":"yes","highway":"bus_stop","name":"\u5df4\u514b\u79ae\u516c\u5712","name:en":"Barclay Memorial Park","name:zh":"\u5df4\u514b\u79ae\u516c\u5712","network":"\u81fa\u5357\u5e02\u516c\u8eca","operator":"\u81fa\u5357\u5e02\u516c\u8eca","public_transport":"platform","ref":"8852"},"geometry":{"type":"Point","coordinates":[120.2221863,22.9738172]}},{"type":"Feature","properties":{"bus":"yes","highway":"bus_stop","name":"\u5e02\u7acb\u91ab\u9662(\u5d07\u660e\u8def)","network":"\u81fa\u5357\u5e02\u516c\u8eca","operator":"\u81fa\u5357\u5e02\u516c\u8eca","public_transport":"platform","ref":"0569"},"geometry":{"type":"Point","coordinates":[120.2255749,22.9685998]}},{"type":"Feature","properties":{"bus":"yes","highway":"bus_stop","name":"\u53f0\u7cd6\u516c\u53f8","network":"\u81fa\u5357\u5e02\u516c\u8eca","operator":"\u81fa\u5357\u5e02\u516c\u8eca","public_transport":"platform","ref":"0566"},"geometry":{"type":"Point","coordinates":[120.2205055,22.9649227]}},{"type":"Feature","properties":{"bus":"yes","highway":"bus_stop","name":"\u5927\u540c\u3001\u6a5f\u5834\u8def\u53e3","network":"\u81fa\u5357\u5e02\u516c\u8eca","operator":"\u81fa\u5357\u5e02\u516c\u8eca","public_transport":"platform","ref":"1716"},"geometry":{"type":"Point","coordinates":[120.2166622,22.9619624]}},{"type":"Feature","properties":{"bus":"yes","highway":"bus_stop","name":"\u725b\u7a20\u4ed4","network":"\u81fa\u5357\u5e02\u516c\u8eca","operator":"\u81fa\u5357\u5e02\u516c\u8eca","public_transport":"platform"},"geometry":{"type":"Point","coordinates":[120.2176327,22.953941]}},{"type":"Feature","properties":{"bus":"yes","highway":"bus_stop","name":"\u7a7a\u8ecd\u81fa\u5357\u57fa\u5730","network":"\u81fa\u5357\u5e02\u516c\u8eca","operator":"\u81fa\u5357\u5e02\u516c\u8eca","public_transport":"platform"},"geometry":{"type":"Point","coordinates":[120.2165956,22.9518224]}},{"type":"Feature","properties":{"bus":"yes","highway":"bus_stop","name":"\u81fa\u5357\u822a\u7a7a\u7ad9(\u5947\u7f8e\u5e78\u798f\u5de5\u5ee0)","network":"\u81fa\u5357\u5e02\u516c\u8eca","operator":"\u81fa\u5357\u5e02\u516c\u8eca","public_transport":"platform","ref":"0500"},"geometry":{"type":"Point","coordinates":[120.2165245,22.9479051]}},{"type":"Feature","properties":{"bus":"yes","highway":"bus_stop","name":"\u81fa\u5357\u90fd\u6703\u516c\u5712","network":"\u81fa\u5357\u5e02\u516c\u8eca","note":"\u8208\u5357\u5ba2\u904b","operator":"\u81fa\u5357\u5e02\u516c\u8eca","public_transport":"platform"},"geometry":{"type":"Point","coordinates":[120.2227977,22.9373306]}},{"type":"Feature","properties":{"bus":"yes","highway":"bus_stop","name":"\u5947\u7f8e\u535a\u7269\u9928","network":"\u81fa\u5357\u5e02\u516c\u8eca","note":"\u8208\u5357\u5ba2\u904b","operator":"\u81fa\u5357\u5e02\u516c\u8eca","public_transport":"platform"},"geometry":{"type":"Point","coordinates":[120.2281545,22.9361588]}},{"type":"Feature","properties":{"bus":"yes","highway":"bus_stop","name":"\u4fdd\u5b89\u8f49\u904b\u7ad9","network":"\u81fa\u5357\u5e02\u516c\u8eca","operator":"\u81fa\u5357\u5e02\u516c\u8eca","public_transport":"platform","ref":"8385"},"geometry":{"type":"Point","coordinates":[120.2305944,22.9327203]}},{"type":"Feature","properties":{"bus":"yes","highway":"bus_stop","name":"\u5609\u5357\u85e5\u7406\u5927\u5b78","network":"\u81fa\u5357\u5e02\u516c\u8eca","operator":"\u81fa\u5357\u5e02\u516c\u8eca","public_transport":"platform","ref":"0572"},"geometry":{"type":"Point","coordinates":[120.224679,22.9211296]}},{"type":"Feature","properties":{"bus":"yes","highway":"bus_stop","name":"\u4fdd\u5b78","network":"\u81fa\u5357\u5e02\u516c\u8eca","operator":"\u81fa\u5357\u5e02\u516c\u8eca","public_transport":"platform","ref":"8906"},"geometry":{"type":"Point","coordinates":[120.2345871,22.9203]}},{"type":"Feature","properties":{"bus":"yes","highway":"bus_stop","name":"\u4fdd\u5b89","network":"\u81fa\u5357\u5e02\u516c\u8eca","operator":"\u81fa\u5357\u5e02\u516c\u8eca","public_transport":"platform","ref":"1616"},"geometry":{"type":"Point","coordinates":[120.2372191,22.9214112]}},{"type":"Feature","properties":{"bus":"yes","highway":"bus_stop","name":"\u4e2d\u751f\u91cc","network":"\u81fa\u5357\u5e02\u516c\u8eca","note":"\u8208\u5357\u5ba2\u904b","operator":"\u81fa\u5357\u5e02\u516c\u8eca","public_transport":"platform"},"geometry":{"type":"Point","coordinates":[120.2499974,22.9086179]}},{"type":"Feature","properties":{"bus":"yes","highway":"bus_stop","name":"\u4e2d\u6d32","network":"\u81fa\u5357\u5e02\u516c\u8eca","note":"\u8208\u5357\u5ba2\u904b","operator":"\u81fa\u5357\u5e02\u516c\u8eca","public_transport":"platform"},"geometry":{"type":"Point","coordinates":[120.2506638,22.9077545]}},{"type":"Feature","properties":{"bus":"yes","highway":"bus_stop","name":"\u4e2d\u6d32\u6d3e\u51fa\u6240","network":"\u81fa\u5357\u5e02\u516c\u8eca","note":"\u8208\u5357\u5ba2\u904b","operator":"\u81fa\u5357\u5e02\u516c\u8eca","public_transport":"platform"},"geometry":{"type":"Point","coordinates":[120.2531914,22.9081902]}},{"type":"Feature","properties":{"bus":"yes","highway":"bus_stop","name":"\u4f9d\u4ec1\u570b\u5c0f","network":"\u81fa\u5357\u5e02\u516c\u8eca","note":"\u8208\u5357\u5ba2\u904b","operator":"\u81fa\u5357\u5e02\u516c\u8eca","public_transport":"platform"},"geometry":{"type":"Point","coordinates":[120.2615484,22.9092677]}},{"type":"Feature","properties":{"bus":"yes","highway":"bus_stop","name":"\u5357\u5927\u6f6d","network":"\u81fa\u5357\u5e02\u516c\u8eca","note":"\u8208\u5357\u5ba2\u904b","operator":"\u81fa\u5357\u5e02\u516c\u8eca","public_transport":"platform"},"geometry":{"type":"Point","coordinates":[120.2685552,22.9103439]}},{"type":"Feature","properties":{"bus":"yes","highway":"bus_stop","name":"\u5927\u6f6d","network":"\u81fa\u5357\u5e02\u516c\u8eca","note":"\u8208\u5357\u5ba2\u904b","operator":"\u81fa\u5357\u5e02\u516c\u8eca","public_transport":"platform"},"geometry":{"type":"Point","coordinates":[120.2703183,22.9118481]}},{"type":"Feature","properties":{"bus":"yes","highway":"bus_stop","name":"\u5927\u6f6d\u570b\u5c0f","network":"\u81fa\u5357\u5e02\u516c\u8eca","note":"\u8208\u5357\u5ba2\u904b","operator":"\u81fa\u5357\u5e02\u516c\u8eca","public_transport":"platform"},"geometry":{"type":"Point","coordinates":[120.2711743,22.9137857]}},{"type":"Feature","properties":{"bus":"yes","highway":"bus_stop","name":"\u6b66\u6771","network":"\u81fa\u5357\u5e02\u516c\u8eca","note":"\u8208\u5357\u5ba2\u904b","operator":"\u81fa\u5357\u5e02\u516c\u8eca","public_transport":"platform"},"geometry":{"type":"Point","coordinates":[120.2727878,22.9174747]}},{"type":"Feature","properties":{"bus":"yes","highway":"bus_stop","name":"\u81fa\u5357\u76e3\u7344","network":"\u81fa\u5357\u5e02\u516c\u8eca","note":"\u8208\u5357\u5ba2\u904b","operator":"\u81fa\u5357\u5e02\u516c\u8eca","public_transport":"platform"},"geometry":{"type":"Point","coordinates":[120.2747215,22.9246771]}},{"type":"Feature","properties":{"bus":"yes","highway":"bus_stop","name":"\u9ad8\u9435\u81fa\u5357\u7ad9","network":"\u81fa\u5357\u5e02\u516c\u8eca","operator":"\u81fa\u5357\u5e02\u516c\u8eca","public_transport":"platform"},"geometry":{"type":"Point","coordinates":[120.2858331,22.9238787]}},{"type":"Feature","properties":{"bus":"yes","highway":"bus_stop","name":"\u6c99\u5d19\u570b\u4e2d","network":"\u81fa\u5357\u5e02\u516c\u8eca","note":"\u8208\u5357\u5ba2\u904b","operator":"\u81fa\u5357\u5e02\u516c\u8eca","public_transport":"platform"},"geometry":{"type":"Point","coordinates":[120.2820786,22.9276826]}},{"type":"Feature","properties":{"bus":"yes","highway":"bus_stop","name":"\u7aa9\u4ed4\u5e95","network":"\u81fa\u5357\u5e02\u516c\u8eca","note":"\u8208\u5357\u5ba2\u904b","operator":"\u81fa\u5357\u5e02\u516c\u8eca","public_transport":"platform"},"geometry":{"type":"Point","coordinates":[120.2770756,22.9270046]}},{"type":"Feature","properties":{"bus":"yes","highway":"bus_stop","name":"\u6210\u5927\u6b78\u4ec1\u6821\u5340","network":"\u81fa\u5357\u5e02\u516c\u8eca","note":"\u8208\u5357\u5ba2\u904b","operator":"\u81fa\u5357\u5e02\u516c\u8eca","public_transport":"platform"},"geometry":{"type":"Point","coordinates":[120.2769743,22.9362604]}},{"type":"Feature","properties":{"bus":"yes","highway":"bus_stop","name":"\u516d\u7532\u4e09\u8def\u53e3","network":"\u81fa\u5357\u5e02\u516c\u8eca","note":"\u8208\u5357\u5ba2\u904b","operator":"\u81fa\u5357\u5e02\u516c\u8eca","public_transport":"platform"},"geometry":{"type":"Point","coordinates":[120.2739261,22.9518439]}},{"type":"Feature","properties":{"bus":"yes","highway":"bus_stop","name":"\u4e0a\u5e1d\u5edf","network":"\u81fa\u5357\u5e02\u516c\u8eca","note":"\u8208\u5357\u5ba2\u904b","operator":"\u81fa\u5357\u5e02\u516c\u8eca","public_transport":"platform"},"geometry":{"type":"Point","coordinates":[120.2738244,22.9689566]}},{"type":"Feature","properties":{"bus":"yes","highway":"bus_stop","name":"\u5357\u8208\u91cc","network":"\u81fa\u5357\u5e02\u516c\u8eca","note":"\u8208\u5357\u5ba2\u904b","operator":"\u81fa\u5357\u5e02\u516c\u8eca","public_transport":"platform"},"geometry":{"type":"Point","coordinates":[120.2775111,22.9685692]}},{"type":"Feature","properties":{"bus":"yes","highway":"bus_stop","name":"\u5357\u4fdd","network":"\u81fa\u5357\u5e02\u516c\u8eca","note":"\u8208\u5357\u5ba2\u904b","operator":"\u81fa\u5357\u5e02\u516c\u8eca","public_transport":"platform"},"geometry":{"type":"Point","coordinates":[120.2815589,22.9680895]}},{"type":"Feature","properties":{"bus":"yes","highway":"bus_stop","name":"\u59d3\u674e\u4ed4","network":"\u81fa\u5357\u5e02\u516c\u8eca","note":"\u8208\u5357\u5ba2\u904b","operator":"\u81fa\u5357\u5e02\u516c\u8eca","public_transport":"platform"},"geometry":{"type":"Point","coordinates":[120.2854749,22.9676324]}},{"type":"Feature","properties":{"bus":"yes","highway":"bus_stop","name":"\u5f8c\u5e02","network":"\u81fa\u5357\u5e02\u516c\u8eca","note":"\u8208\u5357\u5ba2\u904b","operator":"\u81fa\u5357\u5e02\u516c\u8eca","public_transport":"platform"},"geometry":{"type":"Point","coordinates":[120.2893284,22.9671997]}},{"type":"Feature","properties":{"bus":"yes","highway":"bus_stop","name":"\u6b78\u4ec1\u516c\u6240","name:en":"Gueiren District Office","name:zh":"\u6b78\u4ec1\u516c\u6240","network":"\u81fa\u5357\u5e02\u516c\u8eca","operator":"\u81fa\u5357\u5e02\u516c\u8eca","public_transport":"platform","ref":"1526"},"geometry":{"type":"Point","coordinates":[120.2936716,22.966707]}},{"type":"Feature","properties":{"bus":"yes","highway":"bus_stop","name":"\u6b78\u4ec1\u5e02\u5834","network":"\u81fa\u5357\u5e02\u516c\u8eca","operator":"\u81fa\u5357\u5e02\u516c\u8eca","public_transport":"platform"},"geometry":{"type":"Point","coordinates":[120.295935,22.9664113]}},{"type":"Feature","properties":{"bus":"yes","highway":"bus_stop","name":"\u6b78\u4ec1\u6587\u5316\u4e2d\u5fc3","network":"\u81fa\u5357\u5e02\u516c\u8eca","operator":"\u81fa\u5357\u5e02\u516c\u8eca","public_transport":"platform","ref":"8942"},"geometry":{"type":"Point","coordinates":[120.2981955,22.9661777]}},{"type":"Feature","properties":{"bus":"yes","highway":"bus_stop","name":"\u5584\u5316\u5bfa","network":"\u81fa\u5357\u5e02\u516c\u8eca","note":"\u8208\u5357\u5ba2\u904b","operator":"\u81fa\u5357\u5e02\u516c\u8eca","public_transport":"platform"},"geometry":{"type":"Point","coordinates":[120.3007044,22.9658798]}},{"type":"Feature","properties":{"bus":"yes","highway":"bus_stop","name":"\u770b\u6771\u91cc","network":"\u81fa\u5357\u5e02\u516c\u8eca","note":"\u8208\u5357\u5ba2\u904b","operator":"\u81fa\u5357\u5e02\u516c\u8eca","public_transport":"platform"},"geometry":{"type":"Point","coordinates":[120.303944,22.9652039]}},{"type":"Feature","properties":{"bus":"yes","highway":"bus_stop","name":"\u4fee\u5143\u5802","network":"\u81fa\u5357\u5e02\u516c\u8eca","note":"\u8208\u5357\u5ba2\u904b","operator":"\u81fa\u5357\u5e02\u516c\u8eca","public_transport":"platform"},"geometry":{"type":"Point","coordinates":[120.30706,22.9641986]}},{"type":"Feature","properties":{"bus":"yes","highway":"bus_stop","name":"\u6b78\u4ec1\u4ea4\u6d41\u9053","network":"\u81fa\u5357\u5e02\u516c\u8eca","note":"\u8208\u5357\u5ba2\u904b","operator":"\u81fa\u5357\u5e02\u516c\u8eca","public_transport":"platform"},"geometry":{"type":"Point","coordinates":[120.3128615,22.962492]}},{"type":"Feature","properties":{"bus":"yes","highway":"bus_stop","name":"\u5927\u4e9e\u516c\u53f8","network":"\u81fa\u5357\u5e02\u516c\u8eca","note":"\u8208\u5357\u5ba2\u904b","operator":"\u81fa\u5357\u5e02\u516c\u8eca","public_transport":"platform"},"geometry":{"type":"Point","coordinates":[120.3165214,22.9617066]}},{"type":"Feature","properties":{"bus":"yes","highway":"bus_stop","name":"\u95dc\u5edf\u570b\u4e2d","network":"\u81fa\u5357\u5e02\u516c\u8eca","note":"\u8208\u5357\u5ba2\u904b","operator":"\u81fa\u5357\u5e02\u516c\u8eca","public_transport":"platform","ref":"1533"},"geometry":{"type":"Point","coordinates":[120.3248457,22.9603171]}},{"type":"Feature","properties":{"bus":"yes","highway":"bus_stop","name":"\u95dc\u5edf\u5e02\u5834","network":"\u81fa\u5357\u5e02\u516c\u8eca","note":"\u8208\u5357\u5ba2\u904b","operator":"\u81fa\u5357\u5e02\u516c\u8eca","public_transport":"platform","ref":"3301"},"geometry":{"type":"Point","coordinates":[120.3284743,22.962065]}},{"type":"Feature","properties":{"bus":"yes","highway":"bus_stop","name":"\u5317\u52e2\u91cc","network":"\u81fa\u5357\u5e02\u516c\u8eca","note":"\u8208\u5357\u5ba2\u904b","operator":"\u81fa\u5357\u5e02\u516c\u8eca","public_transport":"platform","ref":"3302"},"geometry":{"type":"Point","coordinates":[120.3307501,22.9617242]}},{"type":"Feature","properties":{"bus":"yes","highway":"bus_stop","name":"\u82b1\u5712","network":"\u81fa\u5357\u5e02\u516c\u8eca","note":"\u8208\u5357\u5ba2\u904b","operator":"\u81fa\u5357\u5e02\u516c\u8eca","public_transport":"platform","ref":"3303"},"geometry":{"type":"Point","coordinates":[120.3345496,22.9630229]}},{"type":"Feature","properties":{"bus":"yes","highway":"bus_stop","name":"\u95dc\u5edf\u8f49\u904b\u7ad9","network":"\u81fa\u5357\u5e02\u516c\u8eca","note":"\u5f80\u7a0b","operator":"\u81fa\u5357\u5e02\u516c\u8eca","public_transport":"platform","ref":"3304"},"geometry":{"type":"Point","coordinates":[120.3370886,22.9635961]}},{"type":"Feature","properties":{"from":"\u81fa\u5357\u516c\u5712","name":"\u7d053(\u5f80\u7a0b)","public_transport:version":"2","ref":"\u7d053","route":"bus","to":"\u95dc\u5edf","type":"route"},"geometry":{"type":"LineString","coordinates":[[120.2092282,23.0019348],[120.20873,23.0010362]]}},{"type":"Feature","properties":{"from":"\u81fa\u5357\u516c\u5712","name":"\u7d053(\u5f80\u7a0b)","public_transport:version":"2","ref":"\u7d053","route":"bus","to":"\u95dc\u5edf","type":"route"},"geometry":{"type":"LineString","coordinates":[[120.20873,23.0010362],[120.2080177,22.9998488],[120.2079162,22.9996735],[120.2074123,22.9988316],[120.2069995,22.9980796]]}},{"type":"Feature","properties":{"from":"\u81fa\u5357\u516c\u5712","name":"\u7d053(\u5f80\u7a0b)","public_transport:version":"2","ref":"\u7d053","route":"bus","to":"\u95dc\u5edf","type":"route"},"geometry":{"type":"LineString","coordinates":[[120.2069995,22.9980796],[120.2069717,22.9980172]]}},{"type":"Feature","properties":{"from":"\u81fa\u5357\u516c\u5712","name":"\u7d053(\u5f80\u7a0b)","public_transport:version":"2","ref":"\u7d053","route":"bus","to":"\u95dc\u5edf","type":"route"},"geometry":{"type":"LineString","coordinates":[[120.2069717,22.9980172],[120.2076039,22.9979144],[120.2086374,22.9977449],[120.2094626,22.9976123],[120.210203,22.997492],[120.2110557,22.9973534],[120.2112224,22.9973263]]}},{"type":"Feature","properties":{"from":"\u81fa\u5357\u516c\u5712","name":"\u7d053(\u5f80\u7a0b)","public_transport:version":"2","ref":"\u7d053","route":"bus","to":"\u95dc\u5edf","type":"route"},"geometry":{"type":"LineString","coordinates":[[120.2112224,22.9973263],[120.2112421,22.997198],[120.2112908,22.9970885],[120.2113768,22.9969836],[120.211457,22.9969172],[120.2115406,22.9968838]]}},{"type":"Feature","properties":{"from":"\u81fa\u5357\u516c\u5712","name":"\u7d053(\u5f80\u7a0b)","public_transport:version":"2","ref":"\u7d053","route":"bus","to":"\u95dc\u5edf","type":"route"},"geometry":{"type":"LineString","coordinates":[[120.2115406,22.9968838],[120.2116717,22.9968407]]}},{"type":"Feature","properties":{"from":"\u81fa\u5357\u516c\u5712","name":"\u7d053(\u5f80\u7a0b)","public_transport:version":"2","ref":"\u7d053","route":"bus","to":"\u95dc\u5edf","type":"route"},"geometry":{"type":"LineString","coordinates":[[120.2116717,22.9968407],[120.2117548,22.9968827],[120.212069,22.9968492]]}},{"type":"Feature","properties":{"from":"\u81fa\u5357\u516c\u5712","name":"\u7d053(\u5f80\u7a0b)","public_transport:version":"2","ref":"\u7d053","route":"bus","to":"\u95dc\u5edf","type":"route"},"geometry":{"type":"LineString","coordinates":[[120.212069,22.9968492],[120.2121649,22.9970622]]}},{"type":"Feature","properties":{"from":"\u81fa\u5357\u516c\u5712","name":"\u7d053(\u5f80\u7a0b)","public_transport:version":"2","ref":"\u7d053","route":"bus","to":"\u95dc\u5edf","type":"route"},"geometry":{"type":"LineString","coordinates":[[120.2121649,22.9970622],[120.2122133,22.9972959],[120.212168,22.9973563],[120.2121286,22.9973921],[120.2120959,22.9974181],[120.2120524,22.997444],[120.2120074,22.9974624],[120.2119414,22.9974731],[120.2118275,22.9974837],[120.2117686,22.9974926],[120.2116821,22.99749],[120.2116207,22.9974678],[120.2115602,22.9973916],[120.2115296,22.9973406],[120.2115066,22.997283],[120.2115271,22.9971846],[120.2115746,22.9971088],[120.2116146,22.9970518],[120.21172,22.9970226],[120.2118512,22.9969848],[120.2120278,22.9969658],[120.2120928,22.9969906],[120.2121649,22.9970622]]}},{"type":"Feature","properties":{"from":"\u81fa\u5357\u516c\u5712","name":"\u7d053(\u5f80\u7a0b)","public_transport:version":"2","ref":"\u7d053","route":"bus","to":"\u95dc\u5edf","type":"route"},"geometry":{"type":"LineString","coordinates":[[120.2122133,22.9972959],[120.2122397,22.9974216],[120.2122751,22.997603]]}},{"type":"Feature","properties":{"from":"\u81fa\u5357\u516c\u5712","name":"\u7d053(\u5f80\u7a0b)","public_transport:version":"2","ref":"\u7d053","route":"bus","to":"\u95dc\u5edf","type":"route"},"geometry":{"type":"LineString","coordinates":[[120.2122751,22.997603],[120.2119739,22.9975969],[120.2117832,22.9976462],[120.2115914,22.9976739],[120.2115028,22.9976448],[120.2114348,22.9976192],[120.2113762,22.9975758],[120.211274,22.9974909],[120.211253,22.9974282],[120.2112366,22.9973829]]}},{"type":"Feature","properties":{"from":"\u81fa\u5357\u516c\u5712","name":"\u7d053(\u5f80\u7a0b)","public_transport:version":"2","ref":"\u7d053","route":"bus","to":"\u95dc\u5edf","type":"route"},"geometry":{"type":"LineString","coordinates":[[120.2112366,22.9973829],[120.2112224,22.9973263]]}},{"type":"Feature","properties":{"from":"\u81fa\u5357\u516c\u5712","name":"\u7d053(\u5f80\u7a0b)","public_transport:version":"2","ref":"\u7d053","route":"bus","to":"\u95dc\u5edf","type":"route"},"geometry":{"type":"LineString","coordinates":[[120.2115406,22.9968838],[120.2115016,22.996815]]}},{"type":"Feature","properties":{"from":"\u81fa\u5357\u516c\u5712","name":"\u7d053(\u5f80\u7a0b)","public_transport:version":"2","ref":"\u7d053","route":"bus","to":"\u95dc\u5edf","type":"route"},"geometry":{"type":"LineString","coordinates":[[120.2115016,22.996815],[120.2098242,22.9957124],[120.2088872,22.9950964],[120.2084079,22.9947813]]}},{"type":"Feature","properties":{"from":"\u81fa\u5357\u516c\u5712","name":"\u7d053(\u5f80\u7a0b)","public_transport:version":"2","ref":"\u7d053","route":"bus","to":"\u95dc\u5edf","type":"route"},"geometry":{"type":"LineString","coordinates":[[120.2084079,22.9947813],[120.2072412,22.9940191],[120.206682,22.9936537]]}},{"type":"Feature","properties":{"from":"\u81fa\u5357\u516c\u5712","name":"\u7d053(\u5f80\u7a0b)","public_transport:version":"2","ref":"\u7d053","route":"bus","to":"\u95dc\u5edf","type":"route"},"geometry":{"type":"LineString","coordinates":[[120.206682,22.9936537],[120.20586,22.9931228],[120.2054416,22.9928393]]}},{"type":"Feature","properties":{"from":"\u81fa\u5357\u516c\u5712","name":"\u7d053(\u5f80\u7a0b)","public_transport:version":"2","ref":"\u7d053","route":"bus","to":"\u95dc\u5edf","type":"route"},"geometry":{"type":"LineString","coordinates":[[120.2045626,22.9925558],[120.2045725,22.9924866],[120.2045858,22.9924409],[120.2046043,22.9923967],[120.2046508,22.9923216],[120.2047122,22.9922561],[120.2047861,22.9922028],[120.2048698,22.9921635],[120.2049601,22.9921398],[120.2050693,22.9921331],[120.2051773,22.992149],[120.2052787,22.9921868],[120.2053684,22.9922445],[120.2054218,22.9922955],[120.2054659,22.9923536],[120.2054993,22.9924174],[120.2055285,22.9925234],[120.2055288,22.9926328],[120.2055002,22.992739],[120.2054416,22.9928393],[120.2053673,22.9929148],[120.2052763,22.9929729],[120.2051734,22.9930104],[120.2050622,22.9930256],[120.2049501,22.9930168],[120.2048432,22.9929845],[120.2047473,22.9929303],[120.2046675,22.9928573],[120.2046081,22.9927693],[120.2045783,22.9926941],[120.2045646,22.9926255],[120.2045626,22.9925558]]}},{"type":"Feature","properties":{"from":"\u81fa\u5357\u516c\u5712","name":"\u7d053(\u5f80\u7a0b)","public_transport:version":"2","ref":"\u7d053","route":"bus","to":"\u95dc\u5edf","type":"route"},"geometry":{"type":"LineString","coordinates":[[120.2053684,22.9922445],[120.2055457,22.9919894]]}},{"type":"Feature","properties":{"from":"\u81fa\u5357\u516c\u5712","name":"\u7d053(\u5f80\u7a0b)","public_transport:version":"2","ref":"\u7d053","route":"bus","to":"\u95dc\u5edf","type":"route"},"geometry":{"type":"LineString","coordinates":[[120.2055457,22.9919894],[120.2059776,22.9912717],[120.2061059,22.9910655],[120.206178,22.9909479],[120.2066776,22.9902139]]}},{"type":"Feature","properties":{"from":"\u81fa\u5357\u516c\u5712","name":"\u7d053(\u5f80\u7a0b)","public_transport:version":"2","ref":"\u7d053","route":"bus","to":"\u95dc\u5edf","type":"route"},"geometry":{"type":"LineString","coordinates":[[120.2066776,22.9902139],[120.2069924,22.9898139],[120.2073179,22.9894005],[120.2076554,22.9889784]]}},{"type":"Feature","properties":{"from":"\u81fa\u5357\u516c\u5712","name":"\u7d053(\u5f80\u7a0b)","public_transport:version":"2","ref":"\u7d053","route":"bus","to":"\u95dc\u5edf","type":"route"},"geometry":{"type":"LineString","coordinates":[[120.2076554,22.9889784],[120.2079084,22.9886491],[120.2088148,22.9874931],[120.2090991,22.9871377],[120.2091847,22.9870352],[120.2092409,22.9869678],[120.2098832,22.9861982],[120.2105937,22.9854081],[120.2111676,22.9847687]]}},{"type":"Feature","properties":{"from":"\u81fa\u5357\u516c\u5712","name":"\u7d053(\u5f80\u7a0b)","public_transport:version":"2","ref":"\u7d053","route":"bus","to":"\u95dc\u5edf","type":"route"},"geometry":{"type":"LineString","coordinates":[[120.2120924,22.981161],[120.2120706,22.9812099],[120.2120267,22.9812761],[120.2119448,22.9814188],[120.2118223,22.9816581],[120.2116533,22.9819801],[120.2114289,22.9823967],[120.211371,22.9825149],[120.2111975,22.9829629],[120.2111639,22.9830889],[120.2111512,22.9832634],[120.2111494,22.9838938],[120.2111539,22.9840622],[120.211162,22.9845573],[120.2111676,22.9847687]]}},{"type":"Feature","properties":{"from":"\u81fa\u5357\u516c\u5712","name":"\u7d053(\u5f80\u7a0b)","public_transport:version":"2","ref":"\u7d053","route":"bus","to":"\u95dc\u5edf","type":"route"},"geometry":{"type":"LineString","coordinates":[[120.2121818,22.9809708],[120.2120924,22.981161]]}},{"type":"Feature","properties":{"from":"\u81fa\u5357\u516c\u5712","name":"\u7d053(\u5f80\u7a0b)","public_transport:version":"2","ref":"\u7d053","route":"bus","to":"\u95dc\u5edf","type":"route"},"geometry":{"type":"LineString","coordinates":[[120.2139246,22.9763151],[120.2139057,22.9763943],[120.2138613,22.9765803],[120.2137096,22.9772378],[120.2136145,22.9777012],[120.2135402,22.9781017],[120.2134399,22.9784118],[120.2130824,22.97917],[120.2128927,22.9795477],[120.2126875,22.9799786],[120.2124689,22.9804212],[120.2123146,22.9807437],[120.2122382,22.9808708],[120.2122026,22.9809344],[120.2121818,22.9809708]]}},{"type":"Feature","properties":{"from":"\u81fa\u5357\u516c\u5712","name":"\u7d053(\u5f80\u7a0b)","public_transport:version":"2","ref":"\u7d053","route":"bus","to":"\u95dc\u5edf","type":"route"},"geometry":{"type":"LineString","coordinates":[[120.2139499,22.9762092],[120.2139246,22.9763151]]}},{"type":"Feature","properties":{"from":"\u81fa\u5357\u516c\u5712","name":"\u7d053(\u5f80\u7a0b)","public_transport:version":"2","ref":"\u7d053","route":"bus","to":"\u95dc\u5edf","type":"route"},"geometry":{"type":"LineString","coordinates":[[120.2148168,22.9724477],[120.2146783,22.9730488],[120.2145357,22.9736675],[120.2144529,22.9740265],[120.2143113,22.9746411],[120.2142634,22.9748488],[120.2140669,22.9757017],[120.2139706,22.9761196],[120.2139499,22.9762092]]}},{"type":"Feature","properties":{"from":"\u81fa\u5357\u516c\u5712","name":"\u7d053(\u5f80\u7a0b)","public_transport:version":"2","ref":"\u7d053","route":"bus","to":"\u95dc\u5edf","type":"route"},"geometry":{"type":"LineString","coordinates":[[120.2148168,22.9724477],[120.214787,22.9723384]]}},{"type":"Feature","properties":{"from":"\u81fa\u5357\u516c\u5712","name":"\u7d053(\u5f80\u7a0b)","public_transport:version":"2","ref":"\u7d053","route":"bus","to":"\u95dc\u5edf","type":"route"},"geometry":{"type":"LineString","coordinates":[[120.214787,22.9723384],[120.214893,22.9723587]]}},{"type":"Feature","properties":{"from":"\u81fa\u5357\u516c\u5712","name":"\u7d053(\u5f80\u7a0b)","public_transport:version":"2","ref":"\u7d053","route":"bus","to":"\u95dc\u5edf","type":"route"},"geometry":{"type":"LineString","coordinates":[[120.214893,22.9723587],[120.2150576,22.972397]]}},{"type":"Feature","properties":{"from":"\u81fa\u5357\u516c\u5712","name":"\u7d053(\u5f80\u7a0b)","public_transport:version":"2","ref":"\u7d053","route":"bus","to":"\u95dc\u5edf","type":"route"},"geometry":{"type":"LineString","coordinates":[[120.2150576,22.972397],[120.2199129,22.9734078]]}},{"type":"Feature","properties":{"from":"\u81fa\u5357\u516c\u5712","name":"\u7d053(\u5f80\u7a0b)","public_transport:version":"2","ref":"\u7d053","route":"bus","to":"\u95dc\u5edf","type":"route"},"geometry":{"type":"LineString","coordinates":[[120.2199129,22.9734078],[120.2203066,22.9734826],[120.2212102,22.9736709],[120.2216056,22.9737493],[120.2218834,22.9738217],[120.2224215,22.9739373],[120.2228306,22.9741019],[120.2231945,22.9742395]]}},{"type":"Feature","properties":{"from":"\u81fa\u5357\u516c\u5712","name":"\u7d053(\u5f80\u7a0b)","public_transport:version":"2","ref":"\u7d053","route":"bus","to":"\u95dc\u5edf","type":"route"},"geometry":{"type":"LineString","coordinates":[[120.2231945,22.9742395],[120.2240786,22.973424],[120.2247786,22.9728076],[120.2255711,22.9720896]]}},{"type":"Feature","properties":{"from":"\u81fa\u5357\u516c\u5712","name":"\u7d053(\u5f80\u7a0b)","public_transport:version":"2","ref":"\u7d053","route":"bus","to":"\u95dc\u5edf","type":"route"},"geometry":{"type":"LineString","coordinates":[[120.2255711,22.9720896],[120.2256676,22.9716109],[120.2256707,22.9711304],[120.2256737,22.9706488],[120.225677,22.9701253],[120.2256802,22.9696282],[120.2256832,22.9691556],[120.2256845,22.9689438],[120.2256871,22.9685415],[120.2256874,22.9684869],[120.2256925,22.9676982],[120.2256954,22.967237],[120.2256985,22.9667508],[120.2256996,22.9665743]]}},{"type":"Feature","properties":{"from":"\u81fa\u5357\u516c\u5712","name":"\u7d053(\u5f80\u7a0b)","public_transport:version":"2","ref":"\u7d053","route":"bus","to":"\u95dc\u5edf","type":"route"},"geometry":{"type":"LineString","coordinates":[[120.2256996,22.9665743],[120.2257075,22.9657995],[120.2257249,22.9649303]]}},{"type":"Feature","properties":{"from":"\u81fa\u5357\u516c\u5712","name":"\u7d053(\u5f80\u7a0b)","public_transport:version":"2","ref":"\u7d053","route":"bus","to":"\u95dc\u5edf","type":"route"},"geometry":{"type":"LineString","coordinates":[[120.2168977,22.9646787],[120.217064,22.9647824],[120.2173495,22.9647873],[120.2174184,22.9647885],[120.2175985,22.9647915],[120.2198956,22.9648308],[120.2242843,22.9649057],[120.2257249,22.9649303]]}},{"type":"Feature","properties":{"from":"\u81fa\u5357\u516c\u5712","name":"\u7d053(\u5f80\u7a0b)","public_transport:version":"2","ref":"\u7d053","route":"bus","to":"\u95dc\u5edf","type":"route"},"geometry":{"type":"LineString","coordinates":[[120.2164733,22.964671],[120.2168977,22.9646787]]}},{"type":"Feature","properties":{"from":"\u81fa\u5357\u516c\u5712","name":"\u7d053(\u5f80\u7a0b)","public_transport:version":"2","ref":"\u7d053","route":"bus","to":"\u95dc\u5edf","type":"route"},"geometry":{"type":"LineString","coordinates":[[120.2163639,22.9646286],[120.2164733,22.964671]]}},{"type":"Feature","properties":{"from":"\u81fa\u5357\u516c\u5712","name":"\u7d053(\u5f80\u7a0b)","public_transport:version":"2","ref":"\u7d053","route":"bus","to":"\u95dc\u5edf","type":"route"},"geometry":{"type":"LineString","coordinates":[[120.2163639,22.9646286],[120.2166266,22.9635889],[120.2167003,22.9631582],[120.2167241,22.9627767],[120.2167294,22.9619587],[120.2167756,22.9615328],[120.2169192,22.9604678]]}},{"type":"Feature","properties":{"from":"\u81fa\u5357\u516c\u5712","name":"\u7d053(\u5f80\u7a0b)","public_transport:version":"2","ref":"\u7d053","route":"bus","to":"\u95dc\u5edf","type":"route"},"geometry":{"type":"LineString","coordinates":[[120.2169192,22.9604678],[120.217196,22.9582627],[120.2179297,22.9524172]]}},{"type":"Feature","properties":{"from":"\u81fa\u5357\u516c\u5712","name":"\u7d053(\u5f80\u7a0b)","public_transport:version":"2","ref":"\u7d053","route":"bus","to":"\u95dc\u5edf","type":"route"},"geometry":{"type":"LineString","coordinates":[[120.2179297,22.9524172],[120.2168391,22.9524024]]}},{"type":"Feature","properties":{"from":"\u81fa\u5357\u516c\u5712","name":"\u7d053(\u5f80\u7a0b)","public_transport:version":"2","ref":"\u7d053","route":"bus","to":"\u95dc\u5edf","type":"route"},"geometry":{"type":"LineString","coordinates":[[120.2168391,22.9524024],[120.2167571,22.9523967]]}},{"type":"Feature","properties":{"from":"\u81fa\u5357\u516c\u5712","name":"\u7d053(\u5f80\u7a0b)","public_transport:version":"2","ref":"\u7d053","route":"bus","to":"\u95dc\u5edf","type":"route"},"geometry":{"type":"LineString","coordinates":[[120.2167571,22.9523967],[120.2166179,22.9486081],[120.2166108,22.9478656]]}},{"type":"Feature","properties":{"from":"\u81fa\u5357\u516c\u5712","name":"\u7d053(\u5f80\u7a0b)","public_transport:version":"2","ref":"\u7d053","route":"bus","to":"\u95dc\u5edf","type":"route"},"geometry":{"type":"LineString","coordinates":[[120.2166108,22.9478656],[120.2166086,22.9476391],[120.2166079,22.9475685],[120.2165961,22.9471008],[120.2166181,22.9440967],[120.216602,22.943699],[120.2166268,22.9433227],[120.2166764,22.9430535],[120.2167613,22.9427621],[120.2168401,22.9425575],[120.216967,22.9422796],[120.2170904,22.9420581],[120.2174853,22.9415101],[120.2188731,22.9395414],[120.2189371,22.9393739],[120.2190085,22.9390857],[120.2190341,22.9388274],[120.219072,22.9383558],[120.2191249,22.9381227],[120.2191828,22.9379619],[120.2192528,22.9378473],[120.219375,22.9376839],[120.2195027,22.9375568],[120.2196741,22.9374306],[120.2198896,22.9373023],[120.2201359,22.9372266],[120.2203769,22.9371918],[120.2209462,22.9372059]]}},{"type":"Feature","properties":{"from":"\u81fa\u5357\u516c\u5712","name":"\u7d053(\u5f80\u7a0b)","public_transport:version":"2","ref":"\u7d053","route":"bus","to":"\u95dc\u5edf","type":"route"},"geometry":{"type":"LineString","coordinates":[[120.2209462,22.9372059],[120.2210719,22.9372158]]}},{"type":"Feature","properties":{"from":"\u81fa\u5357\u516c\u5712","name":"\u7d053(\u5f80\u7a0b)","public_transport:version":"2","ref":"\u7d053","route":"bus","to":"\u95dc\u5edf","type":"route"},"geometry":{"type":"LineString","coordinates":[[120.2210719,22.9372158],[120.2222728,22.9373137],[120.2245898,22.9375248],[120.2246709,22.9375364]]}},{"type":"Feature","properties":{"from":"\u81fa\u5357\u516c\u5712","name":"\u7d053(\u5f80\u7a0b)","public_transport:version":"2","ref":"\u7d053","route":"bus","to":"\u95dc\u5edf","type":"route"},"geometry":{"type":"LineString","coordinates":[[120.2246709,22.9375364],[120.2247954,22.9375214],[120.2254661,22.9375959],[120.2257812,22.9376811],[120.2259923,22.9377477],[120.2263796,22.9379314],[120.2266948,22.9381151],[120.2267605,22.9381598]]}},{"type":"Feature","properties":{"from":"\u81fa\u5357\u516c\u5712","name":"\u7d053(\u5f80\u7a0b)","public_transport:version":"2","ref":"\u7d053","route":"bus","to":"\u95dc\u5edf","type":"route"},"geometry":{"type":"LineString","coordinates":[[120.2267605,22.9381598],[120.2270948,22.9378428],[120.2272372,22.9376729],[120.227324,22.9375335],[120.2274181,22.9373695],[120.2275065,22.9371559],[120.2280013,22.9360422]]}},{"type":"Feature","properties":{"from":"\u81fa\u5357\u516c\u5712","name":"\u7d053(\u5f80\u7a0b)","public_transport:version":"2","ref":"\u7d053","route":"bus","to":"\u95dc\u5edf","type":"route"},"geometry":{"type":"LineString","coordinates":[[120.2289229,22.9364225],[120.2284664,22.9362202],[120.2283258,22.9361676],[120.2280013,22.9360422]]}},{"type":"Feature","properties":{"from":"\u81fa\u5357\u516c\u5712","name":"\u7d053(\u5f80\u7a0b)","public_transport:version":"2","ref":"\u7d053","route":"bus","to":"\u95dc\u5edf","type":"route"},"geometry":{"type":"LineString","coordinates":[[120.2289229,22.9364225],[120.2291536,22.9359396],[120.2293172,22.9355406],[120.2295429,22.9347612],[120.2296279,22.9344632],[120.2296577,22.9343639],[120.2297477,22.9341549]]}},{"type":"Feature","properties":{"from":"\u81fa\u5357\u516c\u5712","name":"\u7d053(\u5f80\u7a0b)","public_transport:version":"2","ref":"\u7d053","route":"bus","to":"\u95dc\u5edf","type":"route"},"geometry":{"type":"LineString","coordinates":[[120.2297477,22.9341549],[120.2298791,22.9339906],[120.2300575,22.9337732]]}},{"type":"Feature","properties":{"from":"\u81fa\u5357\u516c\u5712","name":"\u7d053(\u5f80\u7a0b)","public_transport:version":"2","ref":"\u7d053","route":"bus","to":"\u95dc\u5edf","type":"route"},"geometry":{"type":"LineString","coordinates":[[120.2300575,22.9337732],[120.2302131,22.9336003],[120.2304519,22.9332459],[120.2306006,22.9329803]]}},{"type":"Feature","properties":{"from":"\u81fa\u5357\u516c\u5712","name":"\u7d053(\u5f80\u7a0b)","public_transport:version":"2","ref":"\u7d053","route":"bus","to":"\u95dc\u5edf","type":"route"},"geometry":{"type":"LineString","coordinates":[[120.2306006,22.9329803],[120.2307911,22.9326048]]}},{"type":"Feature","properties":{"from":"\u81fa\u5357\u516c\u5712","name":"\u7d053(\u5f80\u7a0b)","public_transport:version":"2","ref":"\u7d053","route":"bus","to":"\u95dc\u5edf","type":"route"},"geometry":{"type":"LineString","coordinates":[[120.2307911,22.9326048],[120.2308863,22.9323714],[120.2309185,22.9322034],[120.2309533,22.9319576],[120.2309815,22.9314672],[120.230999,22.9309275]]}},{"type":"Feature","properties":{"from":"\u81fa\u5357\u516c\u5712","name":"\u7d053(\u5f80\u7a0b)","public_transport:version":"2","ref":"\u7d053","route":"bus","to":"\u95dc\u5edf","type":"route"},"geometry":{"type":"LineString","coordinates":[[120.2239072,22.9229852],[120.2242274,22.9231181],[120.2246681,22.9234674],[120.2249914,22.9236928],[120.2251262,22.9238427],[120.2252506,22.9240548],[120.2254263,22.9243969],[120.2255682,22.9247161],[120.2256294,22.9248363],[120.2256478,22.9248723],[120.2258008,22.9251695],[120.2261101,22.9258558],[120.2263681,22.9264281],[120.2264888,22.9266566],[120.2269099,22.9275595],[120.2271487,22.9281339],[120.2272388,22.9284738],[120.2273794,22.9288662],[120.2274762,22.9290284],[120.2276314,22.9291736],[120.2279587,22.9293725],[120.2283999,22.9296134],[120.2294406,22.9301667],[120.230999,22.9309275]]}},{"type":"Feature","properties":{"from":"\u81fa\u5357\u516c\u5712","name":"\u7d053(\u5f80\u7a0b)","public_transport:version":"2","ref":"\u7d053","route":"bus","to":"\u95dc\u5edf","type":"route"},"geometry":{"type":"LineString","coordinates":[[120.2237942,22.9229483],[120.2239072,22.9229852]]}},{"type":"Feature","properties":{"from":"\u81fa\u5357\u516c\u5712","name":"\u7d053(\u5f80\u7a0b)","public_transport:version":"2","ref":"\u7d053","route":"bus","to":"\u95dc\u5edf","type":"route"},"geometry":{"type":"LineString","coordinates":[[120.2237942,22.9229483],[120.2246392,22.9213197],[120.2247519,22.9211179],[120.2249052,22.9208307]]}},{"type":"Feature","properties":{"from":"\u81fa\u5357\u516c\u5712","name":"\u7d053(\u5f80\u7a0b)","public_transport:version":"2","ref":"\u7d053","route":"bus","to":"\u95dc\u5edf","type":"route"},"geometry":{"type":"LineString","coordinates":[[120.2249052,22.9208307],[120.2251326,22.9204034],[120.2251904,22.9202939]]}},{"type":"Feature","properties":{"from":"\u81fa\u5357\u516c\u5712","name":"\u7d053(\u5f80\u7a0b)","public_transport:version":"2","ref":"\u7d053","route":"bus","to":"\u95dc\u5edf","type":"route"},"geometry":{"type":"LineString","coordinates":[[120.2251904,22.9202939],[120.2253064,22.9200326],[120.2254687,22.9196988],[120.2256175,22.9191037],[120.2256707,22.9185912]]}},{"type":"Feature","properties":{"from":"\u81fa\u5357\u516c\u5712","name":"\u7d053(\u5f80\u7a0b)","public_transport:version":"2","ref":"\u7d053","route":"bus","to":"\u95dc\u5edf","type":"route"},"geometry":{"type":"LineString","coordinates":[[120.2258025,22.9186432],[120.2256707,22.9185912]]}},{"type":"Feature","properties":{"from":"\u81fa\u5357\u516c\u5712","name":"\u7d053(\u5f80\u7a0b)","public_transport:version":"2","ref":"\u7d053","route":"bus","to":"\u95dc\u5edf","type":"route"},"geometry":{"type":"LineString","coordinates":[[120.2362885,22.9221622],[120.23613,22.9220512],[120.2359369,22.9218783],[120.2356033,22.9215248],[120.2354107,22.9213207],[120.2352779,22.92118],[120.2351789,22.921075],[120.2350479,22.9209362],[120.2349198,22.9207814],[120.2345987,22.9204075],[120.2343035,22.9200576],[120.234181,22.9199456],[120.2340194,22.9197977],[120.2337663,22.9196103],[120.2336206,22.9195511],[120.2333873,22.9194978],[120.2332656,22.9194909],[120.232515,22.9193768],[120.2316982,22.9192673],[120.2305466,22.9191801],[120.2303135,22.9191705],[120.2292666,22.9191318],[120.2289132,22.9191238],[120.2282293,22.9190968],[120.2275358,22.919069],[120.2273144,22.9190459],[120.2270701,22.9190014],[120.2267649,22.918916],[120.2264507,22.9188122],[120.2258025,22.9186432]]}},{"type":"Feature","properties":{"from":"\u81fa\u5357\u516c\u5712","name":"\u7d053(\u5f80\u7a0b)","public_transport:version":"2","ref":"\u7d053","route":"bus","to":"\u95dc\u5edf","type":"route"},"geometry":{"type":"LineString","coordinates":[[120.2362885,22.9221622],[120.2364361,22.9220484],[120.2368009,22.921773],[120.2371982,22.9215081],[120.2377277,22.9211452],[120.2381822,22.9208071],[120.2387549,22.9203846],[120.2391021,22.9201169],[120.2393477,22.9199992],[120.2402127,22.9194051],[120.2405104,22.9191654],[120.2410348,22.9187801],[120.241421,22.9185132],[120.2416906,22.9182711],[120.2418385,22.918081],[120.2419981,22.9178759],[120.2423681,22.9173289],[120.2427725,22.9167742],[120.243084,22.9163321],[120.2431909,22.9161929],[120.24329,22.9160881],[120.2437515,22.9156345],[120.2443127,22.9151793],[120.2452867,22.9143338],[120.2464951,22.9132974],[120.2475563,22.9123864],[120.2477382,22.9122333],[120.2479073,22.9120846],[120.2481232,22.9118187],[120.2487669,22.910912],[120.2493114,22.9101054],[120.2496037,22.9097125],[120.2499537,22.9092221],[120.2499873,22.9091431],[120.2501321,22.9086687],[120.2501402,22.9086446],[120.2502354,22.9083055],[120.2502654,22.9081972],[120.2502971,22.9080831],[120.2503191,22.9080332],[120.2503776,22.9078843],[120.2504701,22.9077978],[120.2505928,22.9077904],[120.251167,22.9079393],[120.2514421,22.9079876],[120.2515048,22.9079982],[120.2516082,22.9080079],[120.2516322,22.9080096],[120.2518414,22.9080276],[120.2520697,22.9080529],[120.2525951,22.9081474],[120.2530984,22.9082209],[120.2540438,22.9083468],[120.254243,22.9083778],[120.2546567,22.9084581],[120.2565929,22.9087107],[120.2580172,22.9089133],[120.2583551,22.9089726]]}},{"type":"Feature","properties":{"from":"\u81fa\u5357\u516c\u5712","name":"\u7d053(\u5f80\u7a0b)","public_transport:version":"2","ref":"\u7d053","route":"bus","to":"\u95dc\u5edf","type":"route"},"geometry":{"type":"LineString","coordinates":[[120.2583551,22.9089726],[120.2601522,22.909211],[120.2610005,22.9093358],[120.2615899,22.9094173],[120.2617102,22.9094377],[120.2619627,22.9094729]]}},{"type":"Feature","properties":{"from":"\u81fa\u5357\u516c\u5712","name":"\u7d053(\u5f80\u7a0b)","public_transport:version":"2","ref":"\u7d053","route":"bus","to":"\u95dc\u5edf","type":"route"},"geometry":{"type":"LineString","coordinates":[[120.2619627,22.9094729],[120.2630222,22.9095532],[120.2637584,22.9096273],[120.2644035,22.909715],[120.2656432,22.9099486]]}},{"type":"Feature","properties":{"from":"\u81fa\u5357\u516c\u5712","name":"\u7d053(\u5f80\u7a0b)","public_transport:version":"2","ref":"\u7d053","route":"bus","to":"\u95dc\u5edf","type":"route"},"geometry":{"type":"LineString","coordinates":[[120.2656432,22.9099486],[120.2657551,22.9099734],[120.2660699,22.9100284],[120.2667637,22.9101407],[120.2668045,22.9101405],[120.2687554,22.9103982],[120.2688332,22.9104105],[120.269306,22.9104599],[120.2697587,22.9105231]]}},{"type":"Feature","properties":{"from":"\u81fa\u5357\u516c\u5712","name":"\u7d053(\u5f80\u7a0b)","public_transport:version":"2","ref":"\u7d053","route":"bus","to":"\u95dc\u5edf","type":"route"},"geometry":{"type":"LineString","coordinates":[[120.2714218,22.9144198],[120.2711633,22.9137819],[120.2708135,22.9129507],[120.2705893,22.9124659],[120.2704661,22.9122226],[120.2703925,22.9120776],[120.2701404,22.9114403],[120.2697587,22.9105231]]}},{"type":"Feature","properties":{"from":"\u81fa\u5357\u516c\u5712","name":"\u7d053(\u5f80\u7a0b)","public_transport:version":"2","ref":"\u7d053","route":"bus","to":"\u95dc\u5edf","type":"route"},"geometry":{"type":"LineString","coordinates":[[120.2721317,22.9160526],[120.2718232,22.9152626],[120.2714218,22.9144198]]}},{"type":"Feature","properties":{"from":"\u81fa\u5357\u516c\u5712","name":"\u7d053(\u5f80\u7a0b)","public_transport:version":"2","ref":"\u7d053","route":"bus","to":"\u95dc\u5edf","type":"route"},"geometry":{"type":"LineString","coordinates":[[120.2742539,22.9209391],[120.2734418,22.9189957],[120.2733317,22.9187912],[120.2729313,22.9178149],[120.272655,22.9171894],[120.2724188,22.9166908],[120.2721317,22.9160526]]}},{"type":"Feature","properties":{"from":"\u81fa\u5357\u516c\u5712","name":"\u7d053(\u5f80\u7a0b)","public_transport:version":"2","ref":"\u7d053","route":"bus","to":"\u95dc\u5edf","type":"route"},"geometry":{"type":"LineString","coordinates":[[120.2742539,22.9209391],[120.2743704,22.9210215],[120.2749087,22.9221597],[120.2752997,22.922995],[120.2757876,22.9241708],[120.275854,22.9243299],[120.2759273,22.9244862]]}},{"type":"Feature","properties":{"from":"\u81fa\u5357\u516c\u5712","name":"\u7d053(\u5f80\u7a0b)","public_transport:version":"2","ref":"\u7d053","route":"bus","to":"\u95dc\u5edf","type":"route"},"geometry":{"type":"LineString","coordinates":[[120.2759273,22.9244862],[120.2757846,22.9245503]]}},{"type":"Feature","properties":{"from":"\u81fa\u5357\u516c\u5712","name":"\u7d053(\u5f80\u7a0b)","public_transport:version":"2","ref":"\u7d053","route":"bus","to":"\u95dc\u5edf","type":"route"},"geometry":{"type":"LineString","coordinates":[[120.2757846,22.9245503],[120.2748006,22.9248563],[120.2746868,22.9248534]]}},{"type":"Feature","properties":{"from":"\u81fa\u5357\u516c\u5712","name":"\u7d053(\u5f80\u7a0b)","public_transport:version":"2","ref":"\u7d053","route":"bus","to":"\u95dc\u5edf","type":"route"},"geometry":{"type":"LineString","coordinates":[[120.2746868,22.9248534],[120.2738382,22.92512],[120.2732171,22.9253671],[120.2730945,22.9253897],[120.2729376,22.9253626],[120.2724489,22.9252704]]}},{"type":"Feature","properties":{"from":"\u81fa\u5357\u516c\u5712","name":"\u7d053(\u5f80\u7a0b)","public_transport:version":"2","ref":"\u7d053","route":"bus","to":"\u95dc\u5edf","type":"route"},"geometry":{"type":"LineString","coordinates":[[120.2746868,22.9248534],[120.2747496,22.9247408],[120.2757053,22.9243893]]}},{"type":"Feature","properties":{"from":"\u81fa\u5357\u516c\u5712","name":"\u7d053(\u5f80\u7a0b)","public_transport:version":"2","ref":"\u7d053","route":"bus","to":"\u95dc\u5edf","type":"route"},"geometry":{"type":"LineString","coordinates":[[120.2757053,22.9243893],[120.275854,22.9243299],[120.2775688,22.9237034],[120.2776035,22.9236912],[120.278211,22.9234849],[120.278787,22.923251],[120.2793923,22.923032],[120.2794706,22.9230056],[120.2796969,22.9229242],[120.2799357,22.9228476],[120.2801985,22.9227982],[120.2803836,22.9227586],[120.2805767,22.9227438],[120.28092,22.9227438],[120.2812365,22.9227735],[120.281612,22.9228402],[120.2818159,22.9228995],[120.282001,22.9229637],[120.2824703,22.9231465],[120.2827627,22.9232527],[120.2828849,22.9233044]]}},{"type":"Feature","properties":{"from":"\u81fa\u5357\u516c\u5712","name":"\u7d053(\u5f80\u7a0b)","public_transport:version":"2","ref":"\u7d053","route":"bus","to":"\u95dc\u5edf","type":"route"},"geometry":{"type":"LineString","coordinates":[[120.2828849,22.9233044],[120.2828075,22.923463],[120.28269,22.9236612],[120.2823292,22.9243654],[120.2818884,22.9252115]]}},{"type":"Feature","properties":{"from":"\u81fa\u5357\u516c\u5712","name":"\u7d053(\u5f80\u7a0b)","public_transport:version":"2","ref":"\u7d053","route":"bus","to":"\u95dc\u5edf","type":"route"},"geometry":{"type":"LineString","coordinates":[[120.2818884,22.9252115],[120.2835779,22.9259442],[120.283709,22.9259957]]}},{"type":"Feature","properties":{"from":"\u81fa\u5357\u516c\u5712","name":"\u7d053(\u5f80\u7a0b)","public_transport:version":"2","ref":"\u7d053","route":"bus","to":"\u95dc\u5edf","type":"route"},"geometry":{"type":"LineString","coordinates":[[120.283709,22.9259957],[120.2843603,22.9262869],[120.2844905,22.9263394],[120.2845912,22.9263819],[120.285124,22.9266323]]}},{"type":"Feature","properties":{"from":"\u81fa\u5357\u516c\u5712","name":"\u7d053(\u5f80\u7a0b)","public_transport:version":"2","ref":"\u7d053","route":"bus","to":"\u95dc\u5edf","type":"route"},"geometry":{"type":"LineString","coordinates":[[120.285124,22.9266323],[120.285364,22.9262122],[120.2856202,22.9256539],[120.2857074,22.9254909],[120.2864597,22.9240421],[120.2866699,22.9236203]]}},{"type":"Feature","properties":{"from":"\u81fa\u5357\u516c\u5712","name":"\u7d053(\u5f80\u7a0b)","public_transport:version":"2","ref":"\u7d053","route":"bus","to":"\u95dc\u5edf","type":"route"},"geometry":{"type":"LineString","coordinates":[[120.2866699,22.9236203],[120.2862723,22.9234451]]}},{"type":"Feature","properties":{"from":"\u81fa\u5357\u516c\u5712","name":"\u7d053(\u5f80\u7a0b)","public_transport:version":"2","ref":"\u7d053","route":"bus","to":"\u95dc\u5edf","type":"route"},"geometry":{"type":"LineString","coordinates":[[120.2862723,22.9234451],[120.2861888,22.9236279]]}},{"type":"Feature","properties":{"from":"\u81fa\u5357\u516c\u5712","name":"\u7d053(\u5f80\u7a0b)","public_transport:version":"2","ref":"\u7d053","route":"bus","to":"\u95dc\u5edf","type":"route"},"geometry":{"type":"LineString","coordinates":[[120.2861888,22.9236279],[120.2863442,22.9236947],[120.2861988,22.9239943],[120.2858135,22.9238357]]}},{"type":"Feature","properties":{"from":"\u81fa\u5357\u516c\u5712","name":"\u7d053(\u5f80\u7a0b)","public_transport:version":"2","ref":"\u7d053","route":"bus","to":"\u95dc\u5edf","type":"route"},"geometry":{"type":"LineString","coordinates":[[120.2858135,22.9238357],[120.285959,22.923536],[120.2861397,22.9236095]]}},{"type":"Feature","properties":{"from":"\u81fa\u5357\u516c\u5712","name":"\u7d053(\u5f80\u7a0b)","public_transport:version":"2","ref":"\u7d053","route":"bus","to":"\u95dc\u5edf","type":"route"},"geometry":{"type":"LineString","coordinates":[[120.2861397,22.9236095],[120.2862261,22.9234256]]}},{"type":"Feature","properties":{"from":"\u81fa\u5357\u516c\u5712","name":"\u7d053(\u5f80\u7a0b)","public_transport:version":"2","ref":"\u7d053","route":"bus","to":"\u95dc\u5edf","type":"route"},"geometry":{"type":"LineString","coordinates":[[120.2862261,22.9234256],[120.285845,22.92327],[120.28554,22.9231419],[120.2852406,22.9230225],[120.2852045,22.9230114]]}},{"type":"Feature","properties":{"from":"\u81fa\u5357\u516c\u5712","name":"\u7d053(\u5f80\u7a0b)","public_transport:version":"2","ref":"\u7d053","route":"bus","to":"\u95dc\u5edf","type":"route"},"geometry":{"type":"LineString","coordinates":[[120.2852045,22.9230114],[120.2850819,22.9232318],[120.2849841,22.923436],[120.2849179,22.9235022],[120.2848159,22.9235665],[120.2846402,22.9236393],[120.2845061,22.9237233],[120.2844203,22.9237999],[120.2843023,22.9239383],[120.284246,22.9240593],[120.284203,22.9242199],[120.2841826,22.9243406],[120.2842308,22.9245676],[120.284264,22.9246577],[120.2842659,22.9247731],[120.2842314,22.9249046],[120.2841598,22.9250577],[120.283709,22.9259957]]}},{"type":"Feature","properties":{"from":"\u81fa\u5357\u516c\u5712","name":"\u7d053(\u5f80\u7a0b)","public_transport:version":"2","ref":"\u7d053","route":"bus","to":"\u95dc\u5edf","type":"route"},"geometry":{"type":"LineString","coordinates":[[120.283709,22.9259957],[120.2836759,22.9261155]]}},{"type":"Feature","properties":{"from":"\u81fa\u5357\u516c\u5712","name":"\u7d053(\u5f80\u7a0b)","public_transport:version":"2","ref":"\u7d053","route":"bus","to":"\u95dc\u5edf","type":"route"},"geometry":{"type":"LineString","coordinates":[[120.2836759,22.9261155],[120.2832978,22.9268945],[120.2832507,22.9269883],[120.2827783,22.9278699],[120.2827517,22.9279243]]}},{"type":"Feature","properties":{"from":"\u81fa\u5357\u516c\u5712","name":"\u7d053(\u5f80\u7a0b)","public_transport:version":"2","ref":"\u7d053","route":"bus","to":"\u95dc\u5edf","type":"route"},"geometry":{"type":"LineString","coordinates":[[120.2827517,22.9279243],[120.2825789,22.9278526],[120.2809187,22.927178],[120.2808464,22.9271522],[120.2798516,22.9268698],[120.2797581,22.9268491],[120.2792321,22.9267301],[120.2786611,22.9266075],[120.2785695,22.9265921],[120.2782728,22.9265478],[120.2781032,22.9265403],[120.277906,22.9265673],[120.2778275,22.9265926],[120.2775186,22.92671],[120.2769548,22.9269292]]}},{"type":"Feature","properties":{"from":"\u81fa\u5357\u516c\u5712","name":"\u7d053(\u5f80\u7a0b)","public_transport:version":"2","ref":"\u7d053","route":"bus","to":"\u95dc\u5edf","type":"route"},"geometry":{"type":"LineString","coordinates":[[120.2769548,22.9269292],[120.2771188,22.9272886],[120.2772064,22.9275111],[120.2772705,22.927701],[120.2773864,22.9280978],[120.2775418,22.9291222],[120.2776416,22.9298594],[120.2776634,22.9300384],[120.2776821,22.9301774]]}},{"type":"Feature","properties":{"from":"\u81fa\u5357\u516c\u5712","name":"\u7d053(\u5f80\u7a0b)","public_transport:version":"2","ref":"\u7d053","route":"bus","to":"\u95dc\u5edf","type":"route"},"geometry":{"type":"LineString","coordinates":[[120.2776821,22.9301774],[120.2778026,22.9310734],[120.2779409,22.9319378],[120.2779956,22.9321967],[120.2780412,22.9324634],[120.2780654,22.9326709],[120.2780814,22.9329772],[120.278068,22.9331452],[120.2780549,22.9333131],[120.2780063,22.9335232],[120.2778293,22.9340888],[120.2775722,22.9346452],[120.2773613,22.9350015]]}},{"type":"Feature","properties":{"from":"\u81fa\u5357\u516c\u5712","name":"\u7d053(\u5f80\u7a0b)","public_transport:version":"2","ref":"\u7d053","route":"bus","to":"\u95dc\u5edf","type":"route"},"geometry":{"type":"LineString","coordinates":[[120.2772755,22.9352139],[120.2773613,22.9350015]]}},{"type":"Feature","properties":{"from":"\u81fa\u5357\u516c\u5712","name":"\u7d053(\u5f80\u7a0b)","public_transport:version":"2","ref":"\u7d053","route":"bus","to":"\u95dc\u5edf","type":"route"},"geometry":{"type":"LineString","coordinates":[[120.2770746,22.9357571],[120.2772755,22.9352139]]}},{"type":"Feature","properties":{"from":"\u81fa\u5357\u516c\u5712","name":"\u7d053(\u5f80\u7a0b)","public_transport:version":"2","ref":"\u7d053","route":"bus","to":"\u95dc\u5edf","type":"route"},"geometry":{"type":"LineString","coordinates":[[120.2772293,22.9426521],[120.2771277,22.9418092],[120.2771187,22.9417101],[120.277073,22.9412051],[120.2769201,22.9393983],[120.276841,22.9386294],[120.2768034,22.9380051],[120.2768195,22.9375736],[120.2768986,22.9367342],[120.276957,22.9362595],[120.2770746,22.9357571]]}},{"type":"Feature","properties":{"from":"\u81fa\u5357\u516c\u5712","name":"\u7d053(\u5f80\u7a0b)","public_transport:version":"2","ref":"\u7d053","route":"bus","to":"\u95dc\u5edf","type":"route"},"geometry":{"type":"LineString","coordinates":[[120.2772333,22.94297],[120.2772293,22.9426521]]}},{"type":"Feature","properties":{"from":"\u81fa\u5357\u516c\u5712","name":"\u7d053(\u5f80\u7a0b)","public_transport:version":"2","ref":"\u7d053","route":"bus","to":"\u95dc\u5edf","type":"route"},"geometry":{"type":"LineString","coordinates":[[120.2772333,22.94297],[120.276796,22.9439438],[120.2760732,22.945574],[120.2756319,22.9467213],[120.2743169,22.9506164],[120.2742446,22.9508041],[120.2741051,22.9513252],[120.2738925,22.9521446],[120.2736806,22.9528757],[120.2734835,22.953792],[120.2733762,22.9543428],[120.273289,22.9547281],[120.2731241,22.9555308],[120.2730743,22.9557468],[120.272994,22.9562569],[120.2728853,22.9567941],[120.2727874,22.9574337],[120.2726158,22.9584241],[120.2725058,22.9593973],[120.2724023,22.9606741],[120.272382,22.9611305],[120.2722439,22.9626974],[120.2721947,22.9636427],[120.2721679,22.9641046],[120.2721491,22.9657987],[120.2722031,22.9678924],[120.2722309,22.9684622],[120.272186,22.9692064]]}},{"type":"Feature","properties":{"from":"\u81fa\u5357\u516c\u5712","name":"\u7d053(\u5f80\u7a0b)","public_transport:version":"2","ref":"\u7d053","route":"bus","to":"\u95dc\u5edf","type":"route"},"geometry":{"type":"LineString","coordinates":[[120.272186,22.9692064],[120.2725408,22.9691662],[120.2752264,22.9688621],[120.2764985,22.9687181],[120.2776487,22.9685879],[120.2796239,22.9683642],[120.2810049,22.9682078],[120.2825242,22.9680358],[120.2831239,22.9679679],[120.2840545,22.9678625],[120.2842185,22.9678439],[120.286016,22.9676404],[120.2864893,22.9675868],[120.2878871,22.9674285]]}},{"type":"Feature","properties":{"from":"\u81fa\u5357\u516c\u5712","name":"\u7d053(\u5f80\u7a0b)","public_transport:version":"2","ref":"\u7d053","route":"bus","to":"\u95dc\u5edf","type":"route"},"geometry":{"type":"LineString","coordinates":[[120.2878871,22.9674285],[120.2887142,22.9673349],[120.2890449,22.9672974],[120.2900391,22.9671849],[120.2901931,22.9671674],[120.2907215,22.9671076],[120.2922333,22.9669364],[120.2928851,22.9668626],[120.2939859,22.9667379]]}},{"type":"Feature","properties":{"from":"\u81fa\u5357\u516c\u5712","name":"\u7d053(\u5f80\u7a0b)","public_transport:version":"2","ref":"\u7d053","route":"bus","to":"\u95dc\u5edf","type":"route"},"geometry":{"type":"LineString","coordinates":[[120.293992,22.9667946],[120.2939859,22.9667379],[120.2939934,22.9666764],[120.2940152,22.9666178],[120.2940502,22.9665649],[120.2940969,22.9665202],[120.2941529,22.9664859],[120.2942157,22.9664636],[120.2942852,22.9664542],[120.2943552,22.9664595],[120.2944222,22.9664792],[120.2944825,22.9665123],[120.2945332,22.9665571],[120.2945716,22.9666114],[120.2945957,22.9666721],[120.294604,22.9667288],[120.2945999,22.9667859],[120.2945903,22.9668232],[120.2945753,22.9668589],[120.2945552,22.9668925],[120.2945303,22.9669233],[120.2945012,22.9669508],[120.2944684,22.9669744],[120.2944324,22.9669937],[120.2943939,22.9670084],[120.2943536,22.9670182],[120.2943013,22.9670232],[120.2942488,22.9670201],[120.2941977,22.9670088],[120.2941493,22.9669897],[120.2941052,22.9669633],[120.2940666,22.9669304],[120.2940346,22.966892],[120.2940101,22.9668491],[120.293992,22.9667946]]}},{"type":"Feature","properties":{"from":"\u81fa\u5357\u516c\u5712","name":"\u7d053(\u5f80\u7a0b)","public_transport:version":"2","ref":"\u7d053","route":"bus","to":"\u95dc\u5edf","type":"route"},"geometry":{"type":"LineString","coordinates":[[120.2945957,22.9666721],[120.2961704,22.9664508],[120.2963382,22.9664287]]}},{"type":"Feature","properties":{"from":"\u81fa\u5357\u516c\u5712","name":"\u7d053(\u5f80\u7a0b)","public_transport:version":"2","ref":"\u7d053","route":"bus","to":"\u95dc\u5edf","type":"route"},"geometry":{"type":"LineString","coordinates":[[120.2963382,22.9664287],[120.2971518,22.9663424],[120.2974559,22.9663101],[120.2977815,22.9662756],[120.3005538,22.9659815],[120.3010319,22.965924],[120.3017544,22.9658372],[120.3023435,22.9657664],[120.3028552,22.9657049]]}},{"type":"Feature","properties":{"from":"\u81fa\u5357\u516c\u5712","name":"\u7d053(\u5f80\u7a0b)","public_transport:version":"2","ref":"\u7d053","route":"bus","to":"\u95dc\u5edf","type":"route"},"geometry":{"type":"LineString","coordinates":[[120.3028552,22.9657049],[120.3031282,22.9656248],[120.3037259,22.9654518],[120.3040928,22.9653456],[120.308495,22.9640323],[120.3086714,22.9639752],[120.3092309,22.9638323],[120.3095885,22.9637233],[120.3098294,22.963657],[120.3100685,22.9635915],[120.310653,22.9634278],[120.3113999,22.9632031],[120.3130733,22.9627097],[120.3136908,22.9625483]]}},{"type":"Feature","properties":{"from":"\u81fa\u5357\u516c\u5712","name":"\u7d053(\u5f80\u7a0b)","public_transport:version":"2","ref":"\u7d053","route":"bus","to":"\u95dc\u5edf","type":"route"},"geometry":{"type":"LineString","coordinates":[[120.3136908,22.9625483],[120.3149703,22.9622138],[120.3161156,22.9619689],[120.3186656,22.9615111],[120.3219329,22.9609236],[120.3238185,22.9605723],[120.3240411,22.9605569]]}},{"type":"Feature","properties":{"from":"\u81fa\u5357\u516c\u5712","name":"\u7d053(\u5f80\u7a0b)","public_transport:version":"2","ref":"\u7d053","route":"bus","to":"\u95dc\u5edf","type":"route"},"geometry":{"type":"LineString","coordinates":[[120.3249927,22.9604061],[120.3248319,22.9604418],[120.3240411,22.9605569]]}},{"type":"Feature","properties":{"from":"\u81fa\u5357\u516c\u5712","name":"\u7d053(\u5f80\u7a0b)","public_transport:version":"2","ref":"\u7d053","route":"bus","to":"\u95dc\u5edf","type":"route"},"geometry":{"type":"LineString","coordinates":[[120.3260302,22.9602204],[120.3253322,22.9603405],[120.3249927,22.9604061]]}},{"type":"Feature","properties":{"from":"\u81fa\u5357\u516c\u5712","name":"\u7d053(\u5f80\u7a0b)","public_transport:version":"2","ref":"\u7d053","route":"bus","to":"\u95dc\u5edf","type":"route"},"geometry":{"type":"LineString","coordinates":[[120.3268571,22.9600705],[120.3265416,22.9601353],[120.3261864,22.9601873],[120.3260302,22.9602204]]}},{"type":"Feature","properties":{"from":"\u81fa\u5357\u516c\u5712","name":"\u7d053(\u5f80\u7a0b)","public_transport:version":"2","ref":"\u7d053","route":"bus","to":"\u95dc\u5edf","type":"route"},"geometry":{"type":"LineString","coordinates":[[120.3278794,22.9598795],[120.3272239,22.960002],[120.3268571,22.9600705]]}},{"type":"Feature","properties":{"from":"\u81fa\u5357\u516c\u5712","name":"\u7d053(\u5f80\u7a0b)","public_transport:version":"2","ref":"\u7d053","route":"bus","to":"\u95dc\u5edf","type":"route"},"geometry":{"type":"LineString","coordinates":[[120.3278794,22.9598795],[120.3280094,22.9604722],[120.3281248,22.9609045],[120.3282267,22.9613181],[120.3283233,22.9617145],[120.3284114,22.9621019],[120.3284855,22.9625159]]}},{"type":"Feature","properties":{"from":"\u81fa\u5357\u516c\u5712","name":"\u7d053(\u5f80\u7a0b)","public_transport:version":"2","ref":"\u7d053","route":"bus","to":"\u95dc\u5edf","type":"route"},"geometry":{"type":"LineString","coordinates":[[120.3310423,22.9617802],[120.3306946,22.9618846],[120.3302583,22.9620169],[120.3296646,22.962194],[120.3293209,22.962287],[120.3284855,22.9625159]]}},{"type":"Feature","properties":{"from":"\u81fa\u5357\u516c\u5712","name":"\u7d053(\u5f80\u7a0b)","public_transport:version":"2","ref":"\u7d053","route":"bus","to":"\u95dc\u5edf","type":"route"},"geometry":{"type":"LineString","coordinates":[[120.3350244,22.9633569],[120.334839,22.9632757],[120.3335667,22.9627519],[120.3328159,22.9624545],[120.3326283,22.962378],[120.3320109,22.9621191],[120.3312014,22.9618044],[120.3311222,22.961783],[120.3310423,22.9617802]]}},{"type":"Feature","properties":{"from":"\u81fa\u5357\u516c\u5712","name":"\u7d053(\u5f80\u7a0b)","public_transport:version":"2","ref":"\u7d053","route":"bus","to":"\u95dc\u5edf","type":"route"},"geometry":{"type":"LineString","coordinates":[[120.3370938,22.9633695],[120.3369477,22.9633955],[120.3357288,22.9635937],[120.3356182,22.9635788],[120.3352902,22.9634662],[120.3350244,22.9633569]]}},{"type":"Feature","properties":{"from":"\u81fa\u5357\u516c\u5712","name":"\u7d053(\u5f80\u7a0b)","public_transport:version":"2","ref":"\u7d053","route":"bus","to":"\u95dc\u5edf","type":"route"},"geometry":{"type":"LineString","coordinates":[[120.3374926,22.963346],[120.3372735,22.9633533],[120.3370938,22.9633695]]}},{"type":"Feature","properties":{"from":"\u81fa\u5357\u516c\u5712","name":"\u7d053(\u5f80\u7a0b)","public_transport:version":"2","ref":"\u7d053","route":"bus","to":"\u95dc\u5edf","type":"route"},"geometry":{"type":"LineString","coordinates":[[120.3370938,22.9633695],[120.3371338,22.9634482],[120.33717,22.9635173],[120.3372129,22.9635519],[120.3373631,22.9635334],[120.3374128,22.963484],[120.3374926,22.963346]]}},{"type":"Feature","properties":{"bus":"yes","highway":"bus_stop","name":"\u95dc\u5edf\u8f49\u904b\u7ad9","network":"\u81fa\u5357\u5e02\u516c\u8eca","note":"\u8fd4\u7a0b","operator":"\u81fa\u5357\u5e02\u516c\u8eca","public_transport":"platform","ref":"3347"},"geometry":{"type":"Point","coordinates":[120.3372556,22.9636506]}},{"type":"Feature","properties":{"bus":"yes","highway":"bus_stop","name":"\u82b1\u5712","network":"\u81fa\u5357\u5e02\u516c\u8eca","note":"\u8208\u5357\u5ba2\u904b","operator":"\u81fa\u5357\u5e02\u516c\u8eca","public_transport":"platform","ref":"3348"},"geometry":{"type":"Point","coordinates":[120.3342859,22.9631737]}},{"type":"Feature","properties":{"bus":"yes","highway":"bus_stop","name":"\u5317\u52e2\u91cc","network":"\u81fa\u5357\u5e02\u516c\u8eca","note":"\u8208\u5357\u5ba2\u904b","operator":"\u81fa\u5357\u5e02\u516c\u8eca","public_transport":"platform","ref":"3349"},"geometry":{"type":"Point","coordinates":[120.3313707,22.961975]}},{"type":"Feature","properties":{"bus":"yes","highway":"bus_stop","name":"\u95dc\u5edf\u5e02\u5834","network":"\u81fa\u5357\u5e02\u516c\u8eca","note":"\u8208\u5357\u5ba2\u904b","operator":"\u81fa\u5357\u5e02\u516c\u8eca","public_transport":"platform","ref":"3350"},"geometry":{"type":"Point","coordinates":[120.3282731,22.961973]}},{"type":"Feature","properties":{"bus":"yes","highway":"bus_stop","name":"\u95dc\u5edf\u570b\u4e2d","network":"\u81fa\u5357\u5e02\u516c\u8eca","note":"\u8208\u5357\u5ba2\u904b","operator":"\u81fa\u5357\u5e02\u516c\u8eca","public_transport":"platform","ref":"1534"},"geometry":{"type":"Point","coordinates":[120.3249486,22.9605263]}},{"type":"Feature","properties":{"bus":"yes","highway":"bus_stop","name":"\u5927\u4e9e\u516c\u53f8","network":"\u81fa\u5357\u5e02\u516c\u8eca","note":"\u8208\u5357\u5ba2\u904b","operator":"\u81fa\u5357\u5e02\u516c\u8eca","public_transport":"platform"},"geometry":{"type":"Point","coordinates":[120.3170077,22.9618912]}},{"type":"Feature","properties":{"bus":"yes","highway":"bus_stop","name":"\u6b78\u4ec1\u4ea4\u6d41\u9053","network":"\u81fa\u5357\u5e02\u516c\u8eca","note":"\u8208\u5357\u5ba2\u904b","operator":"\u81fa\u5357\u5e02\u516c\u8eca","public_transport":"platform"},"geometry":{"type":"Point","coordinates":[120.3127512,22.9629167]}},{"type":"Feature","properties":{"bus":"yes","highway":"bus_stop","name":"\u4fee\u5143\u5802","network":"\u81fa\u5357\u5e02\u516c\u8eca","note":"\u8208\u5357\u5ba2\u904b","operator":"\u81fa\u5357\u5e02\u516c\u8eca","public_transport":"platform"},"geometry":{"type":"Point","coordinates":[120.30706,22.9645641]}},{"type":"Feature","properties":{"bus":"yes","highway":"bus_stop","name":"\u770b\u6771\u91cc","network":"\u81fa\u5357\u5e02\u516c\u8eca","note":"\u8208\u5357\u5ba2\u904b","operator":"\u81fa\u5357\u5e02\u516c\u8eca","public_transport":"platform"},"geometry":{"type":"Point","coordinates":[120.3036817,22.9656217]}},{"type":"Feature","properties":{"bus":"yes","highway":"bus_stop","name":"\u5584\u5316\u5bfa","network":"\u81fa\u5357\u5e02\u516c\u8eca","note":"\u8208\u5357\u5ba2\u904b","operator":"\u81fa\u5357\u5e02\u516c\u8eca","public_transport":"platform"},"geometry":{"type":"Point","coordinates":[120.300945,22.9660644]}},{"type":"Feature","properties":{"bus":"yes","highway":"bus_stop","name":"\u6b78\u4ec1\u6587\u5316\u4e2d\u5fc3","network":"\u81fa\u5357\u5e02\u516c\u8eca","operator":"\u81fa\u5357\u5e02\u516c\u8eca","public_transport":"platform","ref":"8943"},"geometry":{"type":"Point","coordinates":[120.298284,22.9663629]}},{"type":"Feature","properties":{"bus":"yes","highway":"bus_stop","name":"\u6b78\u4ec1\u5e02\u5834","network":"\u81fa\u5357\u5e02\u516c\u8eca","operator":"\u81fa\u5357\u5e02\u516c\u8eca","public_transport":"platform"},"geometry":{"type":"Point","coordinates":[120.296024,22.9666465]}},{"type":"Feature","properties":{"bus":"yes","highway":"bus_stop","name":"\u6b78\u4ec1\u516c\u6240","name:en":"Gueiren District Office","name:zh":"\u6b78\u4ec1\u516c\u6240","network":"\u81fa\u5357\u5e02\u516c\u8eca","operator":"\u81fa\u5357\u5e02\u516c\u8eca","public_transport":"platform","ref":"1541"},"geometry":{"type":"Point","coordinates":[120.2936278,22.9669047]}},{"type":"Feature","properties":{"bus":"yes","highway":"bus_stop","name":"\u5f8c\u5e02","network":"\u81fa\u5357\u5e02\u516c\u8eca","note":"\u8208\u5357\u5ba2\u904b","operator":"\u81fa\u5357\u5e02\u516c\u8eca","public_transport":"platform"},"geometry":{"type":"Point","coordinates":[120.2892983,22.96734]}},{"type":"Feature","properties":{"bus":"yes","highway":"bus_stop","name":"\u59d3\u674e\u4ed4","network":"\u81fa\u5357\u5e02\u516c\u8eca","note":"\u8208\u5357\u5ba2\u904b","operator":"\u81fa\u5357\u5e02\u516c\u8eca","public_transport":"platform"},"geometry":{"type":"Point","coordinates":[120.2853897,22.9677986]}},{"type":"Feature","properties":{"bus":"yes","highway":"bus_stop","name":"\u5357\u4fdd","network":"\u81fa\u5357\u5e02\u516c\u8eca","note":"\u8208\u5357\u5ba2\u904b","operator":"\u81fa\u5357\u5e02\u516c\u8eca","public_transport":"platform"},"geometry":{"type":"Point","coordinates":[120.2815364,22.9682718]}},{"type":"Feature","properties":{"bus":"yes","highway":"bus_stop","name":"\u5357\u8208\u91cc","network":"\u81fa\u5357\u5e02\u516c\u8eca","note":"\u8208\u5357\u5ba2\u904b","operator":"\u81fa\u5357\u5e02\u516c\u8eca","public_transport":"platform"},"geometry":{"type":"Point","coordinates":[120.2775011,22.9687446]}},{"type":"Feature","properties":{"bus":"yes","highway":"bus_stop","name":"\u4e0a\u5e1d\u5edf","network":"\u81fa\u5357\u5e02\u516c\u8eca","note":"\u8208\u5357\u5ba2\u904b","operator":"\u81fa\u5357\u5e02\u516c\u8eca","public_transport":"platform"},"geometry":{"type":"Point","coordinates":[120.2738563,22.9691655]}},{"type":"Feature","properties":{"bus":"yes","highway":"bus_stop","name":"\u516d\u7532\u4e09\u8def\u53e3","network":"\u81fa\u5357\u5e02\u516c\u8eca","note":"\u8208\u5357\u5ba2\u904b","operator":"\u81fa\u5357\u5e02\u516c\u8eca","public_transport":"platform"},"geometry":{"type":"Point","coordinates":[120.2736444,22.9517905]}},{"type":"Feature","properties":{"bus":"yes","highway":"bus_stop","name":"\u6210\u5927\u6b78\u4ec1\u6821\u5340","network":"\u81fa\u5357\u5e02\u516c\u8eca","note":"\u8208\u5357\u5ba2\u904b","operator":"\u81fa\u5357\u5e02\u516c\u8eca","public_transport":"platform"},"geometry":{"type":"Point","coordinates":[120.2767701,22.9363544]}},{"type":"Feature","properties":{"bus":"yes","highway":"bus_stop","name":"\u7aa9\u4ed4\u5e95","network":"\u81fa\u5357\u5e02\u516c\u8eca","note":"\u8208\u5357\u5ba2\u904b","operator":"\u81fa\u5357\u5e02\u516c\u8eca","public_transport":"platform"},"geometry":{"type":"Point","coordinates":[120.2767284,22.9270305]}},{"type":"Feature","properties":{"bus":"yes","highway":"bus_stop","name":"\u6c99\u5d19\u570b\u4e2d","network":"\u81fa\u5357\u5e02\u516c\u8eca","note":"\u8208\u5357\u5ba2\u904b","operator":"\u81fa\u5357\u5e02\u516c\u8eca","public_transport":"platform"},"geometry":{"type":"Point","coordinates":[120.2820605,22.9274731]}},{"type":"Feature","properties":{"bus":"yes","highway":"bus_stop","name":"\u9ad8\u9435\u81fa\u5357\u7ad9","network":"\u81fa\u5357\u5e02\u516c\u8eca","operator":"\u81fa\u5357\u5e02\u516c\u8eca","public_transport":"platform"},"geometry":{"type":"Point","coordinates":[120.2858331,22.9238787]}},{"type":"Feature","properties":{"bus":"yes","highway":"bus_stop","name":"\u81fa\u5357\u76e3\u7344","network":"\u81fa\u5357\u5e02\u516c\u8eca","note":"\u8208\u5357\u5ba2\u904b","operator":"\u81fa\u5357\u5e02\u516c\u8eca","public_transport":"platform"},"geometry":{"type":"Point","coordinates":[120.2747215,22.9246771]}},{"type":"Feature","properties":{"bus":"yes","highway":"bus_stop","name":"\u6b66\u6771","network":"\u81fa\u5357\u5e02\u516c\u8eca","note":"\u8208\u5357\u5ba2\u904b","operator":"\u81fa\u5357\u5e02\u516c\u8eca","public_transport":"platform"},"geometry":{"type":"Point","coordinates":[120.272718,22.9176019]}},{"type":"Feature","properties":{"bus":"yes","highway":"bus_stop","name":"\u5927\u6f6d\u570b\u5c0f","network":"\u81fa\u5357\u5e02\u516c\u8eca","note":"\u8208\u5357\u5ba2\u904b","operator":"\u81fa\u5357\u5e02\u516c\u8eca","public_transport":"platform"},"geometry":{"type":"Point","coordinates":[120.2711239,22.9139396]}},{"type":"Feature","properties":{"bus":"yes","highway":"bus_stop","name":"\u5927\u6f6d","network":"\u81fa\u5357\u5e02\u516c\u8eca","note":"\u8208\u5357\u5ba2\u904b","operator":"\u81fa\u5357\u5e02\u516c\u8eca","public_transport":"platform"},"geometry":{"type":"Point","coordinates":[120.2702855,22.9119805]}},{"type":"Feature","properties":{"bus":"yes","highway":"bus_stop","name":"\u5357\u5927\u6f6d","network":"\u81fa\u5357\u5e02\u516c\u8eca","note":"\u8208\u5357\u5ba2\u904b","operator":"\u81fa\u5357\u5e02\u516c\u8eca","public_transport":"platform"},"geometry":{"type":"Point","coordinates":[120.2685653,22.9104403]}},{"type":"Feature","properties":{"bus":"yes","highway":"bus_stop","name":"\u4f9d\u4ec1\u570b\u5c0f","network":"\u81fa\u5357\u5e02\u516c\u8eca","note":"\u8208\u5357\u5ba2\u904b","operator":"\u81fa\u5357\u5e02\u516c\u8eca","public_transport":"platform"},"geometry":{"type":"Point","coordinates":[120.261631,22.9094476]}},{"type":"Feature","properties":{"bus":"yes","highway":"bus_stop","name":"\u4e2d\u6d32\u6d3e\u51fa\u6240","network":"\u81fa\u5357\u5e02\u516c\u8eca","note":"\u8208\u5357\u5ba2\u904b","operator":"\u81fa\u5357\u5e02\u516c\u8eca","public_transport":"platform"},"geometry":{"type":"Point","coordinates":[120.2532407,22.9083559]}},{"type":"Feature","properties":{"bus":"yes","highway":"bus_stop","name":"\u4e2d\u6d32","network":"\u81fa\u5357\u5e02\u516c\u8eca","note":"\u8208\u5357\u5ba2\u904b","operator":"\u81fa\u5357\u5e02\u516c\u8eca","public_transport":"platform"},"geometry":{"type":"Point","coordinates":[120.2506942,22.9079003]}},{"type":"Feature","properties":{"bus":"yes","highway":"bus_stop","name":"\u4e2d\u751f\u91cc","network":"\u81fa\u5357\u5e02\u516c\u8eca","note":"\u8208\u5357\u5ba2\u904b","operator":"\u81fa\u5357\u5e02\u516c\u8eca","public_transport":"platform"},"geometry":{"type":"Point","coordinates":[120.2500755,22.9088497]}},{"type":"Feature","properties":{"bus":"yes","highway":"bus_stop","name":"\u4fdd\u5b89","network":"\u81fa\u5357\u5e02\u516c\u8eca","operator":"\u81fa\u5357\u5e02\u516c\u8eca","public_transport":"platform","ref":"1631"},"geometry":{"type":"Point","coordinates":[120.2370735,22.9216738]}},{"type":"Feature","properties":{"bus":"yes","highway":"bus_stop","name":"\u4fdd\u5b78","network":"\u81fa\u5357\u5e02\u516c\u8eca","operator":"\u81fa\u5357\u5e02\u516c\u8eca","public_transport":"platform","ref":"8907"},"geometry":{"type":"Point","coordinates":[120.2343547,22.9202958]}},{"type":"Feature","properties":{"bus":"yes","highway":"bus_stop","name":"\u5609\u5357\u85e5\u7406\u5927\u5b78","network":"\u81fa\u5357\u5e02\u516c\u8eca","operator":"\u81fa\u5357\u5e02\u516c\u8eca","public_transport":"platform","ref":"0573"},"geometry":{"type":"Point","coordinates":[120.2249901,22.9210321]}},{"type":"Feature","properties":{"bus":"yes","highway":"bus_stop","name":"\u4fdd\u5b89\u8f49\u904b\u7ad9","network":"\u81fa\u5357\u5e02\u516c\u8eca","operator":"\u81fa\u5357\u5e02\u516c\u8eca","public_transport":"platform","ref":"8388"},"geometry":{"type":"Point","coordinates":[120.2304777,22.9326928]}},{"type":"Feature","properties":{"bus":"yes","highway":"bus_stop","name":"\u5947\u7f8e\u535a\u7269\u9928","network":"\u81fa\u5357\u5e02\u516c\u8eca","note":"\u8208\u5357\u5ba2\u904b","operator":"\u81fa\u5357\u5e02\u516c\u8eca","public_transport":"platform"},"geometry":{"type":"Point","coordinates":[120.2281779,22.9360681]}},{"type":"Feature","properties":{"bus":"yes","highway":"bus_stop","name":"\u5341\u9f13\u6587\u5316\u6751","network":"\u81fa\u5357\u5e02\u516c\u8eca","note":"\u8208\u5357\u5ba2\u904b","operator":"\u81fa\u5357\u5e02\u516c\u8eca","public_transport":"platform"},"geometry":{"type":"Point","coordinates":[120.2290462,22.9385986]}},{"type":"Feature","properties":{"bus":"yes","highway":"bus_stop","name":"\u81fa\u5357\u90fd\u6703\u516c\u5712","network":"\u81fa\u5357\u5e02\u516c\u8eca","note":"\u8208\u5357\u5ba2\u904b","operator":"\u81fa\u5357\u5e02\u516c\u8eca","public_transport":"platform"},"geometry":{"type":"Point","coordinates":[120.2230049,22.9375613]}},{"type":"Feature","properties":{"bus":"yes","highway":"bus_stop","name":"\u81fa\u5357\u822a\u7a7a\u7ad9(\u5947\u7f8e\u5e78\u798f\u5de5\u5ee0)","network":"\u81fa\u5357\u5e02\u516c\u8eca","operator":"\u81fa\u5357\u5e02\u516c\u8eca","public_transport":"platform","ref":"0531"},"geometry":{"type":"Point","coordinates":[120.216772,22.9483666]}},{"type":"Feature","properties":{"bus":"yes","highway":"bus_stop","name":"\u7a7a\u8ecd\u81fa\u5357\u57fa\u5730","network":"\u81fa\u5357\u5e02\u516c\u8eca","operator":"\u81fa\u5357\u5e02\u516c\u8eca","public_transport":"platform"},"geometry":{"type":"Point","coordinates":[120.2168732,22.9516413]}},{"type":"Feature","properties":{"bus":"yes","highway":"bus_stop","name":"\u725b\u7a20\u4ed4","network":"\u81fa\u5357\u5e02\u516c\u8eca","operator":"\u81fa\u5357\u5e02\u516c\u8eca","public_transport":"platform"},"geometry":{"type":"Point","coordinates":[120.2179317,22.9536006]}},{"type":"Feature","properties":{"bus":"yes","highway":"bus_stop","name":"\u5927\u540c\u3001\u6a5f\u5834\u8def\u53e3","network":"\u81fa\u5357\u5e02\u516c\u8eca","operator":"\u81fa\u5357\u5e02\u516c\u8eca","public_transport":"platform","ref":"0534"},"geometry":{"type":"Point","coordinates":[120.217011,22.961227]}},{"type":"Feature","properties":{"bus":"yes","highway":"bus_stop","name":"\u53f0\u7cd6\u516c\u53f8","network":"\u81fa\u5357\u5e02\u516c\u8eca","operator":"\u81fa\u5357\u5e02\u516c\u8eca","public_transport":"platform","ref":"0565"},"geometry":{"type":"Point","coordinates":[120.2203555,22.9646882]}},{"type":"Feature","properties":{"bus":"yes","highway":"bus_stop","name":"\u5e02\u7acb\u91ab\u9662(\u5d07\u660e\u8def)","network":"\u81fa\u5357\u5e02\u516c\u8eca","operator":"\u81fa\u5357\u5e02\u516c\u8eca","public_transport":"platform","ref":"1212"},"geometry":{"type":"Point","coordinates":[120.2257428,22.9688996]}},{"type":"Feature","properties":{"bus":"yes","highway":"bus_stop","name":"\u5df4\u514b\u79ae\u516c\u5712","name:en":"Barclay Memorial Park","name:zh":"\u5df4\u514b\u79ae\u516c\u5712","network":"\u81fa\u5357\u5e02\u516c\u8eca","operator":"\u81fa\u5357\u5e02\u516c\u8eca","public_transport":"platform","ref":"8851"},"geometry":{"type":"Point","coordinates":[120.2219748,22.9740387]}},{"type":"Feature","properties":{"bus":"yes","highway":"bus_stop","name":"\u5927\u6797","network":"\u81fa\u5357\u5e02\u516c\u8eca","operator":"\u81fa\u5357\u5e02\u516c\u8eca","public_transport":"platform"},"geometry":{"type":"Point","coordinates":[120.2146393,22.9733707]}},{"type":"Feature","properties":{"bus":"yes","highway":"bus_stop","name":"\u5fe0\u5b5d\u65b0\u6751","network":"\u81fa\u5357\u5e02\u516c\u8eca","operator":"\u81fa\u5357\u5e02\u516c\u8eca","public_transport":"platform"},"geometry":{"type":"Point","coordinates":[120.2141624,22.9753959]}},{"type":"Feature","properties":{"bus":"yes","highway":"bus_stop","name":"\u5927\u6797\u65b0\u57ce","network":"\u81fa\u5357\u5e02\u516c\u8eca","operator":"\u81fa\u5357\u5e02\u516c\u8eca","public_transport":"platform","ref":"0524"},"geometry":{"type":"Point","coordinates":[120.2135149,22.9783567]}},{"type":"Feature","properties":{"bus":"yes","highway":"bus_stop","name":"\u806f\u5408\u5831","network":"\u81fa\u5357\u5e02\u516c\u8eca","operator":"\u81fa\u5357\u5e02\u516c\u8eca","public_transport":"platform"},"geometry":{"type":"Point","coordinates":[120.2115299,22.9823031]}},{"type":"Feature","properties":{"bus":"yes","highway":"bus_stop","name":"\u5ef6\u5e73\u90e1\u738b\u7960","network":"\u81fa\u5357\u5e02\u516c\u8eca","operator":"\u81fa\u5357\u5e02\u516c\u8eca","public_transport":"platform","ref":"8862"},"geometry":{"type":"Point","coordinates":[120.2088057,22.9875859]}},{"type":"Feature","properties":{"bus":"yes","highway":"bus_stop","name":"\u958b\u5c71\u8def","network":"\u81fa\u5357\u5e02\u516c\u8eca","operator":"\u81fa\u5357\u5e02\u516c\u8eca","public_transport":"platform"},"geometry":{"type":"Point","coordinates":[120.2064057,22.9907256]}},{"type":"Feature","properties":{"bus":"yes","highway":"bus_stop","name":"\u4e2d\u5c71\u3001\u6c11\u6b0a\u8def\u53e3","network":"\u81fa\u5357\u5e02\u516c\u8eca","operator":"\u81fa\u5357\u5e02\u516c\u8eca","public_transport":"platform"},"geometry":{"type":"Point","coordinates":[120.2070652,22.9937357]}},{"type":"Feature","properties":{"bench":"yes","bus":"yes","highway":"bus_stop","name":"\u81fa\u5357\u706b\u8eca\u7ad9(\u5357\u7ad9)","network":"\u81fa\u5357\u5e02\u516c\u8eca","note":"\u8208\u5357\u5ba2\u904b","operator":"\u81fa\u5357\u5e02\u516c\u8eca","public_transport":"platform","ref":"9211","shelter":"yes"},"geometry":{"type":"Point","coordinates":[120.2111399,22.9972139]}},{"type":"Feature","properties":{"bus":"yes","highway":"bus_stop","name":"\u53f0\u5357\u516c\u5712(\u516c\u5712\u8def)","network":"\u81fa\u5357\u5e02\u516c\u8eca","operator":"\u81fa\u5357\u5e02\u516c\u8eca","public_transport":"platform"},"geometry":{"type":"Point","coordinates":[120.2092589,23.0018108]}},{"type":"Feature","properties":{"from":"\u95dc\u5edf","name":"\u7d053(\u8fd4\u7a0b)","public_transport:version":"2","ref":"\u7d053","route":"bus","to":"\u81fa\u5357\u516c\u5712","type":"route"},"geometry":{"type":"LineString","coordinates":[[120.3370938,22.9633695],[120.3371338,22.9634482],[120.33717,22.9635173],[120.3372129,22.9635519],[120.3373631,22.9635334],[120.3374128,22.963484],[120.3374926,22.963346]]}},{"type":"Feature","properties":{"from":"\u95dc\u5edf","name":"\u7d053(\u8fd4\u7a0b)","public_transport:version":"2","ref":"\u7d053","route":"bus","to":"\u81fa\u5357\u516c\u5712","type":"route"},"geometry":{"type":"LineString","coordinates":[[120.3370938,22.9633695],[120.3369477,22.9633955],[120.3357288,22.9635937],[120.3356182,22.9635788],[120.3352902,22.9634662],[120.3350244,22.9633569]]}},{"type":"Feature","properties":{"from":"\u95dc\u5edf","name":"\u7d053(\u8fd4\u7a0b)","public_transport:version":"2","ref":"\u7d053","route":"bus","to":"\u81fa\u5357\u516c\u5712","type":"route"},"geometry":{"type":"LineString","coordinates":[[120.3350244,22.9633569],[120.334839,22.9632757],[120.3335667,22.9627519],[120.3328159,22.9624545],[120.3326283,22.962378],[120.3320109,22.9621191],[120.3312014,22.9618044],[120.3311222,22.961783],[120.3310423,22.9617802]]}},{"type":"Feature","properties":{"from":"\u95dc\u5edf","name":"\u7d053(\u8fd4\u7a0b)","public_transport:version":"2","ref":"\u7d053","route":"bus","to":"\u81fa\u5357\u516c\u5712","type":"route"},"geometry":{"type":"LineString","coordinates":[[120.3310423,22.9617802],[120.3306946,22.9618846],[120.3302583,22.9620169],[120.3296646,22.962194],[120.3293209,22.962287],[120.3284855,22.9625159]]}},{"type":"Feature","properties":{"from":"\u95dc\u5edf","name":"\u7d053(\u8fd4\u7a0b)","public_transport:version":"2","ref":"\u7d053","route":"bus","to":"\u81fa\u5357\u516c\u5712","type":"route"},"geometry":{"type":"LineString","coordinates":[[120.3278794,22.9598795],[120.3280094,22.9604722],[120.3281248,22.9609045],[120.3282267,22.9613181],[120.3283233,22.9617145],[120.3284114,22.9621019],[120.3284855,22.9625159]]}},{"type":"Feature","properties":{"from":"\u95dc\u5edf","name":"\u7d053(\u8fd4\u7a0b)","public_transport:version":"2","ref":"\u7d053","route":"bus","to":"\u81fa\u5357\u516c\u5712","type":"route"},"geometry":{"type":"LineString","coordinates":[[120.3278794,22.9598795],[120.3272239,22.960002],[120.3268571,22.9600705]]}},{"type":"Feature","properties":{"from":"\u95dc\u5edf","name":"\u7d053(\u8fd4\u7a0b)","public_transport:version":"2","ref":"\u7d053","route":"bus","to":"\u81fa\u5357\u516c\u5712","type":"route"},"geometry":{"type":"LineString","coordinates":[[120.3268571,22.9600705],[120.3265416,22.9601353],[120.3261864,22.9601873],[120.3260302,22.9602204]]}},{"type":"Feature","properties":{"from":"\u95dc\u5edf","name":"\u7d053(\u8fd4\u7a0b)","public_transport:version":"2","ref":"\u7d053","route":"bus","to":"\u81fa\u5357\u516c\u5712","type":"route"},"geometry":{"type":"LineString","coordinates":[[120.3260302,22.9602204],[120.3253322,22.9603405],[120.3249927,22.9604061]]}},{"type":"Feature","properties":{"from":"\u95dc\u5edf","name":"\u7d053(\u8fd4\u7a0b)","public_transport:version":"2","ref":"\u7d053","route":"bus","to":"\u81fa\u5357\u516c\u5712","type":"route"},"geometry":{"type":"LineString","coordinates":[[120.3249927,22.9604061],[120.3248319,22.9604418],[120.3240411,22.9605569]]}},{"type":"Feature","properties":{"from":"\u95dc\u5edf","name":"\u7d053(\u8fd4\u7a0b)","public_transport:version":"2","ref":"\u7d053","route":"bus","to":"\u81fa\u5357\u516c\u5712","type":"route"},"geometry":{"type":"LineString","coordinates":[[120.3240411,22.9605569],[120.3238547,22.9606742],[120.322059,22.9609841],[120.3186865,22.9616186],[120.3161296,22.9620599],[120.3149836,22.9622933],[120.3137287,22.9626349]]}},{"type":"Feature","properties":{"from":"\u95dc\u5edf","name":"\u7d053(\u8fd4\u7a0b)","public_transport:version":"2","ref":"\u7d053","route":"bus","to":"\u81fa\u5357\u516c\u5712","type":"route"},"geometry":{"type":"LineString","coordinates":[[120.3137287,22.9626349],[120.3132101,22.9627749],[120.3129492,22.9628453],[120.3127681,22.9628919],[120.311411,22.9633125],[120.3106867,22.9635365],[120.3101425,22.9636896],[120.3098618,22.9637726],[120.309623,22.963838],[120.3092688,22.9639336],[120.308744,22.9640807],[120.308705,22.9640914],[120.3085289,22.9641409],[120.3041272,22.9654541],[120.303162,22.9657334],[120.3029359,22.965798],[120.3027854,22.9658259]]}},{"type":"Feature","properties":{"from":"\u95dc\u5edf","name":"\u7d053(\u8fd4\u7a0b)","public_transport:version":"2","ref":"\u7d053","route":"bus","to":"\u81fa\u5357\u516c\u5712","type":"route"},"geometry":{"type":"LineString","coordinates":[[120.3027854,22.9658259],[120.3023513,22.9658783],[120.3016296,22.9659655],[120.300578,22.9660926],[120.3000095,22.9661527],[120.2977638,22.96639],[120.2963945,22.9665347]]}},{"type":"Feature","properties":{"from":"\u95dc\u5edf","name":"\u7d053(\u8fd4\u7a0b)","public_transport:version":"2","ref":"\u7d053","route":"bus","to":"\u81fa\u5357\u516c\u5712","type":"route"},"geometry":{"type":"LineString","coordinates":[[120.2963945,22.9665347],[120.2961784,22.9665616],[120.2946547,22.9667704],[120.2945999,22.9667859]]}},{"type":"Feature","properties":{"from":"\u95dc\u5edf","name":"\u7d053(\u8fd4\u7a0b)","public_transport:version":"2","ref":"\u7d053","route":"bus","to":"\u81fa\u5357\u516c\u5712","type":"route"},"geometry":{"type":"LineString","coordinates":[[120.293992,22.9667946],[120.2939859,22.9667379],[120.2939934,22.9666764],[120.2940152,22.9666178],[120.2940502,22.9665649],[120.2940969,22.9665202],[120.2941529,22.9664859],[120.2942157,22.9664636],[120.2942852,22.9664542],[120.2943552,22.9664595],[120.2944222,22.9664792],[120.2944825,22.9665123],[120.2945332,22.9665571],[120.2945716,22.9666114],[120.2945957,22.9666721],[120.294604,22.9667288],[120.2945999,22.9667859],[120.2945903,22.9668232],[120.2945753,22.9668589],[120.2945552,22.9668925],[120.2945303,22.9669233],[120.2945012,22.9669508],[120.2944684,22.9669744],[120.2944324,22.9669937],[120.2943939,22.9670084],[120.2943536,22.9670182],[120.2943013,22.9670232],[120.2942488,22.9670201],[120.2941977,22.9670088],[120.2941493,22.9669897],[120.2941052,22.9669633],[120.2940666,22.9669304],[120.2940346,22.966892],[120.2940101,22.9668491],[120.293992,22.9667946]]}},{"type":"Feature","properties":{"from":"\u95dc\u5edf","name":"\u7d053(\u8fd4\u7a0b)","public_transport:version":"2","ref":"\u7d053","route":"bus","to":"\u81fa\u5357\u516c\u5712","type":"route"},"geometry":{"type":"LineString","coordinates":[[120.2940101,22.9668491],[120.292899,22.9669758],[120.292249,22.9670499],[120.2902004,22.9672833],[120.289048,22.9674145],[120.287892,22.9675462]]}},{"type":"Feature","properties":{"from":"\u95dc\u5edf","name":"\u7d053(\u8fd4\u7a0b)","public_transport:version":"2","ref":"\u7d053","route":"bus","to":"\u81fa\u5357\u516c\u5712","type":"route"},"geometry":{"type":"LineString","coordinates":[[120.287892,22.9675462],[120.2875183,22.9675888],[120.2857267,22.9677929],[120.2847156,22.9679081],[120.2842258,22.9679639],[120.2840101,22.9679885],[120.2837162,22.9680219],[120.2831331,22.9680884],[120.2825325,22.9681568],[120.2810096,22.9683303],[120.2790425,22.9685544],[120.2776577,22.9687121],[120.2765162,22.9688422],[120.2752387,22.9689877],[120.2724175,22.9693091],[120.272192,22.9693348]]}},{"type":"Feature","properties":{"from":"\u95dc\u5edf","name":"\u7d053(\u8fd4\u7a0b)","public_transport:version":"2","ref":"\u7d053","route":"bus","to":"\u81fa\u5357\u516c\u5712","type":"route"},"geometry":{"type":"LineString","coordinates":[[120.272192,22.9693348],[120.2719258,22.9693725]]}},{"type":"Feature","properties":{"from":"\u95dc\u5edf","name":"\u7d053(\u8fd4\u7a0b)","public_transport:version":"2","ref":"\u7d053","route":"bus","to":"\u81fa\u5357\u516c\u5712","type":"route"},"geometry":{"type":"LineString","coordinates":[[120.2719258,22.9693725],[120.2719244,22.9692453]]}},{"type":"Feature","properties":{"from":"\u95dc\u5edf","name":"\u7d053(\u8fd4\u7a0b)","public_transport:version":"2","ref":"\u7d053","route":"bus","to":"\u81fa\u5357\u516c\u5712","type":"route"},"geometry":{"type":"LineString","coordinates":[[120.2719244,22.9692453],[120.2718567,22.9676855],[120.2718406,22.9663322],[120.2718379,22.9648356],[120.2718701,22.963786],[120.2719345,22.9627265],[120.2720203,22.9614595],[120.2720793,22.9606667],[120.2722459,22.9593752],[120.272369,22.9583329],[120.2726268,22.9567669],[120.2727399,22.95622],[120.27283,22.9556722],[120.2730151,22.9547569],[120.2734387,22.9529251],[120.2736886,22.951963],[120.2740656,22.9506269],[120.274327,22.9498081],[120.2749869,22.9479495],[120.2753115,22.9470763],[120.275856,22.9456685],[120.2763025,22.9446632],[120.2766995,22.9437505],[120.2772293,22.9426521]]}},{"type":"Feature","properties":{"from":"\u95dc\u5edf","name":"\u7d053(\u8fd4\u7a0b)","public_transport:version":"2","ref":"\u7d053","route":"bus","to":"\u81fa\u5357\u516c\u5712","type":"route"},"geometry":{"type":"LineString","coordinates":[[120.2772293,22.9426521],[120.2771277,22.9418092],[120.2771187,22.9417101],[120.277073,22.9412051],[120.2769201,22.9393983],[120.276841,22.9386294],[120.2768034,22.9380051],[120.2768195,22.9375736],[120.2768986,22.9367342],[120.276957,22.9362595],[120.2770746,22.9357571]]}},{"type":"Feature","properties":{"from":"\u95dc\u5edf","name":"\u7d053(\u8fd4\u7a0b)","public_transport:version":"2","ref":"\u7d053","route":"bus","to":"\u81fa\u5357\u516c\u5712","type":"route"},"geometry":{"type":"LineString","coordinates":[[120.2770746,22.9357571],[120.2772755,22.9352139]]}},{"type":"Feature","properties":{"from":"\u95dc\u5edf","name":"\u7d053(\u8fd4\u7a0b)","public_transport:version":"2","ref":"\u7d053","route":"bus","to":"\u81fa\u5357\u516c\u5712","type":"route"},"geometry":{"type":"LineString","coordinates":[[120.2772755,22.9352139],[120.2773613,22.9350015]]}},{"type":"Feature","properties":{"from":"\u95dc\u5edf","name":"\u7d053(\u8fd4\u7a0b)","public_transport:version":"2","ref":"\u7d053","route":"bus","to":"\u81fa\u5357\u516c\u5712","type":"route"},"geometry":{"type":"LineString","coordinates":[[120.2773613,22.9350015],[120.2774734,22.9345765],[120.2777199,22.9339608],[120.2778577,22.9336163],[120.2779331,22.933253]]}},{"type":"Feature","properties":{"from":"\u95dc\u5edf","name":"\u7d053(\u8fd4\u7a0b)","public_transport:version":"2","ref":"\u7d053","route":"bus","to":"\u81fa\u5357\u516c\u5712","type":"route"},"geometry":{"type":"LineString","coordinates":[[120.2779331,22.933253],[120.2779563,22.932879],[120.2779158,22.9325375],[120.2778783,22.9322473],[120.2777683,22.9316334],[120.2777098,22.9312123],[120.2776503,22.9308219],[120.2775517,22.9301078],[120.2774806,22.9298821]]}},{"type":"Feature","properties":{"from":"\u95dc\u5edf","name":"\u7d053(\u8fd4\u7a0b)","public_transport:version":"2","ref":"\u7d053","route":"bus","to":"\u81fa\u5357\u516c\u5712","type":"route"},"geometry":{"type":"LineString","coordinates":[[120.2774806,22.9298821],[120.2774605,22.9297733],[120.2773572,22.9291224],[120.2772211,22.9281108],[120.2771755,22.9279109],[120.2771245,22.9277416],[120.2770311,22.9275007],[120.2768242,22.9270018],[120.2768007,22.9269522],[120.2767773,22.9268948]]}},{"type":"Feature","properties":{"from":"\u95dc\u5edf","name":"\u7d053(\u8fd4\u7a0b)","public_transport:version":"2","ref":"\u7d053","route":"bus","to":"\u81fa\u5357\u516c\u5712","type":"route"},"geometry":{"type":"LineString","coordinates":[[120.2767773,22.9268948],[120.2769116,22.9268494],[120.2774893,22.9266155],[120.2776925,22.926546],[120.2778064,22.9265163],[120.2779484,22.9264799],[120.2781929,22.9264694],[120.2784065,22.9264799],[120.2785652,22.9265142],[120.2786527,22.9265242],[120.2797788,22.9267857],[120.2798705,22.9268088],[120.2808841,22.9270868],[120.2809515,22.9271102],[120.2814681,22.9273219],[120.2819795,22.9275291],[120.2826082,22.9277975],[120.2827783,22.9278699],[120.2833003,22.9280882],[120.2841406,22.9284247],[120.2842756,22.928482]]}},{"type":"Feature","properties":{"from":"\u95dc\u5edf","name":"\u7d053(\u8fd4\u7a0b)","public_transport:version":"2","ref":"\u7d053","route":"bus","to":"\u81fa\u5357\u516c\u5712","type":"route"},"geometry":{"type":"LineString","coordinates":[[120.2842756,22.928482],[120.2846313,22.9277456],[120.2846841,22.9276177],[120.2851096,22.9267373]]}},{"type":"Feature","properties":{"from":"\u95dc\u5edf","name":"\u7d053(\u8fd4\u7a0b)","public_transport:version":"2","ref":"\u7d053","route":"bus","to":"\u81fa\u5357\u516c\u5712","type":"route"},"geometry":{"type":"LineString","coordinates":[[120.2851096,22.9267373],[120.285124,22.9266323]]}},{"type":"Feature","properties":{"from":"\u95dc\u5edf","name":"\u7d053(\u8fd4\u7a0b)","public_transport:version":"2","ref":"\u7d053","route":"bus","to":"\u81fa\u5357\u516c\u5712","type":"route"},"geometry":{"type":"LineString","coordinates":[[120.285124,22.9266323],[120.285364,22.9262122],[120.2856202,22.9256539],[120.2857074,22.9254909],[120.2864597,22.9240421],[120.2866699,22.9236203]]}},{"type":"Feature","properties":{"from":"\u95dc\u5edf","name":"\u7d053(\u8fd4\u7a0b)","public_transport:version":"2","ref":"\u7d053","route":"bus","to":"\u81fa\u5357\u516c\u5712","type":"route"},"geometry":{"type":"LineString","coordinates":[[120.2866699,22.9236203],[120.2862723,22.9234451]]}},{"type":"Feature","properties":{"from":"\u95dc\u5edf","name":"\u7d053(\u8fd4\u7a0b)","public_transport:version":"2","ref":"\u7d053","route":"bus","to":"\u81fa\u5357\u516c\u5712","type":"route"},"geometry":{"type":"LineString","coordinates":[[120.2862723,22.9234451],[120.2861888,22.9236279]]}},{"type":"Feature","properties":{"from":"\u95dc\u5edf","name":"\u7d053(\u8fd4\u7a0b)","public_transport:version":"2","ref":"\u7d053","route":"bus","to":"\u81fa\u5357\u516c\u5712","type":"route"},"geometry":{"type":"LineString","coordinates":[[120.2861888,22.9236279],[120.2863442,22.9236947],[120.2861988,22.9239943],[120.2858135,22.9238357]]}},{"type":"Feature","properties":{"from":"\u95dc\u5edf","name":"\u7d053(\u8fd4\u7a0b)","public_transport:version":"2","ref":"\u7d053","route":"bus","to":"\u81fa\u5357\u516c\u5712","type":"route"},"geometry":{"type":"LineString","coordinates":[[120.2858135,22.9238357],[120.285959,22.923536],[120.2861397,22.9236095]]}},{"type":"Feature","properties":{"from":"\u95dc\u5edf","name":"\u7d053(\u8fd4\u7a0b)","public_transport:version":"2","ref":"\u7d053","route":"bus","to":"\u81fa\u5357\u516c\u5712","type":"route"},"geometry":{"type":"LineString","coordinates":[[120.2861397,22.9236095],[120.2862261,22.9234256]]}},{"type":"Feature","properties":{"from":"\u95dc\u5edf","name":"\u7d053(\u8fd4\u7a0b)","public_transport:version":"2","ref":"\u7d053","route":"bus","to":"\u81fa\u5357\u516c\u5712","type":"route"},"geometry":{"type":"LineString","coordinates":[[120.2862261,22.9234256],[120.285845,22.92327],[120.28554,22.9231419],[120.2852406,22.9230225],[120.2852045,22.9230114]]}},{"type":"Feature","properties":{"from":"\u95dc\u5edf","name":"\u7d053(\u8fd4\u7a0b)","public_transport:version":"2","ref":"\u7d053","route":"bus","to":"\u81fa\u5357\u516c\u5712","type":"route"},"geometry":{"type":"LineString","coordinates":[[120.2852045,22.9230114],[120.2850819,22.9232318],[120.2849841,22.923436],[120.2849179,22.9235022],[120.2848159,22.9235665],[120.2846402,22.9236393],[120.2845061,22.9237233],[120.2844203,22.9237999],[120.2843023,22.9239383],[120.284246,22.9240593],[120.284203,22.9242199],[120.2841826,22.9243406],[120.2842308,22.9245676],[120.284264,22.9246577],[120.2842659,22.9247731],[120.2842314,22.9249046],[120.2841598,22.9250577],[120.283709,22.9259957]]}},{"type":"Feature","properties":{"from":"\u95dc\u5edf","name":"\u7d053(\u8fd4\u7a0b)","public_transport:version":"2","ref":"\u7d053","route":"bus","to":"\u81fa\u5357\u516c\u5712","type":"route"},"geometry":{"type":"LineString","coordinates":[[120.283709,22.9259957],[120.2836759,22.9261155]]}},{"type":"Feature","properties":{"from":"\u95dc\u5edf","name":"\u7d053(\u8fd4\u7a0b)","public_transport:version":"2","ref":"\u7d053","route":"bus","to":"\u81fa\u5357\u516c\u5712","type":"route"},"geometry":{"type":"LineString","coordinates":[[120.2836759,22.9261155],[120.2834953,22.9260271],[120.2818303,22.925314],[120.2817642,22.9252755]]}},{"type":"Feature","properties":{"from":"\u95dc\u5edf","name":"\u7d053(\u8fd4\u7a0b)","public_transport:version":"2","ref":"\u7d053","route":"bus","to":"\u81fa\u5357\u516c\u5712","type":"route"},"geometry":{"type":"LineString","coordinates":[[120.2817642,22.9252755],[120.2818199,22.9251775],[120.2825925,22.9236213],[120.2826849,22.9234182]]}},{"type":"Feature","properties":{"from":"\u95dc\u5edf","name":"\u7d053(\u8fd4\u7a0b)","public_transport:version":"2","ref":"\u7d053","route":"bus","to":"\u81fa\u5357\u516c\u5712","type":"route"},"geometry":{"type":"LineString","coordinates":[[120.2826849,22.9234182],[120.2819822,22.9231638],[120.2814967,22.9229958],[120.2810923,22.9229125],[120.2807323,22.9229044],[120.2803165,22.922934],[120.2798364,22.9230625],[120.2795488,22.9231799],[120.2794657,22.9232068],[120.2792309,22.9233027],[120.2781358,22.9236607],[120.2776711,22.9238324],[120.2776265,22.9238456],[120.2759273,22.9244862]]}},{"type":"Feature","properties":{"from":"\u95dc\u5edf","name":"\u7d053(\u8fd4\u7a0b)","public_transport:version":"2","ref":"\u7d053","route":"bus","to":"\u81fa\u5357\u516c\u5712","type":"route"},"geometry":{"type":"LineString","coordinates":[[120.2759273,22.9244862],[120.2757846,22.9245503]]}},{"type":"Feature","properties":{"from":"\u95dc\u5edf","name":"\u7d053(\u8fd4\u7a0b)","public_transport:version":"2","ref":"\u7d053","route":"bus","to":"\u81fa\u5357\u516c\u5712","type":"route"},"geometry":{"type":"LineString","coordinates":[[120.2757846,22.9245503],[120.2748006,22.9248563],[120.2746868,22.9248534]]}},{"type":"Feature","properties":{"from":"\u95dc\u5edf","name":"\u7d053(\u8fd4\u7a0b)","public_transport:version":"2","ref":"\u7d053","route":"bus","to":"\u81fa\u5357\u516c\u5712","type":"route"},"geometry":{"type":"LineString","coordinates":[[120.2746868,22.9248534],[120.2738382,22.92512],[120.2732171,22.9253671],[120.2730945,22.9253897],[120.2729376,22.9253626],[120.2724489,22.9252704]]}},{"type":"Feature","properties":{"from":"\u95dc\u5edf","name":"\u7d053(\u8fd4\u7a0b)","public_transport:version":"2","ref":"\u7d053","route":"bus","to":"\u81fa\u5357\u516c\u5712","type":"route"},"geometry":{"type":"LineString","coordinates":[[120.2746868,22.9248534],[120.2747496,22.9247408],[120.2757053,22.9243893]]}},{"type":"Feature","properties":{"from":"\u95dc\u5edf","name":"\u7d053(\u8fd4\u7a0b)","public_transport:version":"2","ref":"\u7d053","route":"bus","to":"\u81fa\u5357\u516c\u5712","type":"route"},"geometry":{"type":"LineString","coordinates":[[120.2757053,22.9243893],[120.275628,22.9242291],[120.2751552,22.9230538],[120.2747607,22.922206],[120.2742126,22.9210795]]}},{"type":"Feature","properties":{"from":"\u95dc\u5edf","name":"\u7d053(\u8fd4\u7a0b)","public_transport:version":"2","ref":"\u7d053","route":"bus","to":"\u81fa\u5357\u516c\u5712","type":"route"},"geometry":{"type":"LineString","coordinates":[[120.2742126,22.9210795],[120.2742539,22.9209391]]}},{"type":"Feature","properties":{"from":"\u95dc\u5edf","name":"\u7d053(\u8fd4\u7a0b)","public_transport:version":"2","ref":"\u7d053","route":"bus","to":"\u81fa\u5357\u516c\u5712","type":"route"},"geometry":{"type":"LineString","coordinates":[[120.2742539,22.9209391],[120.2734418,22.9189957],[120.2733317,22.9187912],[120.2729313,22.9178149],[120.272655,22.9171894],[120.2724188,22.9166908],[120.2721317,22.9160526]]}},{"type":"Feature","properties":{"from":"\u95dc\u5edf","name":"\u7d053(\u8fd4\u7a0b)","public_transport:version":"2","ref":"\u7d053","route":"bus","to":"\u81fa\u5357\u516c\u5712","type":"route"},"geometry":{"type":"LineString","coordinates":[[120.2721317,22.9160526],[120.2718232,22.9152626],[120.2714218,22.9144198]]}},{"type":"Feature","properties":{"from":"\u95dc\u5edf","name":"\u7d053(\u8fd4\u7a0b)","public_transport:version":"2","ref":"\u7d053","route":"bus","to":"\u81fa\u5357\u516c\u5712","type":"route"},"geometry":{"type":"LineString","coordinates":[[120.2714218,22.9144198],[120.2711633,22.9137819],[120.2708135,22.9129507],[120.2705893,22.9124659],[120.2704661,22.9122226],[120.2703925,22.9120776],[120.2701404,22.9114403],[120.2697587,22.9105231]]}},{"type":"Feature","properties":{"from":"\u95dc\u5edf","name":"\u7d053(\u8fd4\u7a0b)","public_transport:version":"2","ref":"\u7d053","route":"bus","to":"\u81fa\u5357\u516c\u5712","type":"route"},"geometry":{"type":"LineString","coordinates":[[120.2656432,22.9099486],[120.2657551,22.9099734],[120.2660699,22.9100284],[120.2667637,22.9101407],[120.2668045,22.9101405],[120.2687554,22.9103982],[120.2688332,22.9104105],[120.269306,22.9104599],[120.2697587,22.9105231]]}},{"type":"Feature","properties":{"from":"\u95dc\u5edf","name":"\u7d053(\u8fd4\u7a0b)","public_transport:version":"2","ref":"\u7d053","route":"bus","to":"\u81fa\u5357\u516c\u5712","type":"route"},"geometry":{"type":"LineString","coordinates":[[120.2619627,22.9094729],[120.2630222,22.9095532],[120.2637584,22.9096273],[120.2644035,22.909715],[120.2656432,22.9099486]]}},{"type":"Feature","properties":{"from":"\u95dc\u5edf","name":"\u7d053(\u8fd4\u7a0b)","public_transport:version":"2","ref":"\u7d053","route":"bus","to":"\u81fa\u5357\u516c\u5712","type":"route"},"geometry":{"type":"LineString","coordinates":[[120.2583551,22.9089726],[120.2601522,22.909211],[120.2610005,22.9093358],[120.2615899,22.9094173],[120.2617102,22.9094377],[120.2619627,22.9094729]]}},{"type":"Feature","properties":{"from":"\u95dc\u5edf","name":"\u7d053(\u8fd4\u7a0b)","public_transport:version":"2","ref":"\u7d053","route":"bus","to":"\u81fa\u5357\u516c\u5712","type":"route"},"geometry":{"type":"LineString","coordinates":[[120.2362885,22.9221622],[120.2364361,22.9220484],[120.2368009,22.921773],[120.2371982,22.9215081],[120.2377277,22.9211452],[120.2381822,22.9208071],[120.2387549,22.9203846],[120.2391021,22.9201169],[120.2393477,22.9199992],[120.2402127,22.9194051],[120.2405104,22.9191654],[120.2410348,22.9187801],[120.241421,22.9185132],[120.2416906,22.9182711],[120.2418385,22.918081],[120.2419981,22.9178759],[120.2423681,22.9173289],[120.2427725,22.9167742],[120.243084,22.9163321],[120.2431909,22.9161929],[120.24329,22.9160881],[120.2437515,22.9156345],[120.2443127,22.9151793],[120.2452867,22.9143338],[120.2464951,22.9132974],[120.2475563,22.9123864],[120.2477382,22.9122333],[120.2479073,22.9120846],[120.2481232,22.9118187],[120.2487669,22.910912],[120.2493114,22.9101054],[120.2496037,22.9097125],[120.2499537,22.9092221],[120.2499873,22.9091431],[120.2501321,22.9086687],[120.2501402,22.9086446],[120.2502354,22.9083055],[120.2502654,22.9081972],[120.2502971,22.9080831],[120.2503191,22.9080332],[120.2503776,22.9078843],[120.2504701,22.9077978],[120.2505928,22.9077904],[120.251167,22.9079393],[120.2514421,22.9079876],[120.2515048,22.9079982],[120.2516082,22.9080079],[120.2516322,22.9080096],[120.2518414,22.9080276],[120.2520697,22.9080529],[120.2525951,22.9081474],[120.2530984,22.9082209],[120.2540438,22.9083468],[120.254243,22.9083778],[120.2546567,22.9084581],[120.2565929,22.9087107],[120.2580172,22.9089133],[120.2583551,22.9089726]]}},{"type":"Feature","properties":{"from":"\u95dc\u5edf","name":"\u7d053(\u8fd4\u7a0b)","public_transport:version":"2","ref":"\u7d053","route":"bus","to":"\u81fa\u5357\u516c\u5712","type":"route"},"geometry":{"type":"LineString","coordinates":[[120.2362885,22.9221622],[120.23613,22.9220512],[120.2359369,22.9218783],[120.2356033,22.9215248],[120.2354107,22.9213207],[120.2352779,22.92118],[120.2351789,22.921075],[120.2350479,22.9209362],[120.2349198,22.9207814],[120.2345987,22.9204075],[120.2343035,22.9200576],[120.234181,22.9199456],[120.2340194,22.9197977],[120.2337663,22.9196103],[120.2336206,22.9195511],[120.2333873,22.9194978],[120.2332656,22.9194909],[120.232515,22.9193768],[120.2316982,22.9192673],[120.2305466,22.9191801],[120.2303135,22.9191705],[120.2292666,22.9191318],[120.2289132,22.9191238],[120.2282293,22.9190968],[120.2275358,22.919069],[120.2273144,22.9190459],[120.2270701,22.9190014],[120.2267649,22.918916],[120.2264507,22.9188122],[120.2258025,22.9186432]]}},{"type":"Feature","properties":{"from":"\u95dc\u5edf","name":"\u7d053(\u8fd4\u7a0b)","public_transport:version":"2","ref":"\u7d053","route":"bus","to":"\u81fa\u5357\u516c\u5712","type":"route"},"geometry":{"type":"LineString","coordinates":[[120.2258025,22.9186432],[120.2257437,22.9191148],[120.2256695,22.9194647],[120.2255604,22.9198336],[120.2253877,22.9201808],[120.2252247,22.9204872]]}},{"type":"Feature","properties":{"from":"\u95dc\u5edf","name":"\u7d053(\u8fd4\u7a0b)","public_transport:version":"2","ref":"\u7d053","route":"bus","to":"\u81fa\u5357\u516c\u5712","type":"route"},"geometry":{"type":"LineString","coordinates":[[120.2252247,22.9204872],[120.2250328,22.9208829]]}},{"type":"Feature","properties":{"from":"\u95dc\u5edf","name":"\u7d053(\u8fd4\u7a0b)","public_transport:version":"2","ref":"\u7d053","route":"bus","to":"\u81fa\u5357\u516c\u5712","type":"route"},"geometry":{"type":"LineString","coordinates":[[120.2250328,22.9208829],[120.2241353,22.9225603],[120.2239072,22.9229852]]}},{"type":"Feature","properties":{"from":"\u95dc\u5edf","name":"\u7d053(\u8fd4\u7a0b)","public_transport:version":"2","ref":"\u7d053","route":"bus","to":"\u81fa\u5357\u516c\u5712","type":"route"},"geometry":{"type":"LineString","coordinates":[[120.2239072,22.9229852],[120.2242274,22.9231181],[120.2246681,22.9234674],[120.2249914,22.9236928],[120.2251262,22.9238427],[120.2252506,22.9240548],[120.2254263,22.9243969],[120.2255682,22.9247161],[120.2256294,22.9248363],[120.2256478,22.9248723],[120.2258008,22.9251695],[120.2261101,22.9258558],[120.2263681,22.9264281],[120.2264888,22.9266566],[120.2269099,22.9275595],[120.2271487,22.9281339],[120.2272388,22.9284738],[120.2273794,22.9288662],[120.2274762,22.9290284],[120.2276314,22.9291736],[120.2279587,22.9293725],[120.2283999,22.9296134],[120.2294406,22.9301667],[120.230999,22.9309275]]}},{"type":"Feature","properties":{"from":"\u95dc\u5edf","name":"\u7d053(\u8fd4\u7a0b)","public_transport:version":"2","ref":"\u7d053","route":"bus","to":"\u81fa\u5357\u516c\u5712","type":"route"},"geometry":{"type":"LineString","coordinates":[[120.2307911,22.9326048],[120.2308863,22.9323714],[120.2309185,22.9322034],[120.2309533,22.9319576],[120.2309815,22.9314672],[120.230999,22.9309275]]}},{"type":"Feature","properties":{"from":"\u95dc\u5edf","name":"\u7d053(\u8fd4\u7a0b)","public_transport:version":"2","ref":"\u7d053","route":"bus","to":"\u81fa\u5357\u516c\u5712","type":"route"},"geometry":{"type":"LineString","coordinates":[[120.2307911,22.9326048],[120.2305586,22.9324924],[120.2304782,22.932505],[120.2303311,22.9328248],[120.2303551,22.9328626],[120.2306006,22.9329803]]}},{"type":"Feature","properties":{"from":"\u95dc\u5edf","name":"\u7d053(\u8fd4\u7a0b)","public_transport:version":"2","ref":"\u7d053","route":"bus","to":"\u81fa\u5357\u516c\u5712","type":"route"},"geometry":{"type":"LineString","coordinates":[[120.2300575,22.9337732],[120.2302131,22.9336003],[120.2304519,22.9332459],[120.2306006,22.9329803]]}},{"type":"Feature","properties":{"from":"\u95dc\u5edf","name":"\u7d053(\u8fd4\u7a0b)","public_transport:version":"2","ref":"\u7d053","route":"bus","to":"\u81fa\u5357\u516c\u5712","type":"route"},"geometry":{"type":"LineString","coordinates":[[120.2297477,22.9341549],[120.2298791,22.9339906],[120.2300575,22.9337732]]}},{"type":"Feature","properties":{"from":"\u95dc\u5edf","name":"\u7d053(\u8fd4\u7a0b)","public_transport:version":"2","ref":"\u7d053","route":"bus","to":"\u81fa\u5357\u516c\u5712","type":"route"},"geometry":{"type":"LineString","coordinates":[[120.2289229,22.9364225],[120.2291536,22.9359396],[120.2293172,22.9355406],[120.2295429,22.9347612],[120.2296279,22.9344632],[120.2296577,22.9343639],[120.2297477,22.9341549]]}},{"type":"Feature","properties":{"from":"\u95dc\u5edf","name":"\u7d053(\u8fd4\u7a0b)","public_transport:version":"2","ref":"\u7d053","route":"bus","to":"\u81fa\u5357\u516c\u5712","type":"route"},"geometry":{"type":"LineString","coordinates":[[120.2289229,22.9364225],[120.2284664,22.9362202],[120.2283258,22.9361676],[120.2280013,22.9360422]]}},{"type":"Feature","properties":{"from":"\u95dc\u5edf","name":"\u7d053(\u8fd4\u7a0b)","public_transport:version":"2","ref":"\u7d053","route":"bus","to":"\u81fa\u5357\u516c\u5712","type":"route"},"geometry":{"type":"LineString","coordinates":[[120.2267605,22.9381598],[120.2270948,22.9378428],[120.2272372,22.9376729],[120.227324,22.9375335],[120.2274181,22.9373695],[120.2275065,22.9371559],[120.2280013,22.9360422]]}},{"type":"Feature","properties":{"from":"\u95dc\u5edf","name":"\u7d053(\u8fd4\u7a0b)","public_transport:version":"2","ref":"\u7d053","route":"bus","to":"\u81fa\u5357\u516c\u5712","type":"route"},"geometry":{"type":"LineString","coordinates":[[120.2267605,22.9381598],[120.2274666,22.9386396],[120.2276149,22.938744]]}},{"type":"Feature","properties":{"from":"\u95dc\u5edf","name":"\u7d053(\u8fd4\u7a0b)","public_transport:version":"2","ref":"\u7d053","route":"bus","to":"\u81fa\u5357\u516c\u5712","type":"route"},"geometry":{"type":"LineString","coordinates":[[120.2276149,22.938744],[120.227754,22.938839],[120.227885,22.9389031],[120.2281085,22.9389621],[120.2283268,22.9389965],[120.2284786,22.9390464],[120.228549,22.9390695],[120.2286499,22.9390884],[120.2288152,22.9391408]]}},{"type":"Feature","properties":{"from":"\u95dc\u5edf","name":"\u7d053(\u8fd4\u7a0b)","public_transport:version":"2","ref":"\u7d053","route":"bus","to":"\u81fa\u5357\u516c\u5712","type":"route"},"geometry":{"type":"LineString","coordinates":[[120.2288152,22.9391408],[120.2292328,22.9383136],[120.2293875,22.9382562]]}},{"type":"Feature","properties":{"from":"\u95dc\u5edf","name":"\u7d053(\u8fd4\u7a0b)","public_transport:version":"2","ref":"\u7d053","route":"bus","to":"\u81fa\u5357\u516c\u5712","type":"route"},"geometry":{"type":"LineString","coordinates":[[120.2274581,22.9389081],[120.2276149,22.938744]]}},{"type":"Feature","properties":{"from":"\u95dc\u5edf","name":"\u7d053(\u8fd4\u7a0b)","public_transport:version":"2","ref":"\u7d053","route":"bus","to":"\u81fa\u5357\u516c\u5712","type":"route"},"geometry":{"type":"LineString","coordinates":[[120.2274581,22.9389081],[120.2264635,22.9382256],[120.2263392,22.9381457],[120.2261917,22.9380725],[120.2260891,22.9380126],[120.2259388,22.9379553],[120.2258058,22.9379074],[120.2256887,22.9378741],[120.2254343,22.9378089],[120.2252724,22.9377796],[120.2247498,22.9377261],[120.2246621,22.9376328]]}},{"type":"Feature","properties":{"from":"\u95dc\u5edf","name":"\u7d053(\u8fd4\u7a0b)","public_transport:version":"2","ref":"\u7d053","route":"bus","to":"\u81fa\u5357\u516c\u5712","type":"route"},"geometry":{"type":"LineString","coordinates":[[120.2246621,22.9376328],[120.2245754,22.9376284],[120.2236297,22.9375469],[120.2222659,22.9374293],[120.221077,22.9373413]]}},{"type":"Feature","properties":{"from":"\u95dc\u5edf","name":"\u7d053(\u8fd4\u7a0b)","public_transport:version":"2","ref":"\u7d053","route":"bus","to":"\u81fa\u5357\u516c\u5712","type":"route"},"geometry":{"type":"LineString","coordinates":[[120.221077,22.9373413],[120.2209492,22.9373314]]}},{"type":"Feature","properties":{"from":"\u95dc\u5edf","name":"\u7d053(\u8fd4\u7a0b)","public_transport:version":"2","ref":"\u7d053","route":"bus","to":"\u81fa\u5357\u516c\u5712","type":"route"},"geometry":{"type":"LineString","coordinates":[[120.2209492,22.9373314],[120.2205852,22.9372969],[120.2203607,22.9372922],[120.2201541,22.9373406],[120.2199434,22.9374126],[120.2197563,22.937504],[120.219537,22.9376636],[120.2194523,22.9377718],[120.2193052,22.9379912],[120.219296,22.9380113],[120.2192421,22.9381292],[120.2192072,22.9382564],[120.2191499,22.9387821],[120.2191237,22.9390787],[120.2190449,22.9394278],[120.2188846,22.9397573],[120.2175879,22.9415746],[120.2171658,22.9421125],[120.21704,22.9423396],[120.216919,22.9425958],[120.2168519,22.9427724],[120.2167971,22.9429885],[120.2167764,22.9430699],[120.2167241,22.9433428],[120.2166968,22.943707],[120.2167159,22.944097],[120.2166888,22.9471037],[120.2168391,22.9524024]]}},{"type":"Feature","properties":{"from":"\u95dc\u5edf","name":"\u7d053(\u8fd4\u7a0b)","public_transport:version":"2","ref":"\u7d053","route":"bus","to":"\u81fa\u5357\u516c\u5712","type":"route"},"geometry":{"type":"LineString","coordinates":[[120.2179297,22.9524172],[120.2168391,22.9524024]]}},{"type":"Feature","properties":{"from":"\u95dc\u5edf","name":"\u7d053(\u8fd4\u7a0b)","public_transport:version":"2","ref":"\u7d053","route":"bus","to":"\u81fa\u5357\u516c\u5712","type":"route"},"geometry":{"type":"LineString","coordinates":[[120.2179297,22.9524172],[120.2180228,22.9524286]]}},{"type":"Feature","properties":{"from":"\u95dc\u5edf","name":"\u7d053(\u8fd4\u7a0b)","public_transport:version":"2","ref":"\u7d053","route":"bus","to":"\u81fa\u5357\u516c\u5712","type":"route"},"geometry":{"type":"LineString","coordinates":[[120.2180228,22.9524286],[120.2179616,22.9529266],[120.217303,22.9582818],[120.2170323,22.9604836]]}},{"type":"Feature","properties":{"from":"\u95dc\u5edf","name":"\u7d053(\u8fd4\u7a0b)","public_transport:version":"2","ref":"\u7d053","route":"bus","to":"\u81fa\u5357\u516c\u5712","type":"route"},"geometry":{"type":"LineString","coordinates":[[120.2170323,22.9604836],[120.2168787,22.9616436],[120.2168482,22.9619523],[120.2168547,22.9627848],[120.2168178,22.9632048],[120.2167352,22.9635895],[120.2164733,22.964671]]}},{"type":"Feature","properties":{"from":"\u95dc\u5edf","name":"\u7d053(\u8fd4\u7a0b)","public_transport:version":"2","ref":"\u7d053","route":"bus","to":"\u81fa\u5357\u516c\u5712","type":"route"},"geometry":{"type":"LineString","coordinates":[[120.2164733,22.964671],[120.2168977,22.9646787]]}},{"type":"Feature","properties":{"from":"\u95dc\u5edf","name":"\u7d053(\u8fd4\u7a0b)","public_transport:version":"2","ref":"\u7d053","route":"bus","to":"\u81fa\u5357\u516c\u5712","type":"route"},"geometry":{"type":"LineString","coordinates":[[120.225725,22.9648139],[120.2251872,22.964803],[120.224282,22.9647848],[120.2198978,22.9646962],[120.2175867,22.9646495],[120.2174062,22.9646459],[120.2173393,22.9646445],[120.2170747,22.9646392],[120.2168977,22.9646787]]}},{"type":"Feature","properties":{"from":"\u95dc\u5edf","name":"\u7d053(\u8fd4\u7a0b)","public_transport:version":"2","ref":"\u7d053","route":"bus","to":"\u81fa\u5357\u516c\u5712","type":"route"},"geometry":{"type":"LineString","coordinates":[[120.2257249,22.9649303],[120.225725,22.9648139]]}},{"type":"Feature","properties":{"from":"\u95dc\u5edf","name":"\u7d053(\u8fd4\u7a0b)","public_transport:version":"2","ref":"\u7d053","route":"bus","to":"\u81fa\u5357\u516c\u5712","type":"route"},"geometry":{"type":"LineString","coordinates":[[120.2256996,22.9665743],[120.2257075,22.9657995],[120.2257249,22.9649303]]}},{"type":"Feature","properties":{"from":"\u95dc\u5edf","name":"\u7d053(\u8fd4\u7a0b)","public_transport:version":"2","ref":"\u7d053","route":"bus","to":"\u81fa\u5357\u516c\u5712","type":"route"},"geometry":{"type":"LineString","coordinates":[[120.2255711,22.9720896],[120.2256676,22.9716109],[120.2256707,22.9711304],[120.2256737,22.9706488],[120.225677,22.9701253],[120.2256802,22.9696282],[120.2256832,22.9691556],[120.2256845,22.9689438],[120.2256871,22.9685415],[120.2256874,22.9684869],[120.2256925,22.9676982],[120.2256954,22.967237],[120.2256985,22.9667508],[120.2256996,22.9665743]]}},{"type":"Feature","properties":{"from":"\u95dc\u5edf","name":"\u7d053(\u8fd4\u7a0b)","public_transport:version":"2","ref":"\u7d053","route":"bus","to":"\u81fa\u5357\u516c\u5712","type":"route"},"geometry":{"type":"LineString","coordinates":[[120.2231945,22.9742395],[120.2240786,22.973424],[120.2247786,22.9728076],[120.2255711,22.9720896]]}},{"type":"Feature","properties":{"from":"\u95dc\u5edf","name":"\u7d053(\u8fd4\u7a0b)","public_transport:version":"2","ref":"\u7d053","route":"bus","to":"\u81fa\u5357\u516c\u5712","type":"route"},"geometry":{"type":"LineString","coordinates":[[120.2230769,22.974327],[120.2231945,22.9742395]]}},{"type":"Feature","properties":{"from":"\u95dc\u5edf","name":"\u7d053(\u8fd4\u7a0b)","public_transport:version":"2","ref":"\u7d053","route":"bus","to":"\u81fa\u5357\u516c\u5712","type":"route"},"geometry":{"type":"LineString","coordinates":[[120.2230769,22.974327],[120.2228407,22.9742356],[120.2225861,22.9741232],[120.2224021,22.974055],[120.2218955,22.9739106],[120.2211824,22.9737594]]}},{"type":"Feature","properties":{"from":"\u95dc\u5edf","name":"\u7d053(\u8fd4\u7a0b)","public_transport:version":"2","ref":"\u7d053","route":"bus","to":"\u81fa\u5357\u516c\u5712","type":"route"},"geometry":{"type":"LineString","coordinates":[[120.2211824,22.9737594],[120.220276,22.9735661]]}},{"type":"Feature","properties":{"from":"\u95dc\u5edf","name":"\u7d053(\u8fd4\u7a0b)","public_transport:version":"2","ref":"\u7d053","route":"bus","to":"\u81fa\u5357\u516c\u5712","type":"route"},"geometry":{"type":"LineString","coordinates":[[120.220276,22.9735661],[120.2198853,22.9734925]]}},{"type":"Feature","properties":{"from":"\u95dc\u5edf","name":"\u7d053(\u8fd4\u7a0b)","public_transport:version":"2","ref":"\u7d053","route":"bus","to":"\u81fa\u5357\u516c\u5712","type":"route"},"geometry":{"type":"LineString","coordinates":[[120.2198853,22.9734925],[120.2150441,22.972497]]}},{"type":"Feature","properties":{"from":"\u95dc\u5edf","name":"\u7d053(\u8fd4\u7a0b)","public_transport:version":"2","ref":"\u7d053","route":"bus","to":"\u81fa\u5357\u516c\u5712","type":"route"},"geometry":{"type":"LineString","coordinates":[[120.2150441,22.972497],[120.2148168,22.9724477]]}},{"type":"Feature","properties":{"from":"\u95dc\u5edf","name":"\u7d053(\u8fd4\u7a0b)","public_transport:version":"2","ref":"\u7d053","route":"bus","to":"\u81fa\u5357\u516c\u5712","type":"route"},"geometry":{"type":"LineString","coordinates":[[120.2148168,22.9724477],[120.2146783,22.9730488],[120.2145357,22.9736675],[120.2144529,22.9740265],[120.2143113,22.9746411],[120.2142634,22.9748488],[120.2140669,22.9757017],[120.2139706,22.9761196],[120.2139499,22.9762092]]}},{"type":"Feature","properties":{"from":"\u95dc\u5edf","name":"\u7d053(\u8fd4\u7a0b)","public_transport:version":"2","ref":"\u7d053","route":"bus","to":"\u81fa\u5357\u516c\u5712","type":"route"},"geometry":{"type":"LineString","coordinates":[[120.2139499,22.9762092],[120.2139246,22.9763151]]}},{"type":"Feature","properties":{"from":"\u95dc\u5edf","name":"\u7d053(\u8fd4\u7a0b)","public_transport:version":"2","ref":"\u7d053","route":"bus","to":"\u81fa\u5357\u516c\u5712","type":"route"},"geometry":{"type":"LineString","coordinates":[[120.2139246,22.9763151],[120.2139057,22.9763943],[120.2138613,22.9765803],[120.2137096,22.9772378],[120.2136145,22.9777012],[120.2135402,22.9781017],[120.2134399,22.9784118],[120.2130824,22.97917],[120.2128927,22.9795477],[120.2126875,22.9799786],[120.2124689,22.9804212],[120.2123146,22.9807437],[120.2122382,22.9808708],[120.2122026,22.9809344],[120.2121818,22.9809708]]}},{"type":"Feature","properties":{"from":"\u95dc\u5edf","name":"\u7d053(\u8fd4\u7a0b)","public_transport:version":"2","ref":"\u7d053","route":"bus","to":"\u81fa\u5357\u516c\u5712","type":"route"},"geometry":{"type":"LineString","coordinates":[[120.2121818,22.9809708],[120.2120924,22.981161]]}},{"type":"Feature","properties":{"from":"\u95dc\u5edf","name":"\u7d053(\u8fd4\u7a0b)","public_transport:version":"2","ref":"\u7d053","route":"bus","to":"\u81fa\u5357\u516c\u5712","type":"route"},"geometry":{"type":"LineString","coordinates":[[120.2120924,22.981161],[120.2120706,22.9812099],[120.2120267,22.9812761],[120.2119448,22.9814188],[120.2118223,22.9816581],[120.2116533,22.9819801],[120.2114289,22.9823967],[120.211371,22.9825149],[120.2111975,22.9829629],[120.2111639,22.9830889],[120.2111512,22.9832634],[120.2111494,22.9838938],[120.2111539,22.9840622],[120.211162,22.9845573],[120.2111676,22.9847687]]}},{"type":"Feature","properties":{"from":"\u95dc\u5edf","name":"\u7d053(\u8fd4\u7a0b)","public_transport:version":"2","ref":"\u7d053","route":"bus","to":"\u81fa\u5357\u516c\u5712","type":"route"},"geometry":{"type":"LineString","coordinates":[[120.2076554,22.9889784],[120.2079084,22.9886491],[120.2088148,22.9874931],[120.2090991,22.9871377],[120.2091847,22.9870352],[120.2092409,22.9869678],[120.2098832,22.9861982],[120.2105937,22.9854081],[120.2111676,22.9847687]]}},{"type":"Feature","properties":{"from":"\u95dc\u5edf","name":"\u7d053(\u8fd4\u7a0b)","public_transport:version":"2","ref":"\u7d053","route":"bus","to":"\u81fa\u5357\u516c\u5712","type":"route"},"geometry":{"type":"LineString","coordinates":[[120.2066776,22.9902139],[120.2069924,22.9898139],[120.2073179,22.9894005],[120.2076554,22.9889784]]}},{"type":"Feature","properties":{"from":"\u95dc\u5edf","name":"\u7d053(\u8fd4\u7a0b)","public_transport:version":"2","ref":"\u7d053","route":"bus","to":"\u81fa\u5357\u516c\u5712","type":"route"},"geometry":{"type":"LineString","coordinates":[[120.2055457,22.9919894],[120.2059776,22.9912717],[120.2061059,22.9910655],[120.206178,22.9909479],[120.2066776,22.9902139]]}},{"type":"Feature","properties":{"from":"\u95dc\u5edf","name":"\u7d053(\u8fd4\u7a0b)","public_transport:version":"2","ref":"\u7d053","route":"bus","to":"\u81fa\u5357\u516c\u5712","type":"route"},"geometry":{"type":"LineString","coordinates":[[120.2053684,22.9922445],[120.2055457,22.9919894]]}},{"type":"Feature","properties":{"from":"\u95dc\u5edf","name":"\u7d053(\u8fd4\u7a0b)","public_transport:version":"2","ref":"\u7d053","route":"bus","to":"\u81fa\u5357\u516c\u5712","type":"route"},"geometry":{"type":"LineString","coordinates":[[120.2045626,22.9925558],[120.2045725,22.9924866],[120.2045858,22.9924409],[120.2046043,22.9923967],[120.2046508,22.9923216],[120.2047122,22.9922561],[120.2047861,22.9922028],[120.2048698,22.9921635],[120.2049601,22.9921398],[120.2050693,22.9921331],[120.2051773,22.992149],[120.2052787,22.9921868],[120.2053684,22.9922445],[120.2054218,22.9922955],[120.2054659,22.9923536],[120.2054993,22.9924174],[120.2055285,22.9925234],[120.2055288,22.9926328],[120.2055002,22.992739],[120.2054416,22.9928393],[120.2053673,22.9929148],[120.2052763,22.9929729],[120.2051734,22.9930104],[120.2050622,22.9930256],[120.2049501,22.9930168],[120.2048432,22.9929845],[120.2047473,22.9929303],[120.2046675,22.9928573],[120.2046081,22.9927693],[120.2045783,22.9926941],[120.2045646,22.9926255],[120.2045626,22.9925558]]}},{"type":"Feature","properties":{"from":"\u95dc\u5edf","name":"\u7d053(\u8fd4\u7a0b)","public_transport:version":"2","ref":"\u7d053","route":"bus","to":"\u81fa\u5357\u516c\u5712","type":"route"},"geometry":{"type":"LineString","coordinates":[[120.2055002,22.992739],[120.20583,22.9929633],[120.2067533,22.9935741]]}},{"type":"Feature","properties":{"from":"\u95dc\u5edf","name":"\u7d053(\u8fd4\u7a0b)","public_transport:version":"2","ref":"\u7d053","route":"bus","to":"\u81fa\u5357\u516c\u5712","type":"route"},"geometry":{"type":"LineString","coordinates":[[120.2067533,22.9935741],[120.2072062,22.9938731],[120.2073212,22.993949],[120.2085273,22.9947453]]}},{"type":"Feature","properties":{"from":"\u95dc\u5edf","name":"\u7d053(\u8fd4\u7a0b)","public_transport:version":"2","ref":"\u7d053","route":"bus","to":"\u81fa\u5357\u516c\u5712","type":"route"},"geometry":{"type":"LineString","coordinates":[[120.2085273,22.9947453],[120.2098146,22.9955869],[120.2098838,22.9956321],[120.2103014,22.9959051],[120.211632,22.9967749],[120.2116717,22.9968407]]}},{"type":"Feature","properties":{"from":"\u95dc\u5edf","name":"\u7d053(\u8fd4\u7a0b)","public_transport:version":"2","ref":"\u7d053","route":"bus","to":"\u81fa\u5357\u516c\u5712","type":"route"},"geometry":{"type":"LineString","coordinates":[[120.2116717,22.9968407],[120.2117548,22.9968827],[120.212069,22.9968492]]}},{"type":"Feature","properties":{"from":"\u95dc\u5edf","name":"\u7d053(\u8fd4\u7a0b)","public_transport:version":"2","ref":"\u7d053","route":"bus","to":"\u81fa\u5357\u516c\u5712","type":"route"},"geometry":{"type":"LineString","coordinates":[[120.212069,22.9968492],[120.2121649,22.9970622]]}},{"type":"Feature","properties":{"from":"\u95dc\u5edf","name":"\u7d053(\u8fd4\u7a0b)","public_transport:version":"2","ref":"\u7d053","route":"bus","to":"\u81fa\u5357\u516c\u5712","type":"route"},"geometry":{"type":"LineString","coordinates":[[120.2121649,22.9970622],[120.2122133,22.9972959],[120.212168,22.9973563],[120.2121286,22.9973921],[120.2120959,22.9974181],[120.2120524,22.997444],[120.2120074,22.9974624],[120.2119414,22.9974731],[120.2118275,22.9974837],[120.2117686,22.9974926],[120.2116821,22.99749],[120.2116207,22.9974678],[120.2115602,22.9973916],[120.2115296,22.9973406],[120.2115066,22.997283],[120.2115271,22.9971846],[120.2115746,22.9971088],[120.2116146,22.9970518],[120.21172,22.9970226],[120.2118512,22.9969848],[120.2120278,22.9969658],[120.2120928,22.9969906],[120.2121649,22.9970622]]}},{"type":"Feature","properties":{"from":"\u95dc\u5edf","name":"\u7d053(\u8fd4\u7a0b)","public_transport:version":"2","ref":"\u7d053","route":"bus","to":"\u81fa\u5357\u516c\u5712","type":"route"},"geometry":{"type":"LineString","coordinates":[[120.2115296,22.9973406],[120.2112366,22.9973829]]}},{"type":"Feature","properties":{"from":"\u95dc\u5edf","name":"\u7d053(\u8fd4\u7a0b)","public_transport:version":"2","ref":"\u7d053","route":"bus","to":"\u81fa\u5357\u516c\u5712","type":"route"},"geometry":{"type":"LineString","coordinates":[[120.2112366,22.9973829],[120.2112224,22.9973263]]}},{"type":"Feature","properties":{"from":"\u95dc\u5edf","name":"\u7d053(\u8fd4\u7a0b)","public_transport:version":"2","ref":"\u7d053","route":"bus","to":"\u81fa\u5357\u516c\u5712","type":"route"},"geometry":{"type":"LineString","coordinates":[[120.2112224,22.9973263],[120.2112421,22.997198],[120.2112908,22.9970885],[120.2113768,22.9969836],[120.211457,22.9969172],[120.2115406,22.9968838]]}},{"type":"Feature","properties":{"from":"\u95dc\u5edf","name":"\u7d053(\u8fd4\u7a0b)","public_transport:version":"2","ref":"\u7d053","route":"bus","to":"\u81fa\u5357\u516c\u5712","type":"route"},"geometry":{"type":"LineString","coordinates":[[120.2115406,22.9968838],[120.2116717,22.9968407]]}},{"type":"Feature","properties":{"from":"\u95dc\u5edf","name":"\u7d053(\u8fd4\u7a0b)","public_transport:version":"2","ref":"\u7d053","route":"bus","to":"\u81fa\u5357\u516c\u5712","type":"route"},"geometry":{"type":"LineString","coordinates":[[120.2112366,22.9973829],[120.2110671,22.9974117],[120.210217,22.99755],[120.2094737,22.9976725],[120.2086676,22.9978025],[120.2079985,22.9979187],[120.2076404,22.997973],[120.2069995,22.9980796]]}},{"type":"Feature","properties":{"from":"\u95dc\u5edf","name":"\u7d053(\u8fd4\u7a0b)","public_transport:version":"2","ref":"\u7d053","route":"bus","to":"\u81fa\u5357\u516c\u5712","type":"route"},"geometry":{"type":"LineString","coordinates":[[120.20873,23.0010362],[120.2080177,22.9998488],[120.2079162,22.9996735],[120.2074123,22.9988316],[120.2069995,22.9980796]]}},{"type":"Feature","properties":{"from":"\u95dc\u5edf","name":"\u7d053(\u8fd4\u7a0b)","public_transport:version":"2","ref":"\u7d053","route":"bus","to":"\u81fa\u5357\u516c\u5712","type":"route"},"geometry":{"type":"LineString","coordinates":[[120.2092282,23.0019348],[120.20873,23.0010362]]}}]}