{"type":"FeatureCollection","features":[{"type":"Feature","properties":{"bus":"yes","highway":"bus_stop","name":"\u5b89\u5e73\u5de5\u696d\u5340","network":"\u81fa\u5357\u5e02\u516c\u8eca","operator":"\u81fa\u5357\u5e02\u516c\u8eca","public_transport":"platform"},"geometry":{"type":"Point","coordinates":[120.1742274,22.9687956]}},{"type":"Feature","properties":{"bus":"yes","highway":"bus_stop","name":"\u71d5\u7aa9\u89c0\u5149\u5de5\u5ee0","network":"\u81fa\u5357\u5e02\u516c\u8eca","operator":"\u81fa\u5357\u5e02\u516c\u8eca","public_transport":"platform"},"geometry":{"type":"Point","coordinates":[120.1769982,22.9672435]}},{"type":"Feature","properties":{"bus":"yes","highway":"bus_stop","name":"\u958b\u5357\u516c\u5712","network":"\u81fa\u5357\u5e02\u516c\u8eca","operator":"\u81fa\u5357\u5e02\u516c\u8eca","public_transport":"platform"},"geometry":{"type":"Point","coordinates":[120.1836507,22.9658427]}},{"type":"Feature","properties":{"bus":"yes","highway":"bus_stop","name":"\u4e2d\u83ef\u5357\u8def\u4e8c\u6bb5","network":"\u81fa\u5357\u5e02\u516c\u8eca","operator":"\u81fa\u5357\u5e02\u516c\u8eca","public_transport":"platform"},"geometry":{"type":"Point","coordinates":[120.1854853,22.9616158]}},{"type":"Feature","properties":{"bench":"yes","bus":"yes","highway":"bus_stop","name":"\u65b0\u8208\u570b\u5b85","network":"\u81fa\u5357\u5e02\u516c\u8eca","operator":"\u81fa\u5357\u5e02\u516c\u8eca","public_transport":"platform","shelter":"yes"},"geometry":{"type":"Point","coordinates":[120.1873101,22.9615801]}},{"type":"Feature","properties":{"bus":"yes","highway":"bus_stop","name":"\u5fb7\u8208\u8def\u53e3","network":"\u81fa\u5357\u5e02\u516c\u8eca","operator":"\u81fa\u5357\u5e02\u516c\u8eca","public_transport":"platform"},"geometry":{"type":"Point","coordinates":[120.1930834,22.9617097]}},{"type":"Feature","properties":{"bus":"yes","highway":"bus_stop","name":"\u81f3\u5584\u6a4b","network":"\u81fa\u5357\u5e02\u516c\u8eca","operator":"\u81fa\u5357\u5e02\u516c\u8eca","public_transport":"platform"},"geometry":{"type":"Point","coordinates":[120.1954883,22.9637427]}},{"type":"Feature","properties":{"bus":"yes","highway":"bus_stop","name":"\u90e1\u5357\u91cc","network":"\u81fa\u5357\u5e02\u516c\u8eca","operator":"\u81fa\u5357\u5e02\u516c\u8eca","public_transport":"platform"},"geometry":{"type":"Point","coordinates":[120.1954271,22.9662607]}},{"type":"Feature","properties":{"bus":"yes","highway":"bus_stop","name":"\u6c38\u6210\u8def\u4e09\u6bb5","network":"\u81fa\u5357\u5e02\u516c\u8eca","operator":"\u81fa\u5357\u5e02\u516c\u8eca","public_transport":"platform"},"geometry":{"type":"Point","coordinates":[120.1953799,22.972111]}},{"type":"Feature","properties":{"bus":"yes","highway":"bus_stop","name":"\u5e9c\u5357\u91cc","network":"\u81fa\u5357\u5e02\u516c\u8eca","operator":"\u81fa\u5357\u5e02\u516c\u8eca","public_transport":"platform"},"geometry":{"type":"Point","coordinates":[120.195356,22.9744312]}},{"type":"Feature","properties":{"bench":"no","bus":"yes","highway":"bus_stop","name":"\u7530\u5bee\u91cc","network":"\u81fa\u5357\u5e02\u516c\u8eca","operator":"\u81fa\u5357\u5e02\u516c\u8eca","public_transport":"platform","shelter":"no"},"geometry":{"type":"Point","coordinates":[120.195328,22.9767466]}},{"type":"Feature","properties":{"bus":"yes","highway":"bus_stop","name":"\u65b0\u8208\u570b\u5c0f","network":"\u81fa\u5357\u5e02\u516c\u8eca","operator":"\u81fa\u5357\u5e02\u516c\u8eca","public_transport":"platform"},"geometry":{"type":"Point","coordinates":[120.1961403,22.9788208]}},{"type":"Feature","properties":{"bench":"no","bus":"yes","highway":"bus_stop","name":"\u53f0\u5357\u7ad9","network":"\u81fa\u5357\u5e02\u516c\u8eca","operator":"\u81fa\u5357\u5e02\u516c\u8eca","public_transport":"platform","ref":"9201","shelter":"no"},"geometry":{"type":"Point","coordinates":[120.1976506,22.9821376]}},{"type":"Feature","properties":{"bench":"yes","bus":"yes","highway":"bus_stop","name":"\u65b0\u5149\u4e09\u8d8a\u65b0\u5929\u5730","network":"\u81fa\u5357\u5e02\u516c\u8eca","operator":"\u81fa\u5357\u5e02\u516c\u8eca","public_transport":"platform","ref":"9203","shelter":"no"},"geometry":{"type":"Point","coordinates":[120.1976038,22.9869254]}},{"type":"Feature","properties":{"bench":"yes","bus":"yes","highway":"bus_stop","name":"\u5c0f\u897f\u9580(\u5927\u5104\u9e97\u7dfb)","network":"\u81fa\u5357\u5e02\u516c\u8eca","operator":"\u81fa\u5357\u5e02\u516c\u8eca","public_transport":"platform","ref":"9281","shelter":"no"},"geometry":{"type":"Point","coordinates":[120.1975906,22.9888382]}},{"type":"Feature","properties":{"bench":"no","bus":"yes","highway":"bus_stop","name":"\u897f\u9580\u3001\u53cb\u611b\u8857\u53e3","name:en":"Intersection of Simen Rd. & Youai St.","network":"\u81fa\u5357\u5e02\u516c\u8eca","operator":"\u81fa\u5357\u5e02\u516c\u8eca","public_transport":"platform","ref":"9205","shelter":"no"},"geometry":{"type":"Point","coordinates":[120.198188,22.9914232]}},{"type":"Feature","properties":{"bus":"yes","highway":"bus_stop","name":"\u4e2d\u6b63\u3001\u897f\u9580\u8def\u53e3","network":"\u81fa\u5357\u5e02\u516c\u8eca","operator":"\u81fa\u5357\u5e02\u516c\u8eca","public_transport":"platform"},"geometry":{"type":"Point","coordinates":[120.1996807,22.9924486]}},{"type":"Feature","properties":{"bus":"yes","highway":"bus_stop","name":"\u6797\u767e\u8ca8(\u4e2d\u6b63\u8def)","network":"\u81fa\u5357\u5e02\u516c\u8eca","operator":"\u81fa\u5357\u5e02\u516c\u8eca","public_transport":"platform"},"geometry":{"type":"Point","coordinates":[120.2015738,22.9920403]}},{"type":"Feature","properties":{"bus":"yes","highway":"bus_stop","name":"\u4e2d\u5c71\u3001\u6c11\u6b0a\u8def\u53e3","network":"\u81fa\u5357\u5e02\u516c\u8eca","operator":"\u81fa\u5357\u5e02\u516c\u8eca","public_transport":"platform"},"geometry":{"type":"Point","coordinates":[120.2070652,22.9937357]}},{"type":"Feature","properties":{"bench":"yes","bus":"yes","highway":"bus_stop","name":"\u81fa\u5357\u706b\u8eca\u7ad9(\u5317\u7ad9)","network":"\u81fa\u5357\u5e02\u516c\u8eca","note":"\u8208\u5357\u5ba2\u904b","operator":"\u81fa\u5357\u5e02\u516c\u8eca","public_transport":"platform","ref":"9274","shelter":"yes"},"geometry":{"type":"Point","coordinates":[120.2114063,22.9976794]}},{"type":"Feature","properties":{"bench":"yes","bus":"yes","highway":"bus_stop","name":"\u7e23\u77e5\u4e8b\u5b98\u90b8","network":"\u81fa\u5357\u5e02\u516c\u8eca","operator":"\u81fa\u5357\u5e02\u516c\u8eca","public_transport":"platform","ref":"0368","shelter":"yes"},"geometry":{"type":"Point","coordinates":[120.2116253,22.9937308]}},{"type":"Feature","properties":{"bus":"yes","highway":"bus_stop","name":"\u6771\u9580\u5713\u74b0","network":"\u81fa\u5357\u5e02\u516c\u8eca","operator":"\u81fa\u5357\u5e02\u516c\u8eca","public_transport":"platform"},"geometry":{"type":"Point","coordinates":[120.2114286,22.9908447]}},{"type":"Feature","properties":{"bus":"yes","highway":"bus_stop","name":"\u6771\u9580\u6559\u6703","network":"\u81fa\u5357\u5e02\u516c\u8eca","operator":"\u81fa\u5357\u5e02\u516c\u8eca","public_transport":"platform"},"geometry":{"type":"Point","coordinates":[120.2157806,22.9874639]}},{"type":"Feature","properties":{"bus":"yes","highway":"bus_stop","name":"\u6771\u9580\u57ce","network":"\u81fa\u5357\u5e02\u516c\u8eca","operator":"\u81fa\u5357\u5e02\u516c\u8eca","public_transport":"platform"},"geometry":{"type":"Point","coordinates":[120.2191072,22.9864259]}},{"type":"Feature","properties":{"bus":"yes","highway":"bus_stop","name":"\u9f8d\u5c71\u5bfa","network":"\u81fa\u5357\u5e02\u516c\u8eca","operator":"\u81fa\u5357\u5e02\u516c\u8eca","public_transport":"platform"},"geometry":{"type":"Point","coordinates":[120.2212162,22.9857985]}},{"type":"Feature","properties":{"bus":"yes","highway":"bus_stop","name":"\u5bcc\u5f37\u5e02\u5834","network":"\u81fa\u5357\u5e02\u516c\u8eca","note":"\u8208\u5357\u5ba2\u904b","operator":"\u81fa\u5357\u5e02\u516c\u8eca","public_transport":"platform"},"geometry":{"type":"Point","coordinates":[120.2272185,22.9826163]}},{"type":"Feature","properties":{"bus":"yes","highway":"bus_stop","name":"\u6771\u9580\u8def","network":"\u81fa\u5357\u5e02\u516c\u8eca","note":"\u8208\u5357\u5ba2\u904b","operator":"\u81fa\u5357\u5e02\u516c\u8eca","public_transport":"platform"},"geometry":{"type":"Point","coordinates":[120.2288485,22.9813939]}},{"type":"Feature","properties":{"bus":"yes","highway":"bus_stop","name":"\u864e\u5c3e\u5bee","network":"\u81fa\u5357\u5e02\u516c\u8eca","note":"\u8208\u5357\u5ba2\u904b","operator":"\u81fa\u5357\u5e02\u516c\u8eca","public_transport":"platform"},"geometry":{"type":"Point","coordinates":[120.2309268,22.9798471]}},{"type":"Feature","properties":{"bus":"yes","highway":"bus_stop","name":"\u5bcc\u8fb2\u8857\u53e3","network":"\u81fa\u5357\u5e02\u516c\u8eca","note":"\u8208\u5357\u5ba2\u904b","operator":"\u81fa\u5357\u5e02\u516c\u8eca","public_transport":"platform"},"geometry":{"type":"Point","coordinates":[120.2346947,22.9770311]}},{"type":"Feature","properties":{"bus":"yes","highway":"bus_stop","name":"\u5d01\u8173","network":"\u81fa\u5357\u5e02\u516c\u8eca","note":"\u8208\u5357\u5ba2\u904b","operator":"\u81fa\u5357\u5e02\u516c\u8eca","public_transport":"platform"},"geometry":{"type":"Point","coordinates":[120.2378051,22.9756236]}},{"type":"Feature","properties":{"bus":"yes","highway":"bus_stop","name":"\u5609\u5357\u7642\u990a\u9662","network":"\u81fa\u5357\u5e02\u516c\u8eca","note":"\u8208\u5357\u5ba2\u904b","operator":"\u81fa\u5357\u5e02\u516c\u8eca","public_transport":"platform"},"geometry":{"type":"Point","coordinates":[120.2418069,22.9743207]}},{"type":"Feature","properties":{"bus":"yes","highway":"bus_stop","name":"\u4ec1\u5fb7\u4ea4\u6d41\u9053","network":"\u81fa\u5357\u5e02\u516c\u8eca","note":"\u8208\u5357\u5ba2\u904b","operator":"\u81fa\u5357\u5e02\u516c\u8eca","public_transport":"platform"},"geometry":{"type":"Point","coordinates":[120.2450715,22.9733066]}},{"type":"Feature","properties":{"bus":"yes","highway":"bus_stop","name":"\u4ec1\u5fb7","network":"\u81fa\u5357\u5e02\u516c\u8eca","note":"\u8208\u5357\u5ba2\u904b","operator":"\u81fa\u5357\u5e02\u516c\u8eca","public_transport":"platform"},"geometry":{"type":"Point","coordinates":[120.2520464,22.9714696]}},{"type":"Feature","properties":{"bus":"yes","highway":"bus_stop","name":"\u4ec1\u7fa9\u91cc","network":"\u81fa\u5357\u5e02\u516c\u8eca","note":"\u8208\u5357\u5ba2\u904b","operator":"\u81fa\u5357\u5e02\u516c\u8eca","public_transport":"platform"},"geometry":{"type":"Point","coordinates":[120.2557111,22.971064]}},{"type":"Feature","properties":{"bus":"yes","highway":"bus_stop","name":"\u937e\u539d","network":"\u81fa\u5357\u5e02\u516c\u8eca","operator":"\u81fa\u5357\u5e02\u516c\u8eca","public_transport":"platform","ref":"1516"},"geometry":{"type":"Point","coordinates":[120.258013,22.9708035]}},{"type":"Feature","properties":{"bus":"yes","highway":"bus_stop","name":"\u6148\u6fdf\u53f0\u5357\u5206\u6703","network":"\u81fa\u5357\u5e02\u516c\u8eca","note":"\u8208\u5357\u5ba2\u904b","operator":"\u81fa\u5357\u5e02\u516c\u8eca","public_transport":"platform"},"geometry":{"type":"Point","coordinates":[120.2604222,22.9705295]}},{"type":"Feature","properties":{"bus":"yes","highway":"bus_stop","name":"\u7fa9\u6797\u4e00\u8857\u53e3","network":"\u81fa\u5357\u5e02\u516c\u8eca","note":"\u8208\u5357\u5ba2\u904b","operator":"\u81fa\u5357\u5e02\u516c\u8eca","public_transport":"platform","ref":"8374"},"geometry":{"type":"Point","coordinates":[120.2621061,22.9703476]}},{"type":"Feature","properties":{"bus":"yes","highway":"bus_stop","name":"\u6797\u4ed4","network":"\u81fa\u5357\u5e02\u516c\u8eca","note":"\u8208\u5357\u5ba2\u904b","operator":"\u81fa\u5357\u5e02\u516c\u8eca","public_transport":"platform"},"geometry":{"type":"Point","coordinates":[120.2648953,22.9700091]}},{"type":"Feature","properties":{"bus":"yes","highway":"bus_stop","name":"\u8c9d\u6c5d\u6d41\u901a","network":"\u81fa\u5357\u5e02\u516c\u8eca","note":"\u8208\u5357\u5ba2\u904b","operator":"\u81fa\u5357\u5e02\u516c\u8eca","public_transport":"platform"},"geometry":{"type":"Point","coordinates":[120.2703992,22.9694076]}},{"type":"Feature","properties":{"bus":"yes","highway":"bus_stop","name":"\u4e0a\u5e1d\u5edf","network":"\u81fa\u5357\u5e02\u516c\u8eca","note":"\u8208\u5357\u5ba2\u904b","operator":"\u81fa\u5357\u5e02\u516c\u8eca","public_transport":"platform"},"geometry":{"type":"Point","coordinates":[120.2738244,22.9689566]}},{"type":"Feature","properties":{"bus":"yes","highway":"bus_stop","name":"\u5357\u8208\u91cc","network":"\u81fa\u5357\u5e02\u516c\u8eca","note":"\u8208\u5357\u5ba2\u904b","operator":"\u81fa\u5357\u5e02\u516c\u8eca","public_transport":"platform"},"geometry":{"type":"Point","coordinates":[120.2775111,22.9685692]}},{"type":"Feature","properties":{"bus":"yes","highway":"bus_stop","name":"\u5357\u4fdd","network":"\u81fa\u5357\u5e02\u516c\u8eca","note":"\u8208\u5357\u5ba2\u904b","operator":"\u81fa\u5357\u5e02\u516c\u8eca","public_transport":"platform"},"geometry":{"type":"Point","coordinates":[120.2815589,22.9680895]}},{"type":"Feature","properties":{"bus":"yes","highway":"bus_stop","name":"\u59d3\u674e\u4ed4","network":"\u81fa\u5357\u5e02\u516c\u8eca","note":"\u8208\u5357\u5ba2\u904b","operator":"\u81fa\u5357\u5e02\u516c\u8eca","public_transport":"platform"},"geometry":{"type":"Point","coordinates":[120.2854749,22.9676324]}},{"type":"Feature","properties":{"bus":"yes","highway":"bus_stop","name":"\u5f8c\u5e02","network":"\u81fa\u5357\u5e02\u516c\u8eca","note":"\u8208\u5357\u5ba2\u904b","operator":"\u81fa\u5357\u5e02\u516c\u8eca","public_transport":"platform"},"geometry":{"type":"Point","coordinates":[120.2893284,22.9671997]}},{"type":"Feature","properties":{"bus":"yes","highway":"bus_stop","name":"\u6b78\u4ec1\u516c\u6240","name:en":"Gueiren District Office","name:zh":"\u6b78\u4ec1\u516c\u6240","network":"\u81fa\u5357\u5e02\u516c\u8eca","operator":"\u81fa\u5357\u5e02\u516c\u8eca","public_transport":"platform","ref":"1526"},"geometry":{"type":"Point","coordinates":[120.2936716,22.966707]}},{"type":"Feature","properties":{"bus":"yes","highway":"bus_stop","name":"\u6b78\u4ec1\u5e02\u5834","network":"\u81fa\u5357\u5e02\u516c\u8eca","operator":"\u81fa\u5357\u5e02\u516c\u8eca","public_transport":"platform"},"geometry":{"type":"Point","coordinates":[120.295935,22.9664113]}},{"type":"Feature","properties":{"bus":"yes","highway":"bus_stop","name":"\u6b78\u4ec1\u6587\u5316\u4e2d\u5fc3","network":"\u81fa\u5357\u5e02\u516c\u8eca","operator":"\u81fa\u5357\u5e02\u516c\u8eca","public_transport":"platform","ref":"8942"},"geometry":{"type":"Point","coordinates":[120.2981955,22.9661777]}},{"type":"Feature","properties":{"bus":"yes","highway":"bus_stop","name":"\u5584\u5316\u5bfa","network":"\u81fa\u5357\u5e02\u516c\u8eca","note":"\u8208\u5357\u5ba2\u904b","operator":"\u81fa\u5357\u5e02\u516c\u8eca","public_transport":"platform"},"geometry":{"type":"Point","coordinates":[120.3007044,22.9658798]}},{"type":"Feature","properties":{"bus":"yes","highway":"bus_stop","name":"\u770b\u6771\u91cc","network":"\u81fa\u5357\u5e02\u516c\u8eca","note":"\u8208\u5357\u5ba2\u904b","operator":"\u81fa\u5357\u5e02\u516c\u8eca","public_transport":"platform"},"geometry":{"type":"Point","coordinates":[120.303944,22.9652039]}},{"type":"Feature","properties":{"bus":"yes","highway":"bus_stop","name":"\u4fee\u5143\u5802","network":"\u81fa\u5357\u5e02\u516c\u8eca","note":"\u8208\u5357\u5ba2\u904b","operator":"\u81fa\u5357\u5e02\u516c\u8eca","public_transport":"platform"},"geometry":{"type":"Point","coordinates":[120.30706,22.9641986]}},{"type":"Feature","properties":{"bus":"yes","highway":"bus_stop","name":"\u6b78\u4ec1\u4ea4\u6d41\u9053","network":"\u81fa\u5357\u5e02\u516c\u8eca","note":"\u8208\u5357\u5ba2\u904b","operator":"\u81fa\u5357\u5e02\u516c\u8eca","public_transport":"platform"},"geometry":{"type":"Point","coordinates":[120.3128615,22.962492]}},{"type":"Feature","properties":{"bus":"yes","highway":"bus_stop","name":"\u5927\u4e9e\u516c\u53f8","network":"\u81fa\u5357\u5e02\u516c\u8eca","note":"\u8208\u5357\u5ba2\u904b","operator":"\u81fa\u5357\u5e02\u516c\u8eca","public_transport":"platform"},"geometry":{"type":"Point","coordinates":[120.3165214,22.9617066]}},{"type":"Feature","properties":{"bus":"yes","highway":"bus_stop","name":"\u95dc\u5edf\u570b\u4e2d","network":"\u81fa\u5357\u5e02\u516c\u8eca","note":"\u8208\u5357\u5ba2\u904b","operator":"\u81fa\u5357\u5e02\u516c\u8eca","public_transport":"platform","ref":"1533"},"geometry":{"type":"Point","coordinates":[120.3248457,22.9603171]}},{"type":"Feature","properties":{"bus":"yes","highway":"bus_stop","name":"\u95dc\u5edf\u5e02\u5834","network":"\u81fa\u5357\u5e02\u516c\u8eca","note":"\u8208\u5357\u5ba2\u904b","operator":"\u81fa\u5357\u5e02\u516c\u8eca","public_transport":"platform","ref":"3301"},"geometry":{"type":"Point","coordinates":[120.3284743,22.962065]}},{"type":"Feature","properties":{"bus":"yes","highway":"bus_stop","name":"\u5317\u52e2\u91cc","network":"\u81fa\u5357\u5e02\u516c\u8eca","note":"\u8208\u5357\u5ba2\u904b","operator":"\u81fa\u5357\u5e02\u516c\u8eca","public_transport":"platform","ref":"3302"},"geometry":{"type":"Point","coordinates":[120.3307501,22.9617242]}},{"type":"Feature","properties":{"bus":"yes","highway":"bus_stop","name":"\u82b1\u5712","network":"\u81fa\u5357\u5e02\u516c\u8eca","note":"\u8208\u5357\u5ba2\u904b","operator":"\u81fa\u5357\u5e02\u516c\u8eca","public_transport":"platform","ref":"3303"},"geometry":{"type":"Point","coordinates":[120.3345496,22.9630229]}},{"type":"Feature","properties":{"bus":"yes","highway":"bus_stop","name":"\u95dc\u5edf\u8f49\u904b\u7ad9","network":"\u81fa\u5357\u5e02\u516c\u8eca","note":"\u5f80\u7a0b","operator":"\u81fa\u5357\u5e02\u516c\u8eca","public_transport":"platform","ref":"3304"},"geometry":{"type":"Point","coordinates":[120.3370886,22.9635961]}},{"type":"Feature","properties":{"from":"\u5b89\u5de5\u5340","name":"\u7d05\u5e79\u7dda(\u5f80)","public_transport:version":"2","ref":"\u7d05\u5e79\u7dda","route":"bus","to":"\u95dc\u5edf","type":"route"},"geometry":{"type":"LineString","coordinates":[[120.1743541,22.9689217],[120.1741941,22.9688483],[120.1738341,22.9686832],[120.1731019,22.9683168],[120.1735143,22.9677699],[120.1741427,22.9680838],[120.1738341,22.9686832]]}},{"type":"Feature","properties":{"from":"\u5b89\u5de5\u5340","name":"\u7d05\u5e79\u7dda(\u5f80)","public_transport:version":"2","ref":"\u7d05\u5e79\u7dda","route":"bus","to":"\u95dc\u5edf","type":"route"},"geometry":{"type":"LineString","coordinates":[[120.1743541,22.9689217],[120.1743843,22.9687373],[120.1749222,22.9677457],[120.1751427,22.967319]]}},{"type":"Feature","properties":{"from":"\u5b89\u5de5\u5340","name":"\u7d05\u5e79\u7dda(\u5f80)","public_transport:version":"2","ref":"\u7d05\u5e79\u7dda","route":"bus","to":"\u95dc\u5edf","type":"route"},"geometry":{"type":"LineString","coordinates":[[120.1751427,22.967319],[120.1778214,22.9673375],[120.1810407,22.9673597],[120.1826396,22.9673708],[120.1837155,22.9673782]]}},{"type":"Feature","properties":{"from":"\u5b89\u5de5\u5340","name":"\u7d05\u5e79\u7dda(\u5f80)","public_transport:version":"2","ref":"\u7d05\u5e79\u7dda","route":"bus","to":"\u95dc\u5edf","type":"route"},"geometry":{"type":"LineString","coordinates":[[120.1837155,22.9673782],[120.1837537,22.9645003],[120.1837694,22.9633068]]}},{"type":"Feature","properties":{"from":"\u5b89\u5de5\u5340","name":"\u7d05\u5e79\u7dda(\u5f80)","public_transport:version":"2","ref":"\u7d05\u5e79\u7dda","route":"bus","to":"\u95dc\u5edf","type":"route"},"geometry":{"type":"LineString","coordinates":[[120.1837694,22.9633068],[120.1837686,22.9626889]]}},{"type":"Feature","properties":{"from":"\u5b89\u5de5\u5340","name":"\u7d05\u5e79\u7dda(\u5f80)","public_transport:version":"2","ref":"\u7d05\u5e79\u7dda","route":"bus","to":"\u95dc\u5edf","type":"route"},"geometry":{"type":"LineString","coordinates":[[120.1837686,22.9626889],[120.1837724,22.9617703],[120.1837675,22.961674]]}},{"type":"Feature","properties":{"from":"\u5b89\u5de5\u5340","name":"\u7d05\u5e79\u7dda(\u5f80)","public_transport:version":"2","ref":"\u7d05\u5e79\u7dda","route":"bus","to":"\u95dc\u5edf","type":"route"},"geometry":{"type":"LineString","coordinates":[[120.1837675,22.961674],[120.183889,22.9616753]]}},{"type":"Feature","properties":{"from":"\u5b89\u5de5\u5340","name":"\u7d05\u5e79\u7dda(\u5f80)","public_transport:version":"2","ref":"\u7d05\u5e79\u7dda","route":"bus","to":"\u95dc\u5edf","type":"route"},"geometry":{"type":"LineString","coordinates":[[120.183889,22.9616753],[120.1848039,22.961677],[120.1853909,22.9616782],[120.1870241,22.9616812],[120.1877538,22.9615423]]}},{"type":"Feature","properties":{"from":"\u5b89\u5de5\u5340","name":"\u7d05\u5e79\u7dda(\u5f80)","public_transport:version":"2","ref":"\u7d05\u5e79\u7dda","route":"bus","to":"\u95dc\u5edf","type":"route"},"geometry":{"type":"LineString","coordinates":[[120.1877538,22.9615423],[120.1883903,22.9614431],[120.1892162,22.9611959]]}},{"type":"Feature","properties":{"from":"\u5b89\u5de5\u5340","name":"\u7d05\u5e79\u7dda(\u5f80)","public_transport:version":"2","ref":"\u7d05\u5e79\u7dda","route":"bus","to":"\u95dc\u5edf","type":"route"},"geometry":{"type":"LineString","coordinates":[[120.1892162,22.9611959],[120.1893622,22.961183],[120.1896601,22.9611732],[120.1897853,22.9611735],[120.1898995,22.9611941],[120.1903503,22.9612815],[120.1908254,22.9613736],[120.1910874,22.9614244],[120.1926334,22.9617242],[120.1940583,22.9620005],[120.1954064,22.9622619]]}},{"type":"Feature","properties":{"from":"\u5b89\u5de5\u5340","name":"\u7d05\u5e79\u7dda(\u5f80)","public_transport:version":"2","ref":"\u7d05\u5e79\u7dda","route":"bus","to":"\u95dc\u5edf","type":"route"},"geometry":{"type":"LineString","coordinates":[[120.1954162,22.962367],[120.1954064,22.9622619]]}},{"type":"Feature","properties":{"from":"\u5b89\u5de5\u5340","name":"\u7d05\u5e79\u7dda(\u5f80)","public_transport:version":"2","ref":"\u7d05\u5e79\u7dda","route":"bus","to":"\u95dc\u5edf","type":"route"},"geometry":{"type":"LineString","coordinates":[[120.1954139,22.9638997],[120.195414,22.9638482],[120.1954146,22.9634604],[120.195415,22.9631994],[120.1954152,22.9630255],[120.1954158,22.9626212],[120.1954162,22.962367]]}},{"type":"Feature","properties":{"from":"\u5b89\u5de5\u5340","name":"\u7d05\u5e79\u7dda(\u5f80)","public_transport:version":"2","ref":"\u7d05\u5e79\u7dda","route":"bus","to":"\u95dc\u5edf","type":"route"},"geometry":{"type":"LineString","coordinates":[[120.1954039,22.9641543],[120.1954139,22.9638997]]}},{"type":"Feature","properties":{"from":"\u5b89\u5de5\u5340","name":"\u7d05\u5e79\u7dda(\u5f80)","public_transport:version":"2","ref":"\u7d05\u5e79\u7dda","route":"bus","to":"\u95dc\u5edf","type":"route"},"geometry":{"type":"LineString","coordinates":[[120.1953694,22.9749279],[120.19539,22.9685028],[120.1953907,22.968269],[120.1953914,22.9680514],[120.1953941,22.9672195],[120.1953952,22.9668745],[120.1953967,22.9664067],[120.1953982,22.9659208],[120.1953992,22.9656214],[120.1953995,22.9655257],[120.1954007,22.9651679],[120.1954021,22.9647067],[120.1954031,22.9643947],[120.1954037,22.9642013],[120.1954039,22.9641543]]}},{"type":"Feature","properties":{"from":"\u5b89\u5de5\u5340","name":"\u7d05\u5e79\u7dda(\u5f80)","public_transport:version":"2","ref":"\u7d05\u5e79\u7dda","route":"bus","to":"\u95dc\u5edf","type":"route"},"geometry":{"type":"LineString","coordinates":[[120.1952191,22.9782317],[120.1952592,22.9773499],[120.1952827,22.9768345],[120.1953143,22.97614],[120.1953473,22.9754127],[120.1953694,22.9749279]]}},{"type":"Feature","properties":{"from":"\u5b89\u5de5\u5340","name":"\u7d05\u5e79\u7dda(\u5f80)","public_transport:version":"2","ref":"\u7d05\u5e79\u7dda","route":"bus","to":"\u95dc\u5edf","type":"route"},"geometry":{"type":"LineString","coordinates":[[120.1952191,22.9782317],[120.1957463,22.9785992],[120.1959327,22.9787292],[120.1969618,22.9794466],[120.1971661,22.979589]]}},{"type":"Feature","properties":{"from":"\u5b89\u5de5\u5340","name":"\u7d05\u5e79\u7dda(\u5f80)","public_transport:version":"2","ref":"\u7d05\u5e79\u7dda","route":"bus","to":"\u95dc\u5edf","type":"route"},"geometry":{"type":"LineString","coordinates":[[120.1971661,22.979589],[120.197271,22.9796021],[120.1973657,22.9796635],[120.1974601,22.9796952],[120.1976015,22.9797164],[120.1976604,22.9797183]]}},{"type":"Feature","properties":{"from":"\u5b89\u5de5\u5340","name":"\u7d05\u5e79\u7dda(\u5f80)","public_transport:version":"2","ref":"\u7d05\u5e79\u7dda","route":"bus","to":"\u95dc\u5edf","type":"route"},"geometry":{"type":"LineString","coordinates":[[120.1976604,22.9797183],[120.1976597,22.9798317],[120.1976572,22.980222],[120.1976531,22.9808663],[120.1976515,22.9813514],[120.1976497,22.9813935]]}},{"type":"Feature","properties":{"from":"\u5b89\u5de5\u5340","name":"\u7d05\u5e79\u7dda(\u5f80)","public_transport:version":"2","ref":"\u7d05\u5e79\u7dda","route":"bus","to":"\u95dc\u5edf","type":"route"},"geometry":{"type":"LineString","coordinates":[[120.1976497,22.9813935],[120.197647,22.9814614]]}},{"type":"Feature","properties":{"from":"\u5b89\u5de5\u5340","name":"\u7d05\u5e79\u7dda(\u5f80)","public_transport:version":"2","ref":"\u7d05\u5e79\u7dda","route":"bus","to":"\u95dc\u5edf","type":"route"},"geometry":{"type":"LineString","coordinates":[[120.197647,22.9814614],[120.1976448,22.9815785],[120.1976413,22.9819826],[120.1976339,22.9826488],[120.1976246,22.983496],[120.1976209,22.9838689],[120.197607,22.9851007],[120.1975935,22.9863426],[120.1975927,22.986418],[120.1975817,22.9873959]]}},{"type":"Feature","properties":{"from":"\u5b89\u5de5\u5340","name":"\u7d05\u5e79\u7dda(\u5f80)","public_transport:version":"2","ref":"\u7d05\u5e79\u7dda","route":"bus","to":"\u95dc\u5edf","type":"route"},"geometry":{"type":"LineString","coordinates":[[120.1975817,22.9873959],[120.1975847,22.987521],[120.1975715,22.9884723],[120.1975622,22.9890044],[120.197598,22.989384],[120.1976423,22.9896506],[120.1977194,22.9900223],[120.1977677,22.9902223],[120.1978455,22.9904173]]}},{"type":"Feature","properties":{"from":"\u5b89\u5de5\u5340","name":"\u7d05\u5e79\u7dda(\u5f80)","public_transport:version":"2","ref":"\u7d05\u5e79\u7dda","route":"bus","to":"\u95dc\u5edf","type":"route"},"geometry":{"type":"LineString","coordinates":[[120.1978455,22.9904173],[120.1979802,22.9908039],[120.1980517,22.991009],[120.1980616,22.9910374],[120.198305,22.9917429]]}},{"type":"Feature","properties":{"from":"\u5b89\u5de5\u5340","name":"\u7d05\u5e79\u7dda(\u5f80)","public_transport:version":"2","ref":"\u7d05\u5e79\u7dda","route":"bus","to":"\u95dc\u5edf","type":"route"},"geometry":{"type":"LineString","coordinates":[[120.198305,22.9917429],[120.1985449,22.9923602],[120.1986702,22.992687]]}},{"type":"Feature","properties":{"from":"\u5b89\u5de5\u5340","name":"\u7d05\u5e79\u7dda(\u5f80)","public_transport:version":"2","ref":"\u7d05\u5e79\u7dda","route":"bus","to":"\u95dc\u5edf","type":"route"},"geometry":{"type":"LineString","coordinates":[[120.1986702,22.992687],[120.1997806,22.9924701],[120.2008609,22.9922507],[120.201816,22.9920568],[120.2021719,22.9919821],[120.2027663,22.9918638]]}},{"type":"Feature","properties":{"from":"\u5b89\u5de5\u5340","name":"\u7d05\u5e79\u7dda(\u5f80)","public_transport:version":"2","ref":"\u7d05\u5e79\u7dda","route":"bus","to":"\u95dc\u5edf","type":"route"},"geometry":{"type":"LineString","coordinates":[[120.2027663,22.9918638],[120.2031908,22.9919871],[120.2036244,22.992113],[120.2040257,22.9922296],[120.2046043,22.9923967]]}},{"type":"Feature","properties":{"from":"\u5b89\u5de5\u5340","name":"\u7d05\u5e79\u7dda(\u5f80)","public_transport:version":"2","ref":"\u7d05\u5e79\u7dda","route":"bus","to":"\u95dc\u5edf","type":"route"},"geometry":{"type":"LineString","coordinates":[[120.2045626,22.9925558],[120.2045725,22.9924866],[120.2045858,22.9924409],[120.2046043,22.9923967],[120.2046508,22.9923216],[120.2047122,22.9922561],[120.2047861,22.9922028],[120.2048698,22.9921635],[120.2049601,22.9921398],[120.2050693,22.9921331],[120.2051773,22.992149],[120.2052787,22.9921868],[120.2053684,22.9922445],[120.2054218,22.9922955],[120.2054659,22.9923536],[120.2054993,22.9924174],[120.2055285,22.9925234],[120.2055288,22.9926328],[120.2055002,22.992739],[120.2054416,22.9928393],[120.2053673,22.9929148],[120.2052763,22.9929729],[120.2051734,22.9930104],[120.2050622,22.9930256],[120.2049501,22.9930168],[120.2048432,22.9929845],[120.2047473,22.9929303],[120.2046675,22.9928573],[120.2046081,22.9927693],[120.2045783,22.9926941],[120.2045646,22.9926255],[120.2045626,22.9925558]]}},{"type":"Feature","properties":{"from":"\u5b89\u5de5\u5340","name":"\u7d05\u5e79\u7dda(\u5f80)","public_transport:version":"2","ref":"\u7d05\u5e79\u7dda","route":"bus","to":"\u95dc\u5edf","type":"route"},"geometry":{"type":"LineString","coordinates":[[120.2055002,22.992739],[120.20583,22.9929633],[120.2067533,22.9935741]]}},{"type":"Feature","properties":{"from":"\u5b89\u5de5\u5340","name":"\u7d05\u5e79\u7dda(\u5f80)","public_transport:version":"2","ref":"\u7d05\u5e79\u7dda","route":"bus","to":"\u95dc\u5edf","type":"route"},"geometry":{"type":"LineString","coordinates":[[120.2067533,22.9935741],[120.2072062,22.9938731],[120.2073212,22.993949],[120.2085273,22.9947453]]}},{"type":"Feature","properties":{"from":"\u5b89\u5de5\u5340","name":"\u7d05\u5e79\u7dda(\u5f80)","public_transport:version":"2","ref":"\u7d05\u5e79\u7dda","route":"bus","to":"\u95dc\u5edf","type":"route"},"geometry":{"type":"LineString","coordinates":[[120.2085273,22.9947453],[120.2098146,22.9955869],[120.2098838,22.9956321],[120.2103014,22.9959051],[120.211632,22.9967749],[120.2116717,22.9968407]]}},{"type":"Feature","properties":{"from":"\u5b89\u5de5\u5340","name":"\u7d05\u5e79\u7dda(\u5f80)","public_transport:version":"2","ref":"\u7d05\u5e79\u7dda","route":"bus","to":"\u95dc\u5edf","type":"route"},"geometry":{"type":"LineString","coordinates":[[120.2116717,22.9968407],[120.2117548,22.9968827],[120.212069,22.9968492]]}},{"type":"Feature","properties":{"from":"\u5b89\u5de5\u5340","name":"\u7d05\u5e79\u7dda(\u5f80)","public_transport:version":"2","ref":"\u7d05\u5e79\u7dda","route":"bus","to":"\u95dc\u5edf","type":"route"},"geometry":{"type":"LineString","coordinates":[[120.212069,22.9968492],[120.2121649,22.9970622]]}},{"type":"Feature","properties":{"from":"\u5b89\u5de5\u5340","name":"\u7d05\u5e79\u7dda(\u5f80)","public_transport:version":"2","ref":"\u7d05\u5e79\u7dda","route":"bus","to":"\u95dc\u5edf","type":"route"},"geometry":{"type":"LineString","coordinates":[[120.2121649,22.9970622],[120.2122133,22.9972959],[120.212168,22.9973563],[120.2121286,22.9973921],[120.2120959,22.9974181],[120.2120524,22.997444],[120.2120074,22.9974624],[120.2119414,22.9974731],[120.2118275,22.9974837],[120.2117686,22.9974926],[120.2116821,22.99749],[120.2116207,22.9974678],[120.2115602,22.9973916],[120.2115296,22.9973406],[120.2115066,22.997283],[120.2115271,22.9971846],[120.2115746,22.9971088],[120.2116146,22.9970518],[120.21172,22.9970226],[120.2118512,22.9969848],[120.2120278,22.9969658],[120.2120928,22.9969906],[120.2121649,22.9970622]]}},{"type":"Feature","properties":{"from":"\u5b89\u5de5\u5340","name":"\u7d05\u5e79\u7dda(\u5f80)","public_transport:version":"2","ref":"\u7d05\u5e79\u7dda","route":"bus","to":"\u95dc\u5edf","type":"route"},"geometry":{"type":"LineString","coordinates":[[120.2122133,22.9972959],[120.2122397,22.9974216],[120.2122751,22.997603]]}},{"type":"Feature","properties":{"from":"\u5b89\u5de5\u5340","name":"\u7d05\u5e79\u7dda(\u5f80)","public_transport:version":"2","ref":"\u7d05\u5e79\u7dda","route":"bus","to":"\u95dc\u5edf","type":"route"},"geometry":{"type":"LineString","coordinates":[[120.2122751,22.997603],[120.2119739,22.9975969],[120.2117832,22.9976462],[120.2115914,22.9976739],[120.2115028,22.9976448],[120.2114348,22.9976192],[120.2113762,22.9975758],[120.211274,22.9974909],[120.211253,22.9974282],[120.2112366,22.9973829]]}},{"type":"Feature","properties":{"from":"\u5b89\u5de5\u5340","name":"\u7d05\u5e79\u7dda(\u5f80)","public_transport:version":"2","ref":"\u7d05\u5e79\u7dda","route":"bus","to":"\u95dc\u5edf","type":"route"},"geometry":{"type":"LineString","coordinates":[[120.2112366,22.9973829],[120.2112224,22.9973263]]}},{"type":"Feature","properties":{"from":"\u5b89\u5de5\u5340","name":"\u7d05\u5e79\u7dda(\u5f80)","public_transport:version":"2","ref":"\u7d05\u5e79\u7dda","route":"bus","to":"\u95dc\u5edf","type":"route"},"geometry":{"type":"LineString","coordinates":[[120.2112224,22.9973263],[120.2112421,22.997198],[120.2112908,22.9970885],[120.2113768,22.9969836],[120.211457,22.9969172],[120.2115406,22.9968838]]}},{"type":"Feature","properties":{"from":"\u5b89\u5de5\u5340","name":"\u7d05\u5e79\u7dda(\u5f80)","public_transport:version":"2","ref":"\u7d05\u5e79\u7dda","route":"bus","to":"\u95dc\u5edf","type":"route"},"geometry":{"type":"LineString","coordinates":[[120.2115406,22.9968838],[120.2116717,22.9968407]]}},{"type":"Feature","properties":{"from":"\u5b89\u5de5\u5340","name":"\u7d05\u5e79\u7dda(\u5f80)","public_transport:version":"2","ref":"\u7d05\u5e79\u7dda","route":"bus","to":"\u95dc\u5edf","type":"route"},"geometry":{"type":"LineString","coordinates":[[120.212069,22.9968492],[120.2119223,22.996135],[120.2118625,22.9958398]]}},{"type":"Feature","properties":{"from":"\u5b89\u5de5\u5340","name":"\u7d05\u5e79\u7dda(\u5f80)","public_transport:version":"2","ref":"\u7d05\u5e79\u7dda","route":"bus","to":"\u95dc\u5edf","type":"route"},"geometry":{"type":"LineString","coordinates":[[120.2118625,22.9958398],[120.2118411,22.9954891],[120.2118313,22.9953285],[120.2118039,22.9949403],[120.2117877,22.9946151],[120.2117809,22.9945198]]}},{"type":"Feature","properties":{"from":"\u5b89\u5de5\u5340","name":"\u7d05\u5e79\u7dda(\u5f80)","public_transport:version":"2","ref":"\u7d05\u5e79\u7dda","route":"bus","to":"\u95dc\u5edf","type":"route"},"geometry":{"type":"LineString","coordinates":[[120.2117809,22.9945198],[120.2117742,22.9944291],[120.2116736,22.9927649],[120.2116447,22.9920019],[120.2116286,22.9915773],[120.2115663,22.9906427],[120.2115301,22.9901945],[120.2114925,22.9896056],[120.2114673,22.9893846]]}},{"type":"Feature","properties":{"from":"\u5b89\u5de5\u5340","name":"\u7d05\u5e79\u7dda(\u5f80)","public_transport:version":"2","ref":"\u7d05\u5e79\u7dda","route":"bus","to":"\u95dc\u5edf","type":"route"},"geometry":{"type":"LineString","coordinates":[[120.2114673,22.9893846],[120.2114479,22.9892629]]}},{"type":"Feature","properties":{"from":"\u5b89\u5de5\u5340","name":"\u7d05\u5e79\u7dda(\u5f80)","public_transport:version":"2","ref":"\u7d05\u5e79\u7dda","route":"bus","to":"\u95dc\u5edf","type":"route"},"geometry":{"type":"LineString","coordinates":[[120.2114479,22.9892629],[120.2113221,22.9892435],[120.2112517,22.9892148],[120.2111906,22.9891714],[120.2111269,22.9891195],[120.2110839,22.9890552],[120.2110613,22.9889862],[120.2110485,22.9889337]]}},{"type":"Feature","properties":{"from":"\u5b89\u5de5\u5340","name":"\u7d05\u5e79\u7dda(\u5f80)","public_transport:version":"2","ref":"\u7d05\u5e79\u7dda","route":"bus","to":"\u95dc\u5edf","type":"route"},"geometry":{"type":"LineString","coordinates":[[120.2110485,22.9889337],[120.2110624,22.9888337],[120.2110975,22.9887595],[120.2111587,22.9886925],[120.2112676,22.9886164],[120.2113752,22.9885835]]}},{"type":"Feature","properties":{"from":"\u5b89\u5de5\u5340","name":"\u7d05\u5e79\u7dda(\u5f80)","public_transport:version":"2","ref":"\u7d05\u5e79\u7dda","route":"bus","to":"\u95dc\u5edf","type":"route"},"geometry":{"type":"LineString","coordinates":[[120.2113752,22.9885835],[120.211526,22.9885638]]}},{"type":"Feature","properties":{"from":"\u5b89\u5de5\u5340","name":"\u7d05\u5e79\u7dda(\u5f80)","public_transport:version":"2","ref":"\u7d05\u5e79\u7dda","route":"bus","to":"\u95dc\u5edf","type":"route"},"geometry":{"type":"LineString","coordinates":[[120.211526,22.9885638],[120.211714,22.9886485],[120.2118149,22.9887259],[120.2119546,22.9887569]]}},{"type":"Feature","properties":{"from":"\u5b89\u5de5\u5340","name":"\u7d05\u5e79\u7dda(\u5f80)","public_transport:version":"2","ref":"\u7d05\u5e79\u7dda","route":"bus","to":"\u95dc\u5edf","type":"route"},"geometry":{"type":"LineString","coordinates":[[120.214839,22.987856],[120.2119546,22.9887569]]}},{"type":"Feature","properties":{"from":"\u5b89\u5de5\u5340","name":"\u7d05\u5e79\u7dda(\u5f80)","public_transport:version":"2","ref":"\u7d05\u5e79\u7dda","route":"bus","to":"\u95dc\u5edf","type":"route"},"geometry":{"type":"LineString","coordinates":[[120.2150675,22.9877934],[120.214839,22.987856]]}},{"type":"Feature","properties":{"from":"\u5b89\u5de5\u5340","name":"\u7d05\u5e79\u7dda(\u5f80)","public_transport:version":"2","ref":"\u7d05\u5e79\u7dda","route":"bus","to":"\u95dc\u5edf","type":"route"},"geometry":{"type":"LineString","coordinates":[[120.2150675,22.9877934],[120.2161524,22.9874526]]}},{"type":"Feature","properties":{"from":"\u5b89\u5de5\u5340","name":"\u7d05\u5e79\u7dda(\u5f80)","public_transport:version":"2","ref":"\u7d05\u5e79\u7dda","route":"bus","to":"\u95dc\u5edf","type":"route"},"geometry":{"type":"LineString","coordinates":[[120.2161524,22.9874526],[120.2163488,22.9873912],[120.2165858,22.9873172],[120.2169422,22.9872058]]}},{"type":"Feature","properties":{"from":"\u5b89\u5de5\u5340","name":"\u7d05\u5e79\u7dda(\u5f80)","public_transport:version":"2","ref":"\u7d05\u5e79\u7dda","route":"bus","to":"\u95dc\u5edf","type":"route"},"geometry":{"type":"LineString","coordinates":[[120.2169422,22.9872058],[120.2169285,22.9871162],[120.2169328,22.9870609],[120.2169688,22.9870075],[120.2170271,22.9869653],[120.2174278,22.9868317],[120.2177547,22.9867226],[120.2178174,22.9867093],[120.2178654,22.9867064],[120.217914,22.9867214],[120.2179743,22.9867591],[120.2180556,22.9868707]]}},{"type":"Feature","properties":{"from":"\u5b89\u5de5\u5340","name":"\u7d05\u5e79\u7dda(\u5f80)","public_transport:version":"2","ref":"\u7d05\u5e79\u7dda","route":"bus","to":"\u95dc\u5edf","type":"route"},"geometry":{"type":"LineString","coordinates":[[120.2180556,22.9868707],[120.2188104,22.9866471],[120.2188918,22.9866244]]}},{"type":"Feature","properties":{"from":"\u5b89\u5de5\u5340","name":"\u7d05\u5e79\u7dda(\u5f80)","public_transport:version":"2","ref":"\u7d05\u5e79\u7dda","route":"bus","to":"\u95dc\u5edf","type":"route"},"geometry":{"type":"LineString","coordinates":[[120.2188918,22.9866244],[120.2202188,22.9862039],[120.2215494,22.9857797],[120.2218527,22.985683],[120.2218858,22.9856725],[120.2221221,22.9855972],[120.2223648,22.9855198]]}},{"type":"Feature","properties":{"from":"\u5b89\u5de5\u5340","name":"\u7d05\u5e79\u7dda(\u5f80)","public_transport:version":"2","ref":"\u7d05\u5e79\u7dda","route":"bus","to":"\u95dc\u5edf","type":"route"},"geometry":{"type":"LineString","coordinates":[[120.2223648,22.9855198],[120.2225335,22.9854655]]}},{"type":"Feature","properties":{"from":"\u5b89\u5de5\u5340","name":"\u7d05\u5e79\u7dda(\u5f80)","public_transport:version":"2","ref":"\u7d05\u5e79\u7dda","route":"bus","to":"\u95dc\u5edf","type":"route"},"geometry":{"type":"LineString","coordinates":[[120.2225335,22.9854655],[120.2225885,22.9854478],[120.2227375,22.9853986],[120.2231739,22.9852544],[120.223631,22.9851032],[120.2243291,22.9848414]]}},{"type":"Feature","properties":{"from":"\u5b89\u5de5\u5340","name":"\u7d05\u5e79\u7dda(\u5f80)","public_transport:version":"2","ref":"\u7d05\u5e79\u7dda","route":"bus","to":"\u95dc\u5edf","type":"route"},"geometry":{"type":"LineString","coordinates":[[120.2243291,22.9848414],[120.224599,22.9846826],[120.2253438,22.9841326],[120.2257179,22.9838563],[120.2257545,22.9838293],[120.2259574,22.9836794],[120.2264832,22.9832911]]}},{"type":"Feature","properties":{"from":"\u5b89\u5de5\u5340","name":"\u7d05\u5e79\u7dda(\u5f80)","public_transport:version":"2","ref":"\u7d05\u5e79\u7dda","route":"bus","to":"\u95dc\u5edf","type":"route"},"geometry":{"type":"LineString","coordinates":[[120.2264832,22.9832911],[120.2265161,22.9831873],[120.2277863,22.982244],[120.2293437,22.981095],[120.2294462,22.9810283]]}},{"type":"Feature","properties":{"from":"\u5b89\u5de5\u5340","name":"\u7d05\u5e79\u7dda(\u5f80)","public_transport:version":"2","ref":"\u7d05\u5e79\u7dda","route":"bus","to":"\u95dc\u5edf","type":"route"},"geometry":{"type":"LineString","coordinates":[[120.2294462,22.9810283],[120.2295458,22.9809529],[120.2300923,22.9805383],[120.2303001,22.9803875],[120.2305484,22.9802125],[120.2314059,22.9795894],[120.2319188,22.979211],[120.2333591,22.9781233],[120.2343655,22.9774073],[120.2345393,22.9772837],[120.2357463,22.9763428],[120.236032,22.9761934],[120.2361607,22.976144],[120.2362653,22.9761119],[120.2366489,22.9759983],[120.2373479,22.9758518],[120.2376251,22.9757887],[120.2378217,22.9757109],[120.2380175,22.975565]]}},{"type":"Feature","properties":{"from":"\u5b89\u5de5\u5340","name":"\u7d05\u5e79\u7dda(\u5f80)","public_transport:version":"2","ref":"\u7d05\u5e79\u7dda","route":"bus","to":"\u95dc\u5edf","type":"route"},"geometry":{"type":"LineString","coordinates":[[120.2380175,22.975565],[120.2381166,22.9754713],[120.23828,22.9753193],[120.2385898,22.9750881],[120.238858,22.974958],[120.2392079,22.9748225],[120.23931,22.9747835],[120.2410553,22.9745115],[120.2411494,22.9744939],[120.2413602,22.9744544],[120.2415218,22.9744309],[120.241833,22.9743686],[120.2434848,22.9738629],[120.2439308,22.9737306],[120.2444866,22.9735548],[120.2445578,22.9735382],[120.2451349,22.9733757],[120.2477454,22.9725865],[120.2482057,22.9724567],[120.2483131,22.9724226],[120.2487455,22.9723018]]}},{"type":"Feature","properties":{"from":"\u5b89\u5de5\u5340","name":"\u7d05\u5e79\u7dda(\u5f80)","public_transport:version":"2","ref":"\u7d05\u5e79\u7dda","route":"bus","to":"\u95dc\u5edf","type":"route"},"geometry":{"type":"LineString","coordinates":[[120.2487455,22.9723018],[120.2490702,22.972213],[120.2491045,22.9722093]]}},{"type":"Feature","properties":{"from":"\u5b89\u5de5\u5340","name":"\u7d05\u5e79\u7dda(\u5f80)","public_transport:version":"2","ref":"\u7d05\u5e79\u7dda","route":"bus","to":"\u95dc\u5edf","type":"route"},"geometry":{"type":"LineString","coordinates":[[120.2491045,22.9722093],[120.2496314,22.9720595]]}},{"type":"Feature","properties":{"from":"\u5b89\u5de5\u5340","name":"\u7d05\u5e79\u7dda(\u5f80)","public_transport:version":"2","ref":"\u7d05\u5e79\u7dda","route":"bus","to":"\u95dc\u5edf","type":"route"},"geometry":{"type":"LineString","coordinates":[[120.2496314,22.9720595],[120.2498548,22.9719932],[120.2501473,22.9718958],[120.2505768,22.9717666],[120.2508119,22.9716811],[120.2512421,22.971592],[120.2516371,22.9715433]]}},{"type":"Feature","properties":{"from":"\u5b89\u5de5\u5340","name":"\u7d05\u5e79\u7dda(\u5f80)","public_transport:version":"2","ref":"\u7d05\u5e79\u7dda","route":"bus","to":"\u95dc\u5edf","type":"route"},"geometry":{"type":"LineString","coordinates":[[120.2516371,22.9715433],[120.2525191,22.9714441],[120.2532127,22.9713734],[120.2542036,22.9712462],[120.2543438,22.9712282],[120.2544352,22.9712178],[120.2553266,22.9711164],[120.2559561,22.9710573],[120.2594438,22.9706653],[120.2601126,22.9706133],[120.2618353,22.9704175],[120.2628867,22.9702942],[120.2639087,22.9701523],[120.2656888,22.9699725],[120.2664332,22.9698848],[120.2681441,22.9696948],[120.2688387,22.9696113],[120.2692116,22.9695619],[120.2709081,22.9693563],[120.2715365,22.9693009]]}},{"type":"Feature","properties":{"from":"\u5b89\u5de5\u5340","name":"\u7d05\u5e79\u7dda(\u5f80)","public_transport:version":"2","ref":"\u7d05\u5e79\u7dda","route":"bus","to":"\u95dc\u5edf","type":"route"},"geometry":{"type":"LineString","coordinates":[[120.2715365,22.9693009],[120.2719244,22.9692453]]}},{"type":"Feature","properties":{"from":"\u5b89\u5de5\u5340","name":"\u7d05\u5e79\u7dda(\u5f80)","public_transport:version":"2","ref":"\u7d05\u5e79\u7dda","route":"bus","to":"\u95dc\u5edf","type":"route"},"geometry":{"type":"LineString","coordinates":[[120.2719244,22.9692453],[120.272186,22.9692064]]}},{"type":"Feature","properties":{"from":"\u5b89\u5de5\u5340","name":"\u7d05\u5e79\u7dda(\u5f80)","public_transport:version":"2","ref":"\u7d05\u5e79\u7dda","route":"bus","to":"\u95dc\u5edf","type":"route"},"geometry":{"type":"LineString","coordinates":[[120.272186,22.9692064],[120.2725408,22.9691662],[120.2752264,22.9688621],[120.2764985,22.9687181],[120.2776487,22.9685879],[120.2796239,22.9683642],[120.2810049,22.9682078],[120.2825242,22.9680358],[120.2831239,22.9679679],[120.2840545,22.9678625],[120.2842185,22.9678439],[120.286016,22.9676404],[120.2864893,22.9675868],[120.2878871,22.9674285]]}},{"type":"Feature","properties":{"from":"\u5b89\u5de5\u5340","name":"\u7d05\u5e79\u7dda(\u5f80)","public_transport:version":"2","ref":"\u7d05\u5e79\u7dda","route":"bus","to":"\u95dc\u5edf","type":"route"},"geometry":{"type":"LineString","coordinates":[[120.2878871,22.9674285],[120.2887142,22.9673349],[120.2890449,22.9672974],[120.2900391,22.9671849],[120.2901931,22.9671674],[120.2907215,22.9671076],[120.2922333,22.9669364],[120.2928851,22.9668626],[120.2939859,22.9667379]]}},{"type":"Feature","properties":{"from":"\u5b89\u5de5\u5340","name":"\u7d05\u5e79\u7dda(\u5f80)","public_transport:version":"2","ref":"\u7d05\u5e79\u7dda","route":"bus","to":"\u95dc\u5edf","type":"route"},"geometry":{"type":"LineString","coordinates":[[120.293992,22.9667946],[120.2939859,22.9667379],[120.2939934,22.9666764],[120.2940152,22.9666178],[120.2940502,22.9665649],[120.2940969,22.9665202],[120.2941529,22.9664859],[120.2942157,22.9664636],[120.2942852,22.9664542],[120.2943552,22.9664595],[120.2944222,22.9664792],[120.2944825,22.9665123],[120.2945332,22.9665571],[120.2945716,22.9666114],[120.2945957,22.9666721],[120.294604,22.9667288],[120.2945999,22.9667859],[120.2945903,22.9668232],[120.2945753,22.9668589],[120.2945552,22.9668925],[120.2945303,22.9669233],[120.2945012,22.9669508],[120.2944684,22.9669744],[120.2944324,22.9669937],[120.2943939,22.9670084],[120.2943536,22.9670182],[120.2943013,22.9670232],[120.2942488,22.9670201],[120.2941977,22.9670088],[120.2941493,22.9669897],[120.2941052,22.9669633],[120.2940666,22.9669304],[120.2940346,22.966892],[120.2940101,22.9668491],[120.293992,22.9667946]]}},{"type":"Feature","properties":{"from":"\u5b89\u5de5\u5340","name":"\u7d05\u5e79\u7dda(\u5f80)","public_transport:version":"2","ref":"\u7d05\u5e79\u7dda","route":"bus","to":"\u95dc\u5edf","type":"route"},"geometry":{"type":"LineString","coordinates":[[120.2945957,22.9666721],[120.2961704,22.9664508],[120.2963382,22.9664287]]}},{"type":"Feature","properties":{"from":"\u5b89\u5de5\u5340","name":"\u7d05\u5e79\u7dda(\u5f80)","public_transport:version":"2","ref":"\u7d05\u5e79\u7dda","route":"bus","to":"\u95dc\u5edf","type":"route"},"geometry":{"type":"LineString","coordinates":[[120.2963382,22.9664287],[120.2971518,22.9663424],[120.2974559,22.9663101],[120.2977815,22.9662756],[120.3005538,22.9659815],[120.3010319,22.965924],[120.3017544,22.9658372],[120.3023435,22.9657664],[120.3028552,22.9657049]]}},{"type":"Feature","properties":{"from":"\u5b89\u5de5\u5340","name":"\u7d05\u5e79\u7dda(\u5f80)","public_transport:version":"2","ref":"\u7d05\u5e79\u7dda","route":"bus","to":"\u95dc\u5edf","type":"route"},"geometry":{"type":"LineString","coordinates":[[120.3028552,22.9657049],[120.3031282,22.9656248],[120.3037259,22.9654518],[120.3040928,22.9653456],[120.308495,22.9640323],[120.3086714,22.9639752],[120.3092309,22.9638323],[120.3095885,22.9637233],[120.3098294,22.963657],[120.3100685,22.9635915],[120.310653,22.9634278],[120.3113999,22.9632031],[120.3130733,22.9627097],[120.3136908,22.9625483]]}},{"type":"Feature","properties":{"from":"\u5b89\u5de5\u5340","name":"\u7d05\u5e79\u7dda(\u5f80)","public_transport:version":"2","ref":"\u7d05\u5e79\u7dda","route":"bus","to":"\u95dc\u5edf","type":"route"},"geometry":{"type":"LineString","coordinates":[[120.3136908,22.9625483],[120.3149703,22.9622138],[120.3161156,22.9619689],[120.3186656,22.9615111],[120.3219329,22.9609236],[120.3238185,22.9605723],[120.3240411,22.9605569]]}},{"type":"Feature","properties":{"from":"\u5b89\u5de5\u5340","name":"\u7d05\u5e79\u7dda(\u5f80)","public_transport:version":"2","ref":"\u7d05\u5e79\u7dda","route":"bus","to":"\u95dc\u5edf","type":"route"},"geometry":{"type":"LineString","coordinates":[[120.3249927,22.9604061],[120.3248319,22.9604418],[120.3240411,22.9605569]]}},{"type":"Feature","properties":{"from":"\u5b89\u5de5\u5340","name":"\u7d05\u5e79\u7dda(\u5f80)","public_transport:version":"2","ref":"\u7d05\u5e79\u7dda","route":"bus","to":"\u95dc\u5edf","type":"route"},"geometry":{"type":"LineString","coordinates":[[120.3260302,22.9602204],[120.3253322,22.9603405],[120.3249927,22.9604061]]}},{"type":"Feature","properties":{"from":"\u5b89\u5de5\u5340","name":"\u7d05\u5e79\u7dda(\u5f80)","public_transport:version":"2","ref":"\u7d05\u5e79\u7dda","route":"bus","to":"\u95dc\u5edf","type":"route"},"geometry":{"type":"LineString","coordinates":[[120.3268571,22.9600705],[120.3265416,22.9601353],[120.3261864,22.9601873],[120.3260302,22.9602204]]}},{"type":"Feature","properties":{"from":"\u5b89\u5de5\u5340","name":"\u7d05\u5e79\u7dda(\u5f80)","public_transport:version":"2","ref":"\u7d05\u5e79\u7dda","route":"bus","to":"\u95dc\u5edf","type":"route"},"geometry":{"type":"LineString","coordinates":[[120.3278794,22.9598795],[120.3272239,22.960002],[120.3268571,22.9600705]]}},{"type":"Feature","properties":{"from":"\u5b89\u5de5\u5340","name":"\u7d05\u5e79\u7dda(\u5f80)","public_transport:version":"2","ref":"\u7d05\u5e79\u7dda","route":"bus","to":"\u95dc\u5edf","type":"route"},"geometry":{"type":"LineString","coordinates":[[120.3278794,22.9598795],[120.3280094,22.9604722],[120.3281248,22.9609045],[120.3282267,22.9613181],[120.3283233,22.9617145],[120.3284114,22.9621019],[120.3284855,22.9625159]]}},{"type":"Feature","properties":{"from":"\u5b89\u5de5\u5340","name":"\u7d05\u5e79\u7dda(\u5f80)","public_transport:version":"2","ref":"\u7d05\u5e79\u7dda","route":"bus","to":"\u95dc\u5edf","type":"route"},"geometry":{"type":"LineString","coordinates":[[120.3310423,22.9617802],[120.3306946,22.9618846],[120.3302583,22.9620169],[120.3296646,22.962194],[120.3293209,22.962287],[120.3284855,22.9625159]]}},{"type":"Feature","properties":{"from":"\u5b89\u5de5\u5340","name":"\u7d05\u5e79\u7dda(\u5f80)","public_transport:version":"2","ref":"\u7d05\u5e79\u7dda","route":"bus","to":"\u95dc\u5edf","type":"route"},"geometry":{"type":"LineString","coordinates":[[120.3350244,22.9633569],[120.334839,22.9632757],[120.3335667,22.9627519],[120.3328159,22.9624545],[120.3326283,22.962378],[120.3320109,22.9621191],[120.3312014,22.9618044],[120.3311222,22.961783],[120.3310423,22.9617802]]}},{"type":"Feature","properties":{"from":"\u5b89\u5de5\u5340","name":"\u7d05\u5e79\u7dda(\u5f80)","public_transport:version":"2","ref":"\u7d05\u5e79\u7dda","route":"bus","to":"\u95dc\u5edf","type":"route"},"geometry":{"type":"LineString","coordinates":[[120.3370938,22.9633695],[120.3369477,22.9633955],[120.3357288,22.9635937],[120.3356182,22.9635788],[120.3352902,22.9634662],[120.3350244,22.9633569]]}},{"type":"Feature","properties":{"from":"\u5b89\u5de5\u5340","name":"\u7d05\u5e79\u7dda(\u5f80)","public_transport:version":"2","ref":"\u7d05\u5e79\u7dda","route":"bus","to":"\u95dc\u5edf","type":"route"},"geometry":{"type":"LineString","coordinates":[[120.3374926,22.963346],[120.3372735,22.9633533],[120.3370938,22.9633695]]}},{"type":"Feature","properties":{"from":"\u5b89\u5de5\u5340","name":"\u7d05\u5e79\u7dda(\u5f80)","public_transport:version":"2","ref":"\u7d05\u5e79\u7dda","route":"bus","to":"\u95dc\u5edf","type":"route"},"geometry":{"type":"LineString","coordinates":[[120.3370938,22.9633695],[120.3371338,22.9634482],[120.33717,22.9635173],[120.3372129,22.9635519],[120.3373631,22.9635334],[120.3374128,22.963484],[120.3374926,22.963346]]}},{"type":"Feature","properties":{"bus":"yes","highway":"bus_stop","name":"\u95dc\u5edf\u8f49\u904b\u7ad9","network":"\u81fa\u5357\u5e02\u516c\u8eca","note":"\u8fd4\u7a0b","operator":"\u81fa\u5357\u5e02\u516c\u8eca","public_transport":"platform","ref":"3347"},"geometry":{"type":"Point","coordinates":[120.3372556,22.9636506]}},{"type":"Feature","properties":{"bus":"yes","highway":"bus_stop","name":"\u82b1\u5712","network":"\u81fa\u5357\u5e02\u516c\u8eca","note":"\u8208\u5357\u5ba2\u904b","operator":"\u81fa\u5357\u5e02\u516c\u8eca","public_transport":"platform","ref":"3348"},"geometry":{"type":"Point","coordinates":[120.3342859,22.9631737]}},{"type":"Feature","properties":{"bus":"yes","highway":"bus_stop","name":"\u5317\u52e2\u91cc","network":"\u81fa\u5357\u5e02\u516c\u8eca","note":"\u8208\u5357\u5ba2\u904b","operator":"\u81fa\u5357\u5e02\u516c\u8eca","public_transport":"platform","ref":"3349"},"geometry":{"type":"Point","coordinates":[120.3313707,22.961975]}},{"type":"Feature","properties":{"bus":"yes","highway":"bus_stop","name":"\u95dc\u5edf\u5e02\u5834","network":"\u81fa\u5357\u5e02\u516c\u8eca","note":"\u8208\u5357\u5ba2\u904b","operator":"\u81fa\u5357\u5e02\u516c\u8eca","public_transport":"platform","ref":"3350"},"geometry":{"type":"Point","coordinates":[120.3282731,22.961973]}},{"type":"Feature","properties":{"bus":"yes","highway":"bus_stop","name":"\u95dc\u5edf\u570b\u4e2d","network":"\u81fa\u5357\u5e02\u516c\u8eca","note":"\u8208\u5357\u5ba2\u904b","operator":"\u81fa\u5357\u5e02\u516c\u8eca","public_transport":"platform","ref":"1534"},"geometry":{"type":"Point","coordinates":[120.3249486,22.9605263]}},{"type":"Feature","properties":{"bus":"yes","highway":"bus_stop","name":"\u5927\u4e9e\u516c\u53f8","network":"\u81fa\u5357\u5e02\u516c\u8eca","note":"\u8208\u5357\u5ba2\u904b","operator":"\u81fa\u5357\u5e02\u516c\u8eca","public_transport":"platform"},"geometry":{"type":"Point","coordinates":[120.3170077,22.9618912]}},{"type":"Feature","properties":{"bus":"yes","highway":"bus_stop","name":"\u6b78\u4ec1\u4ea4\u6d41\u9053","network":"\u81fa\u5357\u5e02\u516c\u8eca","note":"\u8208\u5357\u5ba2\u904b","operator":"\u81fa\u5357\u5e02\u516c\u8eca","public_transport":"platform"},"geometry":{"type":"Point","coordinates":[120.3127512,22.9629167]}},{"type":"Feature","properties":{"bus":"yes","highway":"bus_stop","name":"\u4fee\u5143\u5802","network":"\u81fa\u5357\u5e02\u516c\u8eca","note":"\u8208\u5357\u5ba2\u904b","operator":"\u81fa\u5357\u5e02\u516c\u8eca","public_transport":"platform"},"geometry":{"type":"Point","coordinates":[120.30706,22.9645641]}},{"type":"Feature","properties":{"bus":"yes","highway":"bus_stop","name":"\u770b\u6771\u91cc","network":"\u81fa\u5357\u5e02\u516c\u8eca","note":"\u8208\u5357\u5ba2\u904b","operator":"\u81fa\u5357\u5e02\u516c\u8eca","public_transport":"platform"},"geometry":{"type":"Point","coordinates":[120.3036817,22.9656217]}},{"type":"Feature","properties":{"bus":"yes","highway":"bus_stop","name":"\u5584\u5316\u5bfa","network":"\u81fa\u5357\u5e02\u516c\u8eca","note":"\u8208\u5357\u5ba2\u904b","operator":"\u81fa\u5357\u5e02\u516c\u8eca","public_transport":"platform"},"geometry":{"type":"Point","coordinates":[120.300945,22.9660644]}},{"type":"Feature","properties":{"bus":"yes","highway":"bus_stop","name":"\u6b78\u4ec1\u6587\u5316\u4e2d\u5fc3","network":"\u81fa\u5357\u5e02\u516c\u8eca","operator":"\u81fa\u5357\u5e02\u516c\u8eca","public_transport":"platform","ref":"8943"},"geometry":{"type":"Point","coordinates":[120.298284,22.9663629]}},{"type":"Feature","properties":{"bus":"yes","highway":"bus_stop","name":"\u6b78\u4ec1\u5e02\u5834","network":"\u81fa\u5357\u5e02\u516c\u8eca","operator":"\u81fa\u5357\u5e02\u516c\u8eca","public_transport":"platform"},"geometry":{"type":"Point","coordinates":[120.296024,22.9666465]}},{"type":"Feature","properties":{"bus":"yes","highway":"bus_stop","name":"\u6b78\u4ec1\u516c\u6240","name:en":"Gueiren District Office","name:zh":"\u6b78\u4ec1\u516c\u6240","network":"\u81fa\u5357\u5e02\u516c\u8eca","operator":"\u81fa\u5357\u5e02\u516c\u8eca","public_transport":"platform","ref":"1541"},"geometry":{"type":"Point","coordinates":[120.2936278,22.9669047]}},{"type":"Feature","properties":{"bus":"yes","highway":"bus_stop","name":"\u5f8c\u5e02","network":"\u81fa\u5357\u5e02\u516c\u8eca","note":"\u8208\u5357\u5ba2\u904b","operator":"\u81fa\u5357\u5e02\u516c\u8eca","public_transport":"platform"},"geometry":{"type":"Point","coordinates":[120.2892983,22.96734]}},{"type":"Feature","properties":{"bus":"yes","highway":"bus_stop","name":"\u59d3\u674e\u4ed4","network":"\u81fa\u5357\u5e02\u516c\u8eca","note":"\u8208\u5357\u5ba2\u904b","operator":"\u81fa\u5357\u5e02\u516c\u8eca","public_transport":"platform"},"geometry":{"type":"Point","coordinates":[120.2853897,22.9677986]}},{"type":"Feature","properties":{"bus":"yes","highway":"bus_stop","name":"\u5357\u4fdd","network":"\u81fa\u5357\u5e02\u516c\u8eca","note":"\u8208\u5357\u5ba2\u904b","operator":"\u81fa\u5357\u5e02\u516c\u8eca","public_transport":"platform"},"geometry":{"type":"Point","coordinates":[120.2815364,22.9682718]}},{"type":"Feature","properties":{"bus":"yes","highway":"bus_stop","name":"\u5357\u8208\u91cc","network":"\u81fa\u5357\u5e02\u516c\u8eca","note":"\u8208\u5357\u5ba2\u904b","operator":"\u81fa\u5357\u5e02\u516c\u8eca","public_transport":"platform"},"geometry":{"type":"Point","coordinates":[120.2775011,22.9687446]}},{"type":"Feature","properties":{"bus":"yes","highway":"bus_stop","name":"\u4e0a\u5e1d\u5edf","network":"\u81fa\u5357\u5e02\u516c\u8eca","note":"\u8208\u5357\u5ba2\u904b","operator":"\u81fa\u5357\u5e02\u516c\u8eca","public_transport":"platform"},"geometry":{"type":"Point","coordinates":[120.2738563,22.9691655]}},{"type":"Feature","properties":{"bus":"yes","highway":"bus_stop","name":"\u8c9d\u6c5d\u6d41\u901a","network":"\u81fa\u5357\u5e02\u516c\u8eca","note":"\u8208\u5357\u5ba2\u904b","operator":"\u81fa\u5357\u5e02\u516c\u8eca","public_transport":"platform"},"geometry":{"type":"Point","coordinates":[120.2704866,22.9695804]}},{"type":"Feature","properties":{"bus":"yes","highway":"bus_stop","name":"\u6797\u4ed4","network":"\u81fa\u5357\u5e02\u516c\u8eca","note":"\u8208\u5357\u5ba2\u904b","operator":"\u81fa\u5357\u5e02\u516c\u8eca","public_transport":"platform"},"geometry":{"type":"Point","coordinates":[120.2651931,22.970176]}},{"type":"Feature","properties":{"bus":"yes","highway":"bus_stop","name":"\u7fa9\u6797\u4e00\u8857\u53e3","network":"\u81fa\u5357\u5e02\u516c\u8eca","note":"\u8208\u5357\u5ba2\u904b","operator":"\u81fa\u5357\u5e02\u516c\u8eca","public_transport":"platform","ref":"8379"},"geometry":{"type":"Point","coordinates":[120.2620738,22.9705294]}},{"type":"Feature","properties":{"bus":"yes","highway":"bus_stop","name":"\u6148\u6fdf\u53f0\u5357\u5206\u6703","network":"\u81fa\u5357\u5e02\u516c\u8eca","note":"\u8208\u5357\u5ba2\u904b","operator":"\u81fa\u5357\u5e02\u516c\u8eca","public_transport":"platform"},"geometry":{"type":"Point","coordinates":[120.2603536,22.9707171]}},{"type":"Feature","properties":{"bus":"yes","highway":"bus_stop","name":"\u937e\u539d","network":"\u81fa\u5357\u5e02\u516c\u8eca","operator":"\u81fa\u5357\u5e02\u516c\u8eca","public_transport":"platform","ref":"1551"},"geometry":{"type":"Point","coordinates":[120.2580227,22.9709913]}},{"type":"Feature","properties":{"bus":"yes","highway":"bus_stop","name":"\u4ec1\u7fa9\u91cc","network":"\u81fa\u5357\u5e02\u516c\u8eca","note":"\u8208\u5357\u5ba2\u904b","operator":"\u81fa\u5357\u5e02\u516c\u8eca","public_transport":"platform"},"geometry":{"type":"Point","coordinates":[120.2556242,22.9712642]}},{"type":"Feature","properties":{"bus":"yes","highway":"bus_stop","name":"\u4ec1\u5fb7","network":"\u81fa\u5357\u5e02\u516c\u8eca","note":"\u8208\u5357\u5ba2\u904b","operator":"\u81fa\u5357\u5e02\u516c\u8eca","public_transport":"platform"},"geometry":{"type":"Point","coordinates":[120.2521151,22.9716466]}},{"type":"Feature","properties":{"bus":"yes","highway":"bus_stop","name":"\u4ec1\u5fb7\u4ea4\u6d41\u9053","network":"\u81fa\u5357\u5e02\u516c\u8eca","note":"\u8208\u5357\u5ba2\u904b","operator":"\u81fa\u5357\u5e02\u516c\u8eca","public_transport":"platform"},"geometry":{"type":"Point","coordinates":[120.2462124,22.9732177]}},{"type":"Feature","properties":{"bus":"yes","highway":"bus_stop","name":"\u5609\u5357\u7642\u990a\u9662","network":"\u81fa\u5357\u5e02\u516c\u8eca","note":"\u8208\u5357\u5ba2\u904b","operator":"\u81fa\u5357\u5e02\u516c\u8eca","public_transport":"platform"},"geometry":{"type":"Point","coordinates":[120.2413911,22.9746243]}},{"type":"Feature","properties":{"bus":"yes","highway":"bus_stop","name":"\u5d01\u8173","network":"\u81fa\u5357\u5e02\u516c\u8eca","note":"\u8208\u5357\u5ba2\u904b","operator":"\u81fa\u5357\u5e02\u516c\u8eca","public_transport":"platform"},"geometry":{"type":"Point","coordinates":[120.2380393,22.9757839]}},{"type":"Feature","properties":{"bus":"yes","highway":"bus_stop","name":"\u5bcc\u8fb2\u8857\u53e3","network":"\u81fa\u5357\u5e02\u516c\u8eca","note":"\u8208\u5357\u5ba2\u904b","operator":"\u81fa\u5357\u5e02\u516c\u8eca","public_transport":"platform"},"geometry":{"type":"Point","coordinates":[120.2339259,22.977879]}},{"type":"Feature","properties":{"bus":"yes","highway":"bus_stop","name":"\u864e\u5c3e\u5bee","network":"\u81fa\u5357\u5e02\u516c\u8eca","note":"\u8208\u5357\u5ba2\u904b","operator":"\u81fa\u5357\u5e02\u516c\u8eca","public_transport":"platform"},"geometry":{"type":"Point","coordinates":[120.2309361,22.9800581]}},{"type":"Feature","properties":{"bus":"yes","highway":"bus_stop","name":"\u6771\u9580\u8def","network":"\u81fa\u5357\u5e02\u516c\u8eca","note":"\u8208\u5357\u5ba2\u904b","operator":"\u81fa\u5357\u5e02\u516c\u8eca","public_transport":"platform"},"geometry":{"type":"Point","coordinates":[120.228865,22.981674]}},{"type":"Feature","properties":{"bus":"yes","highway":"bus_stop","name":"\u5bcc\u5f37\u5e02\u5834","network":"\u81fa\u5357\u5e02\u516c\u8eca","note":"\u8208\u5357\u5ba2\u904b","operator":"\u81fa\u5357\u5e02\u516c\u8eca","public_transport":"platform"},"geometry":{"type":"Point","coordinates":[120.227429,22.9827003]}},{"type":"Feature","properties":{"bus":"yes","highway":"bus_stop","name":"\u9f8d\u5c71\u5bfa","network":"\u81fa\u5357\u5e02\u516c\u8eca","operator":"\u81fa\u5357\u5e02\u516c\u8eca","public_transport":"platform"},"geometry":{"type":"Point","coordinates":[120.2212718,22.9859388]}},{"type":"Feature","properties":{"bus":"yes","highway":"bus_stop","name":"\u6771\u9580\u57ce","network":"\u81fa\u5357\u5e02\u516c\u8eca","operator":"\u81fa\u5357\u5e02\u516c\u8eca","public_transport":"platform"},"geometry":{"type":"Point","coordinates":[120.2184879,22.9868144]}},{"type":"Feature","properties":{"bus":"yes","highway":"bus_stop","name":"\u6771\u9580\u6559\u6703","network":"\u81fa\u5357\u5e02\u516c\u8eca","note":"\u8208\u5357\u5ba2\u904b","operator":"\u81fa\u5357\u5e02\u516c\u8eca","public_transport":"platform"},"geometry":{"type":"Point","coordinates":[120.2156364,22.9876592]}},{"type":"Feature","properties":{"bus":"yes","highway":"bus_stop","name":"\u6771\u9580\u5713\u74b0","network":"\u81fa\u5357\u5e02\u516c\u8eca","operator":"\u81fa\u5357\u5e02\u516c\u8eca","public_transport":"platform"},"geometry":{"type":"Point","coordinates":[120.2115612,22.9907596]}},{"type":"Feature","properties":{"bench":"no","bus":"yes","highway":"bus_stop","name":"\u7e23\u77e5\u4e8b\u5b98\u90b8","network":"\u81fa\u5357\u5e02\u516c\u8eca","operator":"\u81fa\u5357\u5e02\u516c\u8eca","public_transport":"platform","ref":"0319","shelter":"no"},"geometry":{"type":"Point","coordinates":[120.2117513,22.9934975]}},{"type":"Feature","properties":{"bench":"yes","bus":"yes","highway":"bus_stop","name":"\u81fa\u5357\u706b\u8eca\u7ad9(\u5357\u7ad9)","network":"\u81fa\u5357\u5e02\u516c\u8eca","note":"\u8208\u5357\u5ba2\u904b","operator":"\u81fa\u5357\u5e02\u516c\u8eca","public_transport":"platform","ref":"9211","shelter":"yes"},"geometry":{"type":"Point","coordinates":[120.2111399,22.9972139]}},{"type":"Feature","properties":{"bus":"yes","highway":"bus_stop","name":"\u4e2d\u5c71\u3001\u6c11\u6b0a\u8def\u53e3","network":"\u81fa\u5357\u5e02\u516c\u8eca","operator":"\u81fa\u5357\u5e02\u516c\u8eca","public_transport":"platform"},"geometry":{"type":"Point","coordinates":[120.2068438,22.9938424]}},{"type":"Feature","properties":{"bus":"yes","highway":"bus_stop","name":"\u6797\u767e\u8ca8(\u4e2d\u6b63\u8def)","network":"\u81fa\u5357\u5e02\u516c\u8eca","operator":"\u81fa\u5357\u5e02\u516c\u8eca","public_transport":"platform"},"geometry":{"type":"Point","coordinates":[120.2021701,22.9921003]}},{"type":"Feature","properties":{"bus":"yes","highway":"bus_stop","name":"\u4e2d\u6b63\u3001\u897f\u9580\u8def\u53e3","network":"\u81fa\u5357\u5e02\u516c\u8eca","operator":"\u81fa\u5357\u5e02\u516c\u8eca","public_transport":"platform"},"geometry":{"type":"Point","coordinates":[120.1996509,22.9926544]}},{"type":"Feature","properties":{"bus":"yes","highway":"bus_stop","name":"\u897f\u9580\u3001\u53cb\u611b\u8857\u53e3","network":"\u81fa\u5357\u5e02\u516c\u8eca","operator":"\u81fa\u5357\u5e02\u516c\u8eca","public_transport":"platform"},"geometry":{"type":"Point","coordinates":[120.1982036,22.9920251]}},{"type":"Feature","properties":{"bench":"no","bus":"yes","highway":"bus_stop","name":"\u5c0f\u897f\u9580(\u5927\u5104\u9e97\u7dfb)","network":"\u81fa\u5357\u5e02\u516c\u8eca","operator":"\u81fa\u5357\u5e02\u516c\u8eca","public_transport":"platform","ref":"9204","shelter":"no"},"geometry":{"type":"Point","coordinates":[120.1973597,22.9887145]}},{"type":"Feature","properties":{"bench":"no","bus":"yes","highway":"bus_stop","name":"\u65b0\u5149\u4e09\u8d8a\u65b0\u5929\u5730","network":"\u81fa\u5357\u5e02\u516c\u8eca","operator":"\u81fa\u5357\u5e02\u516c\u8eca","public_transport":"platform","ref":"9282","shelter":"no"},"geometry":{"type":"Point","coordinates":[120.1974443,22.9865576]}},{"type":"Feature","properties":{"bench":"no","bus":"yes","highway":"bus_stop","name":"\u53f0\u5357\u7ad9","network":"\u81fa\u5357\u5e02\u516c\u8eca","operator":"\u81fa\u5357\u5e02\u516c\u8eca","public_transport":"platform","ref":"9284","shelter":"no"},"geometry":{"type":"Point","coordinates":[120.1974862,22.982116]}},{"type":"Feature","properties":{"bus":"yes","highway":"bus_stop","name":"\u65b0\u8208\u570b\u5c0f","network":"\u81fa\u5357\u5e02\u516c\u8eca","operator":"\u81fa\u5357\u5e02\u516c\u8eca","public_transport":"platform"},"geometry":{"type":"Point","coordinates":[120.196002,22.9789106]}},{"type":"Feature","properties":{"bench":"no","bus":"yes","highway":"bus_stop","name":"\u7530\u5bee\u91cc","network":"\u81fa\u5357\u5e02\u516c\u8eca","operator":"\u81fa\u5357\u5e02\u516c\u8eca","public_transport":"platform","shelter":"no"},"geometry":{"type":"Point","coordinates":[120.1951511,22.9769104]}},{"type":"Feature","properties":{"bus":"yes","highway":"bus_stop","name":"\u5e9c\u5357\u91cc","network":"\u81fa\u5357\u5e02\u516c\u8eca","operator":"\u81fa\u5357\u5e02\u516c\u8eca","public_transport":"platform"},"geometry":{"type":"Point","coordinates":[120.1952503,22.9744052]}},{"type":"Feature","properties":{"bus":"yes","highway":"bus_stop","name":"\u6c38\u6210\u8def\u4e09\u6bb5","network":"\u81fa\u5357\u5e02\u516c\u8eca","operator":"\u81fa\u5357\u5e02\u516c\u8eca","public_transport":"platform"},"geometry":{"type":"Point","coordinates":[120.1952661,22.9722225]}},{"type":"Feature","properties":{"bus":"yes","highway":"bus_stop","name":"\u90e1\u5357\u91cc","network":"\u81fa\u5357\u5e02\u516c\u8eca","operator":"\u81fa\u5357\u5e02\u516c\u8eca","public_transport":"platform"},"geometry":{"type":"Point","coordinates":[120.195277,22.9666621]}},{"type":"Feature","properties":{"bus":"yes","highway":"bus_stop","name":"\u81f3\u5584\u6a4b","network":"\u81fa\u5357\u5e02\u516c\u8eca","operator":"\u81fa\u5357\u5e02\u516c\u8eca","public_transport":"platform"},"geometry":{"type":"Point","coordinates":[120.1953502,22.9636563]}},{"type":"Feature","properties":{"bus":"yes","highway":"bus_stop","name":"\u5fb7\u8208\u8def\u53e3","network":"\u81fa\u5357\u5e02\u516c\u8eca","operator":"\u81fa\u5357\u5e02\u516c\u8eca","public_transport":"platform"},"geometry":{"type":"Point","coordinates":[120.1923385,22.9618544]}},{"type":"Feature","properties":{"bench":"yes","bus":"yes","highway":"bus_stop","name":"\u65b0\u8208\u570b\u5b85","network":"\u81fa\u5357\u5e02\u516c\u8eca","operator":"\u81fa\u5357\u5e02\u516c\u8eca","public_transport":"platform","shelter":"no"},"geometry":{"type":"Point","coordinates":[120.1872975,22.9617576]}},{"type":"Feature","properties":{"bus":"yes","highway":"bus_stop","name":"\u4e2d\u83ef\u5357\u8def\u4e8c\u6bb5","network":"\u81fa\u5357\u5e02\u516c\u8eca","operator":"\u81fa\u5357\u5e02\u516c\u8eca","public_transport":"platform"},"geometry":{"type":"Point","coordinates":[120.1855644,22.9618123]}},{"type":"Feature","properties":{"bus":"yes","highway":"bus_stop","name":"\u958b\u5357\u516c\u5712","network":"\u81fa\u5357\u5e02\u516c\u8eca","operator":"\u81fa\u5357\u5e02\u516c\u8eca","public_transport":"platform"},"geometry":{"type":"Point","coordinates":[120.1838662,22.9656665]}},{"type":"Feature","properties":{"bus":"yes","highway":"bus_stop","name":"\u71d5\u7aa9\u89c0\u5149\u5de5\u5ee0","network":"\u81fa\u5357\u5e02\u516c\u8eca","operator":"\u81fa\u5357\u5e02\u516c\u8eca","public_transport":"platform"},"geometry":{"type":"Point","coordinates":[120.1770506,22.9673996]}},{"type":"Feature","properties":{"bus":"yes","highway":"bus_stop","name":"\u5b89\u5e73\u5de5\u696d\u5340","network":"\u81fa\u5357\u5e02\u516c\u8eca","operator":"\u81fa\u5357\u5e02\u516c\u8eca","public_transport":"platform"},"geometry":{"type":"Point","coordinates":[120.1742274,22.9687956]}},{"type":"Feature","properties":{"from":"\u95dc\u5edf","name":"\u7d05\u5e79\u7dda(\u8fd4)","public_transport:version":"2","ref":"\u7d05\u5e79\u7dda","route":"bus","to":"\u5b89\u5de5\u5340","type":"route"},"geometry":{"type":"LineString","coordinates":[[120.3370938,22.9633695],[120.3371338,22.9634482],[120.33717,22.9635173],[120.3372129,22.9635519],[120.3373631,22.9635334],[120.3374128,22.963484],[120.3374926,22.963346]]}},{"type":"Feature","properties":{"from":"\u95dc\u5edf","name":"\u7d05\u5e79\u7dda(\u8fd4)","public_transport:version":"2","ref":"\u7d05\u5e79\u7dda","route":"bus","to":"\u5b89\u5de5\u5340","type":"route"},"geometry":{"type":"LineString","coordinates":[[120.3370938,22.9633695],[120.3369477,22.9633955],[120.3357288,22.9635937],[120.3356182,22.9635788],[120.3352902,22.9634662],[120.3350244,22.9633569]]}},{"type":"Feature","properties":{"from":"\u95dc\u5edf","name":"\u7d05\u5e79\u7dda(\u8fd4)","public_transport:version":"2","ref":"\u7d05\u5e79\u7dda","route":"bus","to":"\u5b89\u5de5\u5340","type":"route"},"geometry":{"type":"LineString","coordinates":[[120.3350244,22.9633569],[120.334839,22.9632757],[120.3335667,22.9627519],[120.3328159,22.9624545],[120.3326283,22.962378],[120.3320109,22.9621191],[120.3312014,22.9618044],[120.3311222,22.961783],[120.3310423,22.9617802]]}},{"type":"Feature","properties":{"from":"\u95dc\u5edf","name":"\u7d05\u5e79\u7dda(\u8fd4)","public_transport:version":"2","ref":"\u7d05\u5e79\u7dda","route":"bus","to":"\u5b89\u5de5\u5340","type":"route"},"geometry":{"type":"LineString","coordinates":[[120.3310423,22.9617802],[120.3306946,22.9618846],[120.3302583,22.9620169],[120.3296646,22.962194],[120.3293209,22.962287],[120.3284855,22.9625159]]}},{"type":"Feature","properties":{"from":"\u95dc\u5edf","name":"\u7d05\u5e79\u7dda(\u8fd4)","public_transport:version":"2","ref":"\u7d05\u5e79\u7dda","route":"bus","to":"\u5b89\u5de5\u5340","type":"route"},"geometry":{"type":"LineString","coordinates":[[120.3278794,22.9598795],[120.3280094,22.9604722],[120.3281248,22.9609045],[120.3282267,22.9613181],[120.3283233,22.9617145],[120.3284114,22.9621019],[120.3284855,22.9625159]]}},{"type":"Feature","properties":{"from":"\u95dc\u5edf","name":"\u7d05\u5e79\u7dda(\u8fd4)","public_transport:version":"2","ref":"\u7d05\u5e79\u7dda","route":"bus","to":"\u5b89\u5de5\u5340","type":"route"},"geometry":{"type":"LineString","coordinates":[[120.3278794,22.9598795],[120.3272239,22.960002],[120.3268571,22.9600705]]}},{"type":"Feature","properties":{"from":"\u95dc\u5edf","name":"\u7d05\u5e79\u7dda(\u8fd4)","public_transport:version":"2","ref":"\u7d05\u5e79\u7dda","route":"bus","to":"\u5b89\u5de5\u5340","type":"route"},"geometry":{"type":"LineString","coordinates":[[120.3268571,22.9600705],[120.3265416,22.9601353],[120.3261864,22.9601873],[120.3260302,22.9602204]]}},{"type":"Feature","properties":{"from":"\u95dc\u5edf","name":"\u7d05\u5e79\u7dda(\u8fd4)","public_transport:version":"2","ref":"\u7d05\u5e79\u7dda","route":"bus","to":"\u5b89\u5de5\u5340","type":"route"},"geometry":{"type":"LineString","coordinates":[[120.3260302,22.9602204],[120.3253322,22.9603405],[120.3249927,22.9604061]]}},{"type":"Feature","properties":{"from":"\u95dc\u5edf","name":"\u7d05\u5e79\u7dda(\u8fd4)","public_transport:version":"2","ref":"\u7d05\u5e79\u7dda","route":"bus","to":"\u5b89\u5de5\u5340","type":"route"},"geometry":{"type":"LineString","coordinates":[[120.3249927,22.9604061],[120.3248319,22.9604418],[120.3240411,22.9605569]]}},{"type":"Feature","properties":{"from":"\u95dc\u5edf","name":"\u7d05\u5e79\u7dda(\u8fd4)","public_transport:version":"2","ref":"\u7d05\u5e79\u7dda","route":"bus","to":"\u5b89\u5de5\u5340","type":"route"},"geometry":{"type":"LineString","coordinates":[[120.3240411,22.9605569],[120.3238547,22.9606742],[120.322059,22.9609841],[120.3186865,22.9616186],[120.3161296,22.9620599],[120.3149836,22.9622933],[120.3137287,22.9626349]]}},{"type":"Feature","properties":{"from":"\u95dc\u5edf","name":"\u7d05\u5e79\u7dda(\u8fd4)","public_transport:version":"2","ref":"\u7d05\u5e79\u7dda","route":"bus","to":"\u5b89\u5de5\u5340","type":"route"},"geometry":{"type":"LineString","coordinates":[[120.3137287,22.9626349],[120.3132101,22.9627749],[120.3129492,22.9628453],[120.3127681,22.9628919],[120.311411,22.9633125],[120.3106867,22.9635365],[120.3101425,22.9636896],[120.3098618,22.9637726],[120.309623,22.963838],[120.3092688,22.9639336],[120.308744,22.9640807],[120.308705,22.9640914],[120.3085289,22.9641409],[120.3041272,22.9654541],[120.303162,22.9657334],[120.3029359,22.965798],[120.3027854,22.9658259]]}},{"type":"Feature","properties":{"from":"\u95dc\u5edf","name":"\u7d05\u5e79\u7dda(\u8fd4)","public_transport:version":"2","ref":"\u7d05\u5e79\u7dda","route":"bus","to":"\u5b89\u5de5\u5340","type":"route"},"geometry":{"type":"LineString","coordinates":[[120.3027854,22.9658259],[120.3023513,22.9658783],[120.3016296,22.9659655],[120.300578,22.9660926],[120.3000095,22.9661527],[120.2977638,22.96639],[120.2963945,22.9665347]]}},{"type":"Feature","properties":{"from":"\u95dc\u5edf","name":"\u7d05\u5e79\u7dda(\u8fd4)","public_transport:version":"2","ref":"\u7d05\u5e79\u7dda","route":"bus","to":"\u5b89\u5de5\u5340","type":"route"},"geometry":{"type":"LineString","coordinates":[[120.2963945,22.9665347],[120.2961784,22.9665616],[120.2946547,22.9667704],[120.2945999,22.9667859]]}},{"type":"Feature","properties":{"from":"\u95dc\u5edf","name":"\u7d05\u5e79\u7dda(\u8fd4)","public_transport:version":"2","ref":"\u7d05\u5e79\u7dda","route":"bus","to":"\u5b89\u5de5\u5340","type":"route"},"geometry":{"type":"LineString","coordinates":[[120.293992,22.9667946],[120.2939859,22.9667379],[120.2939934,22.9666764],[120.2940152,22.9666178],[120.2940502,22.9665649],[120.2940969,22.9665202],[120.2941529,22.9664859],[120.2942157,22.9664636],[120.2942852,22.9664542],[120.2943552,22.9664595],[120.2944222,22.9664792],[120.2944825,22.9665123],[120.2945332,22.9665571],[120.2945716,22.9666114],[120.2945957,22.9666721],[120.294604,22.9667288],[120.2945999,22.9667859],[120.2945903,22.9668232],[120.2945753,22.9668589],[120.2945552,22.9668925],[120.2945303,22.9669233],[120.2945012,22.9669508],[120.2944684,22.9669744],[120.2944324,22.9669937],[120.2943939,22.9670084],[120.2943536,22.9670182],[120.2943013,22.9670232],[120.2942488,22.9670201],[120.2941977,22.9670088],[120.2941493,22.9669897],[120.2941052,22.9669633],[120.2940666,22.9669304],[120.2940346,22.966892],[120.2940101,22.9668491],[120.293992,22.9667946]]}},{"type":"Feature","properties":{"from":"\u95dc\u5edf","name":"\u7d05\u5e79\u7dda(\u8fd4)","public_transport:version":"2","ref":"\u7d05\u5e79\u7dda","route":"bus","to":"\u5b89\u5de5\u5340","type":"route"},"geometry":{"type":"LineString","coordinates":[[120.2940101,22.9668491],[120.292899,22.9669758],[120.292249,22.9670499],[120.2902004,22.9672833],[120.289048,22.9674145],[120.287892,22.9675462]]}},{"type":"Feature","properties":{"from":"\u95dc\u5edf","name":"\u7d05\u5e79\u7dda(\u8fd4)","public_transport:version":"2","ref":"\u7d05\u5e79\u7dda","route":"bus","to":"\u5b89\u5de5\u5340","type":"route"},"geometry":{"type":"LineString","coordinates":[[120.287892,22.9675462],[120.2875183,22.9675888],[120.2857267,22.9677929],[120.2847156,22.9679081],[120.2842258,22.9679639],[120.2840101,22.9679885],[120.2837162,22.9680219],[120.2831331,22.9680884],[120.2825325,22.9681568],[120.2810096,22.9683303],[120.2790425,22.9685544],[120.2776577,22.9687121],[120.2765162,22.9688422],[120.2752387,22.9689877],[120.2724175,22.9693091],[120.272192,22.9693348]]}},{"type":"Feature","properties":{"from":"\u95dc\u5edf","name":"\u7d05\u5e79\u7dda(\u8fd4)","public_transport:version":"2","ref":"\u7d05\u5e79\u7dda","route":"bus","to":"\u5b89\u5de5\u5340","type":"route"},"geometry":{"type":"LineString","coordinates":[[120.272192,22.9693348],[120.2719258,22.9693725]]}},{"type":"Feature","properties":{"from":"\u95dc\u5edf","name":"\u7d05\u5e79\u7dda(\u8fd4)","public_transport:version":"2","ref":"\u7d05\u5e79\u7dda","route":"bus","to":"\u5b89\u5de5\u5340","type":"route"},"geometry":{"type":"LineString","coordinates":[[120.2719258,22.9693725],[120.2715407,22.9693986]]}},{"type":"Feature","properties":{"from":"\u95dc\u5edf","name":"\u7d05\u5e79\u7dda(\u8fd4)","public_transport:version":"2","ref":"\u7d05\u5e79\u7dda","route":"bus","to":"\u5b89\u5de5\u5340","type":"route"},"geometry":{"type":"LineString","coordinates":[[120.2715407,22.9693986],[120.2712217,22.9694219],[120.2709027,22.9694452],[120.2691928,22.9696508],[120.2681553,22.9697857],[120.2675293,22.9698435],[120.2664348,22.9699673],[120.2650908,22.9700893],[120.2639972,22.9702325],[120.2628915,22.9703581],[120.2618434,22.9704819],[120.2601218,22.9706784],[120.2594569,22.9707523],[120.2582311,22.9708906],[120.2568142,22.9710536],[120.2560228,22.9711548],[120.2552774,22.9712268],[120.2543561,22.9713312],[120.2532238,22.9714696],[120.2525269,22.9715421],[120.2516673,22.9716483]]}},{"type":"Feature","properties":{"from":"\u95dc\u5edf","name":"\u7d05\u5e79\u7dda(\u8fd4)","public_transport:version":"2","ref":"\u7d05\u5e79\u7dda","route":"bus","to":"\u5b89\u5de5\u5340","type":"route"},"geometry":{"type":"LineString","coordinates":[[120.2516673,22.9716483],[120.2513056,22.9716796]]}},{"type":"Feature","properties":{"from":"\u95dc\u5edf","name":"\u7d05\u5e79\u7dda(\u8fd4)","public_transport:version":"2","ref":"\u7d05\u5e79\u7dda","route":"bus","to":"\u5b89\u5de5\u5340","type":"route"},"geometry":{"type":"LineString","coordinates":[[120.2513056,22.9716796],[120.2508259,22.9717971],[120.2506069,22.9718537],[120.2503475,22.9719384],[120.250265,22.9719589],[120.2498467,22.972097],[120.2496503,22.9721536]]}},{"type":"Feature","properties":{"from":"\u95dc\u5edf","name":"\u7d05\u5e79\u7dda(\u8fd4)","public_transport:version":"2","ref":"\u7d05\u5e79\u7dda","route":"bus","to":"\u5b89\u5de5\u5340","type":"route"},"geometry":{"type":"LineString","coordinates":[[120.2496503,22.9721536],[120.2490962,22.9723351]]}},{"type":"Feature","properties":{"from":"\u95dc\u5edf","name":"\u7d05\u5e79\u7dda(\u8fd4)","public_transport:version":"2","ref":"\u7d05\u5e79\u7dda","route":"bus","to":"\u5b89\u5de5\u5340","type":"route"},"geometry":{"type":"LineString","coordinates":[[120.2490962,22.9723351],[120.248393,22.9725363]]}},{"type":"Feature","properties":{"from":"\u95dc\u5edf","name":"\u7d05\u5e79\u7dda(\u8fd4)","public_transport:version":"2","ref":"\u7d05\u5e79\u7dda","route":"bus","to":"\u5b89\u5de5\u5340","type":"route"},"geometry":{"type":"LineString","coordinates":[[120.248393,22.9725363],[120.2482624,22.9725672],[120.2481499,22.9725948],[120.2459028,22.9732486],[120.2451753,22.9734593],[120.2439649,22.9738275]]}},{"type":"Feature","properties":{"from":"\u95dc\u5edf","name":"\u7d05\u5e79\u7dda(\u8fd4)","public_transport:version":"2","ref":"\u7d05\u5e79\u7dda","route":"bus","to":"\u5b89\u5de5\u5340","type":"route"},"geometry":{"type":"LineString","coordinates":[[120.2439649,22.9738275],[120.2434735,22.9739763],[120.2418383,22.9744645],[120.241551,22.9745369],[120.2411643,22.9745965],[120.2410754,22.9746102],[120.2392387,22.9749076],[120.2391116,22.9749545],[120.2388831,22.9750352],[120.2386467,22.9751618],[120.238445,22.9753248],[120.2383549,22.9753976],[120.2380586,22.9756435]]}},{"type":"Feature","properties":{"from":"\u95dc\u5edf","name":"\u7d05\u5e79\u7dda(\u8fd4)","public_transport:version":"2","ref":"\u7d05\u5e79\u7dda","route":"bus","to":"\u5b89\u5de5\u5340","type":"route"},"geometry":{"type":"LineString","coordinates":[[120.2380586,22.9756435],[120.2378029,22.9757791],[120.237624,22.9758487],[120.2374202,22.9759178],[120.2366551,22.9760844],[120.2362131,22.9762081],[120.2360322,22.9762784],[120.2358195,22.9764018],[120.2345113,22.9773884],[120.2343661,22.9775073],[120.2336741,22.9780233],[120.2334328,22.9781986],[120.2314414,22.9796402]]}},{"type":"Feature","properties":{"from":"\u95dc\u5edf","name":"\u7d05\u5e79\u7dda(\u8fd4)","public_transport:version":"2","ref":"\u7d05\u5e79\u7dda","route":"bus","to":"\u5b89\u5de5\u5340","type":"route"},"geometry":{"type":"LineString","coordinates":[[120.2314414,22.9796402],[120.2306075,22.9802694],[120.2299039,22.9808002],[120.2295024,22.9811032]]}},{"type":"Feature","properties":{"from":"\u95dc\u5edf","name":"\u7d05\u5e79\u7dda(\u8fd4)","public_transport:version":"2","ref":"\u7d05\u5e79\u7dda","route":"bus","to":"\u5b89\u5de5\u5340","type":"route"},"geometry":{"type":"LineString","coordinates":[[120.2295024,22.9811032],[120.2294094,22.9811679]]}},{"type":"Feature","properties":{"from":"\u95dc\u5edf","name":"\u7d05\u5e79\u7dda(\u8fd4)","public_transport:version":"2","ref":"\u7d05\u5e79\u7dda","route":"bus","to":"\u5b89\u5de5\u5340","type":"route"},"geometry":{"type":"LineString","coordinates":[[120.2294094,22.9811679],[120.227816,22.9823362],[120.2275606,22.9825254],[120.2268613,22.9830405],[120.2265792,22.9832552],[120.2264832,22.9832911]]}},{"type":"Feature","properties":{"from":"\u95dc\u5edf","name":"\u7d05\u5e79\u7dda(\u8fd4)","public_transport:version":"2","ref":"\u7d05\u5e79\u7dda","route":"bus","to":"\u5b89\u5de5\u5340","type":"route"},"geometry":{"type":"LineString","coordinates":[[120.2243291,22.9848414],[120.224599,22.9846826],[120.2253438,22.9841326],[120.2257179,22.9838563],[120.2257545,22.9838293],[120.2259574,22.9836794],[120.2264832,22.9832911]]}},{"type":"Feature","properties":{"from":"\u95dc\u5edf","name":"\u7d05\u5e79\u7dda(\u8fd4)","public_transport:version":"2","ref":"\u7d05\u5e79\u7dda","route":"bus","to":"\u5b89\u5de5\u5340","type":"route"},"geometry":{"type":"LineString","coordinates":[[120.2225335,22.9854655],[120.2225885,22.9854478],[120.2227375,22.9853986],[120.2231739,22.9852544],[120.223631,22.9851032],[120.2243291,22.9848414]]}},{"type":"Feature","properties":{"from":"\u95dc\u5edf","name":"\u7d05\u5e79\u7dda(\u8fd4)","public_transport:version":"2","ref":"\u7d05\u5e79\u7dda","route":"bus","to":"\u5b89\u5de5\u5340","type":"route"},"geometry":{"type":"LineString","coordinates":[[120.2223648,22.9855198],[120.2225335,22.9854655]]}},{"type":"Feature","properties":{"from":"\u95dc\u5edf","name":"\u7d05\u5e79\u7dda(\u8fd4)","public_transport:version":"2","ref":"\u7d05\u5e79\u7dda","route":"bus","to":"\u5b89\u5de5\u5340","type":"route"},"geometry":{"type":"LineString","coordinates":[[120.2188918,22.9866244],[120.2202188,22.9862039],[120.2215494,22.9857797],[120.2218527,22.985683],[120.2218858,22.9856725],[120.2221221,22.9855972],[120.2223648,22.9855198]]}},{"type":"Feature","properties":{"from":"\u95dc\u5edf","name":"\u7d05\u5e79\u7dda(\u8fd4)","public_transport:version":"2","ref":"\u7d05\u5e79\u7dda","route":"bus","to":"\u5b89\u5de5\u5340","type":"route"},"geometry":{"type":"LineString","coordinates":[[120.2180556,22.9868707],[120.2188104,22.9866471],[120.2188918,22.9866244]]}},{"type":"Feature","properties":{"from":"\u95dc\u5edf","name":"\u7d05\u5e79\u7dda(\u8fd4)","public_transport:version":"2","ref":"\u7d05\u5e79\u7dda","route":"bus","to":"\u5b89\u5de5\u5340","type":"route"},"geometry":{"type":"LineString","coordinates":[[120.2180556,22.9868707],[120.218054,22.9869587],[120.2180188,22.9870276],[120.2179226,22.9870896],[120.2174434,22.9872509],[120.21722,22.9873216],[120.2171224,22.9873159],[120.2170342,22.9872935],[120.2169683,22.9872416],[120.2169422,22.9872058]]}},{"type":"Feature","properties":{"from":"\u95dc\u5edf","name":"\u7d05\u5e79\u7dda(\u8fd4)","public_transport:version":"2","ref":"\u7d05\u5e79\u7dda","route":"bus","to":"\u5b89\u5de5\u5340","type":"route"},"geometry":{"type":"LineString","coordinates":[[120.2161524,22.9874526],[120.2163488,22.9873912],[120.2165858,22.9873172],[120.2169422,22.9872058]]}},{"type":"Feature","properties":{"from":"\u95dc\u5edf","name":"\u7d05\u5e79\u7dda(\u8fd4)","public_transport:version":"2","ref":"\u7d05\u5e79\u7dda","route":"bus","to":"\u5b89\u5de5\u5340","type":"route"},"geometry":{"type":"LineString","coordinates":[[120.2150675,22.9877934],[120.2161524,22.9874526]]}},{"type":"Feature","properties":{"from":"\u95dc\u5edf","name":"\u7d05\u5e79\u7dda(\u8fd4)","public_transport:version":"2","ref":"\u7d05\u5e79\u7dda","route":"bus","to":"\u5b89\u5de5\u5340","type":"route"},"geometry":{"type":"LineString","coordinates":[[120.2150675,22.9877934],[120.214839,22.987856]]}},{"type":"Feature","properties":{"from":"\u95dc\u5edf","name":"\u7d05\u5e79\u7dda(\u8fd4)","public_transport:version":"2","ref":"\u7d05\u5e79\u7dda","route":"bus","to":"\u5b89\u5de5\u5340","type":"route"},"geometry":{"type":"LineString","coordinates":[[120.214839,22.987856],[120.2119546,22.9887569]]}},{"type":"Feature","properties":{"from":"\u95dc\u5edf","name":"\u7d05\u5e79\u7dda(\u8fd4)","public_transport:version":"2","ref":"\u7d05\u5e79\u7dda","route":"bus","to":"\u5b89\u5de5\u5340","type":"route"},"geometry":{"type":"LineString","coordinates":[[120.2119546,22.9887569],[120.2118763,22.9888175],[120.2118499,22.9888735],[120.2118321,22.9889646],[120.2118014,22.9890515],[120.2117561,22.9891412],[120.2116166,22.9892421],[120.2115249,22.9892812]]}},{"type":"Feature","properties":{"from":"\u95dc\u5edf","name":"\u7d05\u5e79\u7dda(\u8fd4)","public_transport:version":"2","ref":"\u7d05\u5e79\u7dda","route":"bus","to":"\u5b89\u5de5\u5340","type":"route"},"geometry":{"type":"LineString","coordinates":[[120.2115249,22.9892812],[120.2114479,22.9892629]]}},{"type":"Feature","properties":{"from":"\u95dc\u5edf","name":"\u7d05\u5e79\u7dda(\u8fd4)","public_transport:version":"2","ref":"\u7d05\u5e79\u7dda","route":"bus","to":"\u5b89\u5de5\u5340","type":"route"},"geometry":{"type":"LineString","coordinates":[[120.2114673,22.9893846],[120.2114479,22.9892629]]}},{"type":"Feature","properties":{"from":"\u95dc\u5edf","name":"\u7d05\u5e79\u7dda(\u8fd4)","public_transport:version":"2","ref":"\u7d05\u5e79\u7dda","route":"bus","to":"\u5b89\u5de5\u5340","type":"route"},"geometry":{"type":"LineString","coordinates":[[120.2117809,22.9945198],[120.2117742,22.9944291],[120.2116736,22.9927649],[120.2116447,22.9920019],[120.2116286,22.9915773],[120.2115663,22.9906427],[120.2115301,22.9901945],[120.2114925,22.9896056],[120.2114673,22.9893846]]}},{"type":"Feature","properties":{"from":"\u95dc\u5edf","name":"\u7d05\u5e79\u7dda(\u8fd4)","public_transport:version":"2","ref":"\u7d05\u5e79\u7dda","route":"bus","to":"\u5b89\u5de5\u5340","type":"route"},"geometry":{"type":"LineString","coordinates":[[120.2118625,22.9958398],[120.2118411,22.9954891],[120.2118313,22.9953285],[120.2118039,22.9949403],[120.2117877,22.9946151],[120.2117809,22.9945198]]}},{"type":"Feature","properties":{"from":"\u95dc\u5edf","name":"\u7d05\u5e79\u7dda(\u8fd4)","public_transport:version":"2","ref":"\u7d05\u5e79\u7dda","route":"bus","to":"\u5b89\u5de5\u5340","type":"route"},"geometry":{"type":"LineString","coordinates":[[120.212069,22.9968492],[120.2119223,22.996135],[120.2118625,22.9958398]]}},{"type":"Feature","properties":{"from":"\u95dc\u5edf","name":"\u7d05\u5e79\u7dda(\u8fd4)","public_transport:version":"2","ref":"\u7d05\u5e79\u7dda","route":"bus","to":"\u5b89\u5de5\u5340","type":"route"},"geometry":{"type":"LineString","coordinates":[[120.212069,22.9968492],[120.2121649,22.9970622]]}},{"type":"Feature","properties":{"from":"\u95dc\u5edf","name":"\u7d05\u5e79\u7dda(\u8fd4)","public_transport:version":"2","ref":"\u7d05\u5e79\u7dda","route":"bus","to":"\u5b89\u5de5\u5340","type":"route"},"geometry":{"type":"LineString","coordinates":[[120.2121649,22.9970622],[120.2122133,22.9972959],[120.212168,22.9973563],[120.2121286,22.9973921],[120.2120959,22.9974181],[120.2120524,22.997444],[120.2120074,22.9974624],[120.2119414,22.9974731],[120.2118275,22.9974837],[120.2117686,22.9974926],[120.2116821,22.99749],[120.2116207,22.9974678],[120.2115602,22.9973916],[120.2115296,22.9973406],[120.2115066,22.997283],[120.2115271,22.9971846],[120.2115746,22.9971088],[120.2116146,22.9970518],[120.21172,22.9970226],[120.2118512,22.9969848],[120.2120278,22.9969658],[120.2120928,22.9969906],[120.2121649,22.9970622]]}},{"type":"Feature","properties":{"from":"\u95dc\u5edf","name":"\u7d05\u5e79\u7dda(\u8fd4)","public_transport:version":"2","ref":"\u7d05\u5e79\u7dda","route":"bus","to":"\u5b89\u5de5\u5340","type":"route"},"geometry":{"type":"LineString","coordinates":[[120.2122133,22.9972959],[120.2122397,22.9974216],[120.2122751,22.997603]]}},{"type":"Feature","properties":{"from":"\u95dc\u5edf","name":"\u7d05\u5e79\u7dda(\u8fd4)","public_transport:version":"2","ref":"\u7d05\u5e79\u7dda","route":"bus","to":"\u5b89\u5de5\u5340","type":"route"},"geometry":{"type":"LineString","coordinates":[[120.2122751,22.997603],[120.2119739,22.9975969],[120.2117832,22.9976462],[120.2115914,22.9976739],[120.2115028,22.9976448],[120.2114348,22.9976192],[120.2113762,22.9975758],[120.211274,22.9974909],[120.211253,22.9974282],[120.2112366,22.9973829]]}},{"type":"Feature","properties":{"from":"\u95dc\u5edf","name":"\u7d05\u5e79\u7dda(\u8fd4)","public_transport:version":"2","ref":"\u7d05\u5e79\u7dda","route":"bus","to":"\u5b89\u5de5\u5340","type":"route"},"geometry":{"type":"LineString","coordinates":[[120.2112366,22.9973829],[120.2112224,22.9973263]]}},{"type":"Feature","properties":{"from":"\u95dc\u5edf","name":"\u7d05\u5e79\u7dda(\u8fd4)","public_transport:version":"2","ref":"\u7d05\u5e79\u7dda","route":"bus","to":"\u5b89\u5de5\u5340","type":"route"},"geometry":{"type":"LineString","coordinates":[[120.2112224,22.9973263],[120.2112421,22.997198],[120.2112908,22.9970885],[120.2113768,22.9969836],[120.211457,22.9969172],[120.2115406,22.9968838]]}},{"type":"Feature","properties":{"from":"\u95dc\u5edf","name":"\u7d05\u5e79\u7dda(\u8fd4)","public_transport:version":"2","ref":"\u7d05\u5e79\u7dda","route":"bus","to":"\u5b89\u5de5\u5340","type":"route"},"geometry":{"type":"LineString","coordinates":[[120.2115406,22.9968838],[120.2115016,22.996815]]}},{"type":"Feature","properties":{"from":"\u95dc\u5edf","name":"\u7d05\u5e79\u7dda(\u8fd4)","public_transport:version":"2","ref":"\u7d05\u5e79\u7dda","route":"bus","to":"\u5b89\u5de5\u5340","type":"route"},"geometry":{"type":"LineString","coordinates":[[120.2115016,22.996815],[120.2098242,22.9957124],[120.2088872,22.9950964],[120.2084079,22.9947813]]}},{"type":"Feature","properties":{"from":"\u95dc\u5edf","name":"\u7d05\u5e79\u7dda(\u8fd4)","public_transport:version":"2","ref":"\u7d05\u5e79\u7dda","route":"bus","to":"\u5b89\u5de5\u5340","type":"route"},"geometry":{"type":"LineString","coordinates":[[120.2084079,22.9947813],[120.2072412,22.9940191],[120.206682,22.9936537]]}},{"type":"Feature","properties":{"from":"\u95dc\u5edf","name":"\u7d05\u5e79\u7dda(\u8fd4)","public_transport:version":"2","ref":"\u7d05\u5e79\u7dda","route":"bus","to":"\u5b89\u5de5\u5340","type":"route"},"geometry":{"type":"LineString","coordinates":[[120.206682,22.9936537],[120.20586,22.9931228],[120.2054416,22.9928393]]}},{"type":"Feature","properties":{"from":"\u95dc\u5edf","name":"\u7d05\u5e79\u7dda(\u8fd4)","public_transport:version":"2","ref":"\u7d05\u5e79\u7dda","route":"bus","to":"\u5b89\u5de5\u5340","type":"route"},"geometry":{"type":"LineString","coordinates":[[120.2045626,22.9925558],[120.2045725,22.9924866],[120.2045858,22.9924409],[120.2046043,22.9923967],[120.2046508,22.9923216],[120.2047122,22.9922561],[120.2047861,22.9922028],[120.2048698,22.9921635],[120.2049601,22.9921398],[120.2050693,22.9921331],[120.2051773,22.992149],[120.2052787,22.9921868],[120.2053684,22.9922445],[120.2054218,22.9922955],[120.2054659,22.9923536],[120.2054993,22.9924174],[120.2055285,22.9925234],[120.2055288,22.9926328],[120.2055002,22.992739],[120.2054416,22.9928393],[120.2053673,22.9929148],[120.2052763,22.9929729],[120.2051734,22.9930104],[120.2050622,22.9930256],[120.2049501,22.9930168],[120.2048432,22.9929845],[120.2047473,22.9929303],[120.2046675,22.9928573],[120.2046081,22.9927693],[120.2045783,22.9926941],[120.2045646,22.9926255],[120.2045626,22.9925558]]}},{"type":"Feature","properties":{"from":"\u95dc\u5edf","name":"\u7d05\u5e79\u7dda(\u8fd4)","public_transport:version":"2","ref":"\u7d05\u5e79\u7dda","route":"bus","to":"\u5b89\u5de5\u5340","type":"route"},"geometry":{"type":"LineString","coordinates":[[120.2045725,22.9924866],[120.2040099,22.9923245],[120.2035121,22.9921809],[120.2027535,22.991962]]}},{"type":"Feature","properties":{"from":"\u95dc\u5edf","name":"\u7d05\u5e79\u7dda(\u8fd4)","public_transport:version":"2","ref":"\u7d05\u5e79\u7dda","route":"bus","to":"\u5b89\u5de5\u5340","type":"route"},"geometry":{"type":"LineString","coordinates":[[120.2027535,22.991962],[120.2023523,22.992043],[120.2008845,22.9923392],[120.1994623,22.9926263],[120.1992009,22.9926791],[120.1986852,22.9927806]]}},{"type":"Feature","properties":{"from":"\u95dc\u5edf","name":"\u7d05\u5e79\u7dda(\u8fd4)","public_transport:version":"2","ref":"\u7d05\u5e79\u7dda","route":"bus","to":"\u5b89\u5de5\u5340","type":"route"},"geometry":{"type":"LineString","coordinates":[[120.1986852,22.9927806],[120.1985913,22.9927967]]}},{"type":"Feature","properties":{"from":"\u95dc\u5edf","name":"\u7d05\u5e79\u7dda(\u8fd4)","public_transport:version":"2","ref":"\u7d05\u5e79\u7dda","route":"bus","to":"\u5b89\u5de5\u5340","type":"route"},"geometry":{"type":"LineString","coordinates":[[120.1985913,22.9927967],[120.1985747,22.9927127]]}},{"type":"Feature","properties":{"from":"\u95dc\u5edf","name":"\u7d05\u5e79\u7dda(\u8fd4)","public_transport:version":"2","ref":"\u7d05\u5e79\u7dda","route":"bus","to":"\u5b89\u5de5\u5340","type":"route"},"geometry":{"type":"LineString","coordinates":[[120.1985747,22.9927127],[120.198213,22.9917621]]}},{"type":"Feature","properties":{"from":"\u95dc\u5edf","name":"\u7d05\u5e79\u7dda(\u8fd4)","public_transport:version":"2","ref":"\u7d05\u5e79\u7dda","route":"bus","to":"\u5b89\u5de5\u5340","type":"route"},"geometry":{"type":"LineString","coordinates":[[120.198213,22.9917621],[120.1980827,22.9913906],[120.1980197,22.9912111],[120.1978928,22.9908535],[120.1977618,22.9904844]]}},{"type":"Feature","properties":{"from":"\u95dc\u5edf","name":"\u7d05\u5e79\u7dda(\u8fd4)","public_transport:version":"2","ref":"\u7d05\u5e79\u7dda","route":"bus","to":"\u5b89\u5de5\u5340","type":"route"},"geometry":{"type":"LineString","coordinates":[[120.1977618,22.9904844],[120.1976551,22.9902075],[120.1975853,22.9899531],[120.197531,22.9897469],[120.1975025,22.9894858],[120.1974716,22.9890179],[120.1974856,22.9884783],[120.1975112,22.9873957]]}},{"type":"Feature","properties":{"from":"\u95dc\u5edf","name":"\u7d05\u5e79\u7dda(\u8fd4)","public_transport:version":"2","ref":"\u7d05\u5e79\u7dda","route":"bus","to":"\u5b89\u5de5\u5340","type":"route"},"geometry":{"type":"LineString","coordinates":[[120.1975112,22.9873957],[120.1975119,22.9873393],[120.1975161,22.9869821],[120.1975238,22.9863432],[120.1975281,22.9859648],[120.1975383,22.9851012],[120.1975427,22.9847293],[120.1975451,22.9845242],[120.1975479,22.9842921],[120.1975532,22.9838689],[120.1975565,22.9835616],[120.1975673,22.9826494],[120.1975759,22.9819183],[120.1975764,22.9815773],[120.1975813,22.9814627]]}},{"type":"Feature","properties":{"from":"\u95dc\u5edf","name":"\u7d05\u5e79\u7dda(\u8fd4)","public_transport:version":"2","ref":"\u7d05\u5e79\u7dda","route":"bus","to":"\u5b89\u5de5\u5340","type":"route"},"geometry":{"type":"LineString","coordinates":[[120.1975813,22.9814627],[120.1975853,22.981396]]}},{"type":"Feature","properties":{"from":"\u95dc\u5edf","name":"\u7d05\u5e79\u7dda(\u8fd4)","public_transport:version":"2","ref":"\u7d05\u5e79\u7dda","route":"bus","to":"\u5b89\u5de5\u5340","type":"route"},"geometry":{"type":"LineString","coordinates":[[120.1975853,22.981396],[120.1975858,22.9813477],[120.1975897,22.9809663],[120.1976015,22.9798312]]}},{"type":"Feature","properties":{"from":"\u95dc\u5edf","name":"\u7d05\u5e79\u7dda(\u8fd4)","public_transport:version":"2","ref":"\u7d05\u5e79\u7dda","route":"bus","to":"\u5b89\u5de5\u5340","type":"route"},"geometry":{"type":"LineString","coordinates":[[120.1976015,22.9798312],[120.1974331,22.9797919],[120.1973415,22.9797396],[120.1972219,22.9796824],[120.1971661,22.979589]]}},{"type":"Feature","properties":{"from":"\u95dc\u5edf","name":"\u7d05\u5e79\u7dda(\u8fd4)","public_transport:version":"2","ref":"\u7d05\u5e79\u7dda","route":"bus","to":"\u5b89\u5de5\u5340","type":"route"},"geometry":{"type":"LineString","coordinates":[[120.1952191,22.9782317],[120.1957463,22.9785992],[120.1959327,22.9787292],[120.1969618,22.9794466],[120.1971661,22.979589]]}},{"type":"Feature","properties":{"from":"\u95dc\u5edf","name":"\u7d05\u5e79\u7dda(\u8fd4)","public_transport:version":"2","ref":"\u7d05\u5e79\u7dda","route":"bus","to":"\u5b89\u5de5\u5340","type":"route"},"geometry":{"type":"LineString","coordinates":[[120.1952191,22.9782317],[120.1952592,22.9773499],[120.1952827,22.9768345],[120.1953143,22.97614],[120.1953473,22.9754127],[120.1953694,22.9749279]]}},{"type":"Feature","properties":{"from":"\u95dc\u5edf","name":"\u7d05\u5e79\u7dda(\u8fd4)","public_transport:version":"2","ref":"\u7d05\u5e79\u7dda","route":"bus","to":"\u5b89\u5de5\u5340","type":"route"},"geometry":{"type":"LineString","coordinates":[[120.1953694,22.9749279],[120.19539,22.9685028],[120.1953907,22.968269],[120.1953914,22.9680514],[120.1953941,22.9672195],[120.1953952,22.9668745],[120.1953967,22.9664067],[120.1953982,22.9659208],[120.1953992,22.9656214],[120.1953995,22.9655257],[120.1954007,22.9651679],[120.1954021,22.9647067],[120.1954031,22.9643947],[120.1954037,22.9642013],[120.1954039,22.9641543]]}},{"type":"Feature","properties":{"from":"\u95dc\u5edf","name":"\u7d05\u5e79\u7dda(\u8fd4)","public_transport:version":"2","ref":"\u7d05\u5e79\u7dda","route":"bus","to":"\u5b89\u5de5\u5340","type":"route"},"geometry":{"type":"LineString","coordinates":[[120.1954039,22.9641543],[120.1954139,22.9638997]]}},{"type":"Feature","properties":{"from":"\u95dc\u5edf","name":"\u7d05\u5e79\u7dda(\u8fd4)","public_transport:version":"2","ref":"\u7d05\u5e79\u7dda","route":"bus","to":"\u5b89\u5de5\u5340","type":"route"},"geometry":{"type":"LineString","coordinates":[[120.1954139,22.9638997],[120.195414,22.9638482],[120.1954146,22.9634604],[120.195415,22.9631994],[120.1954152,22.9630255],[120.1954158,22.9626212],[120.1954162,22.962367]]}},{"type":"Feature","properties":{"from":"\u95dc\u5edf","name":"\u7d05\u5e79\u7dda(\u8fd4)","public_transport:version":"2","ref":"\u7d05\u5e79\u7dda","route":"bus","to":"\u5b89\u5de5\u5340","type":"route"},"geometry":{"type":"LineString","coordinates":[[120.1954162,22.962367],[120.1926131,22.9618255],[120.1898136,22.9612848],[120.1896934,22.9612646],[120.1895184,22.9612727],[120.1892417,22.961294]]}},{"type":"Feature","properties":{"from":"\u95dc\u5edf","name":"\u7d05\u5e79\u7dda(\u8fd4)","public_transport:version":"2","ref":"\u7d05\u5e79\u7dda","route":"bus","to":"\u5b89\u5de5\u5340","type":"route"},"geometry":{"type":"LineString","coordinates":[[120.1892417,22.961294],[120.1889777,22.9613656],[120.1884215,22.9615208],[120.1877511,22.9616336]]}},{"type":"Feature","properties":{"from":"\u95dc\u5edf","name":"\u7d05\u5e79\u7dda(\u8fd4)","public_transport:version":"2","ref":"\u7d05\u5e79\u7dda","route":"bus","to":"\u5b89\u5de5\u5340","type":"route"},"geometry":{"type":"LineString","coordinates":[[120.1877511,22.9616336],[120.18711,22.961765],[120.1853896,22.9617682],[120.1848025,22.9617692],[120.1838884,22.9617709]]}},{"type":"Feature","properties":{"from":"\u95dc\u5edf","name":"\u7d05\u5e79\u7dda(\u8fd4)","public_transport:version":"2","ref":"\u7d05\u5e79\u7dda","route":"bus","to":"\u5b89\u5de5\u5340","type":"route"},"geometry":{"type":"LineString","coordinates":[[120.1838884,22.9617709],[120.1838779,22.9626953]]}},{"type":"Feature","properties":{"from":"\u95dc\u5edf","name":"\u7d05\u5e79\u7dda(\u8fd4)","public_transport:version":"2","ref":"\u7d05\u5e79\u7dda","route":"bus","to":"\u5b89\u5de5\u5340","type":"route"},"geometry":{"type":"LineString","coordinates":[[120.1838779,22.9626953],[120.1838619,22.9632931]]}},{"type":"Feature","properties":{"from":"\u95dc\u5edf","name":"\u7d05\u5e79\u7dda(\u8fd4)","public_transport:version":"2","ref":"\u7d05\u5e79\u7dda","route":"bus","to":"\u5b89\u5de5\u5340","type":"route"},"geometry":{"type":"LineString","coordinates":[[120.1838619,22.9632931],[120.1838599,22.9638783],[120.1838587,22.9642317],[120.1838578,22.9645024],[120.1838571,22.9646987],[120.1838557,22.9650908],[120.1838508,22.9665158],[120.1838494,22.9669276],[120.1838479,22.9673734]]}},{"type":"Feature","properties":{"from":"\u95dc\u5edf","name":"\u7d05\u5e79\u7dda(\u8fd4)","public_transport:version":"2","ref":"\u7d05\u5e79\u7dda","route":"bus","to":"\u5b89\u5de5\u5340","type":"route"},"geometry":{"type":"LineString","coordinates":[[120.1837155,22.9673782],[120.1838479,22.9673734]]}},{"type":"Feature","properties":{"from":"\u95dc\u5edf","name":"\u7d05\u5e79\u7dda(\u8fd4)","public_transport:version":"2","ref":"\u7d05\u5e79\u7dda","route":"bus","to":"\u5b89\u5de5\u5340","type":"route"},"geometry":{"type":"LineString","coordinates":[[120.1751427,22.967319],[120.1778214,22.9673375],[120.1810407,22.9673597],[120.1826396,22.9673708],[120.1837155,22.9673782]]}},{"type":"Feature","properties":{"from":"\u95dc\u5edf","name":"\u7d05\u5e79\u7dda(\u8fd4)","public_transport:version":"2","ref":"\u7d05\u5e79\u7dda","route":"bus","to":"\u5b89\u5de5\u5340","type":"route"},"geometry":{"type":"LineString","coordinates":[[120.1743541,22.9689217],[120.1743843,22.9687373],[120.1749222,22.9677457],[120.1751427,22.967319]]}},{"type":"Feature","properties":{"from":"\u95dc\u5edf","name":"\u7d05\u5e79\u7dda(\u8fd4)","public_transport:version":"2","ref":"\u7d05\u5e79\u7dda","route":"bus","to":"\u5b89\u5de5\u5340","type":"route"},"geometry":{"type":"LineString","coordinates":[[120.1743541,22.9689217],[120.1741941,22.9688483],[120.1738341,22.9686832],[120.1731019,22.9683168],[120.1735143,22.9677699],[120.1741427,22.9680838],[120.1738341,22.9686832]]}},{"type":"Feature","properties":{"from":"\u5b89\u5de5\u5340","name":"\u7d05\u5e79\u7dda(\u5ef6\u99db\u9f8d\u5d0e_\u5f80)","public_transport:version":"2","ref":"\u7d05\u5e79\u7dda","route":"bus","to":"\u95dc\u5edf","type":"route"},"geometry":{"type":"LineString","coordinates":[[120.3393817,22.9640166],[120.3380044,22.9634721],[120.3374926,22.963346]]}},{"type":"Feature","properties":{"from":"\u5b89\u5de5\u5340","name":"\u7d05\u5e79\u7dda(\u5ef6\u99db\u9f8d\u5d0e_\u5f80)","public_transport:version":"2","ref":"\u7d05\u5e79\u7dda","route":"bus","to":"\u95dc\u5edf","type":"route"},"geometry":{"type":"LineString","coordinates":[[120.3425855,22.9663614],[120.342032,22.9660395],[120.3416278,22.9657899],[120.34136,22.9655722],[120.3408596,22.9650338],[120.3405468,22.9646652],[120.3403614,22.9644837],[120.3401793,22.9643459],[120.3400864,22.9643075],[120.3393817,22.9640166]]}},{"type":"Feature","properties":{"from":"\u5b89\u5de5\u5340","name":"\u7d05\u5e79\u7dda(\u5ef6\u99db\u9f8d\u5d0e_\u5f80)","public_transport:version":"2","ref":"\u7d05\u5e79\u7dda","route":"bus","to":"\u95dc\u5edf","type":"route"},"geometry":{"type":"LineString","coordinates":[[120.343351,22.9668438],[120.3425855,22.9663614]]}},{"type":"Feature","properties":{"from":"\u5b89\u5de5\u5340","name":"\u7d05\u5e79\u7dda(\u5ef6\u99db\u9f8d\u5d0e_\u5f80)","public_transport:version":"2","ref":"\u7d05\u5e79\u7dda","route":"bus","to":"\u95dc\u5edf","type":"route"},"geometry":{"type":"LineString","coordinates":[[120.3499132,22.9680513],[120.3493898,22.9679767],[120.3488288,22.9678967],[120.3486442,22.9678704],[120.3470394,22.9676449],[120.3442762,22.9672539],[120.343984,22.967157],[120.3437904,22.9670786],[120.3435987,22.9669759],[120.343351,22.9668438]]}},{"type":"Feature","properties":{"from":"\u5b89\u5de5\u5340","name":"\u7d05\u5e79\u7dda(\u5ef6\u99db\u9f8d\u5d0e_\u5f80)","public_transport:version":"2","ref":"\u7d05\u5e79\u7dda","route":"bus","to":"\u95dc\u5edf","type":"route"},"geometry":{"type":"LineString","coordinates":[[120.3569283,22.967913],[120.3567683,22.9679312],[120.3565019,22.967986],[120.3562869,22.9680829],[120.3560725,22.9682313],[120.3558927,22.9684366],[120.3557248,22.9686392],[120.3556125,22.9687731],[120.3555061,22.968872],[120.3553383,22.9689684],[120.3551572,22.9690272],[120.3549763,22.9690383],[120.3548262,22.9690064],[120.3546714,22.968948],[120.3544039,22.9688359],[120.3541099,22.9687084],[120.3538092,22.968616],[120.3532814,22.9685287],[120.3532095,22.9685183],[120.3523177,22.9683898],[120.3519893,22.9683415],[120.3513556,22.968242],[120.3499132,22.9680513]]}},{"type":"Feature","properties":{"from":"\u5b89\u5de5\u5340","name":"\u7d05\u5e79\u7dda(\u5ef6\u99db\u9f8d\u5d0e_\u5f80)","public_transport:version":"2","ref":"\u7d05\u5e79\u7dda","route":"bus","to":"\u95dc\u5edf","type":"route"},"geometry":{"type":"LineString","coordinates":[[120.3598911,22.9647641],[120.3598302,22.9647782],[120.3597905,22.9648005],[120.3597572,22.9648416],[120.3596773,22.9649772],[120.3595864,22.9651398],[120.3595214,22.9652786],[120.359494,22.9653776],[120.3595125,22.9654406],[120.3595564,22.9655144],[120.3597812,22.9658041],[120.3598076,22.9658539],[120.3598227,22.965898],[120.3598281,22.9659795],[120.3598174,22.966098],[120.3595706,22.9666191],[120.359525,22.9666784],[120.3594553,22.9667327],[120.3593238,22.966787],[120.3582974,22.9670383],[120.3581334,22.9671346],[120.358054,22.9672483],[120.3579311,22.9674747],[120.3578678,22.967531],[120.3577741,22.967589],[120.3574768,22.9676999],[120.3569283,22.967913]]}},{"type":"Feature","properties":{"from":"\u5b89\u5de5\u5340","name":"\u7d05\u5e79\u7dda(\u5ef6\u99db\u9f8d\u5d0e_\u5f80)","public_transport:version":"2","ref":"\u7d05\u5e79\u7dda","route":"bus","to":"\u95dc\u5edf","type":"route"},"geometry":{"type":"LineString","coordinates":[[120.3635247,22.9649899],[120.3633798,22.9650693],[120.3632988,22.9651084],[120.3631265,22.965115],[120.3628942,22.9650947],[120.3627751,22.9650751],[120.362615,22.9650777],[120.3619903,22.9651326],[120.361936,22.9651373],[120.3614929,22.9651755],[120.3614155,22.9651784],[120.3613762,22.9651798],[120.3612641,22.9651648],[120.3611683,22.9651218],[120.3608905,22.9649197],[120.3608266,22.9648839],[120.3607362,22.9648578],[120.3602581,22.9647932],[120.3598911,22.9647641]]}},{"type":"Feature","properties":{"bus":"yes","highway":"bus_stop","name":"\u4ef0\u9f8d\u6a4b","network":"\u81fa\u5357\u5e02\u516c\u8eca","note":"\u8208\u5357\u5ba2\u904b","operator":"\u81fa\u5357\u5e02\u516c\u8eca","public_transport":"platform"},"geometry":{"type":"Point","coordinates":[120.3446191,22.9672267]}},{"type":"Feature","properties":{"bus":"yes","highway":"bus_stop","name":"\u725b\u7a20\u57d4","network":"\u81fa\u5357\u5e02\u516c\u8eca","note":"\u8208\u5357\u5ba2\u904b","operator":"\u81fa\u5357\u5e02\u516c\u8eca","public_transport":"platform"},"geometry":{"type":"Point","coordinates":[120.3495286,22.9679408]}},{"type":"Feature","properties":{"bus":"yes","highway":"bus_stop","name":"\u4e5d\u5929\u5bae","network":"\u81fa\u5357\u5e02\u516c\u8eca","note":"\u8208\u5357\u5ba2\u904b","operator":"\u81fa\u5357\u5e02\u516c\u8eca","public_transport":"platform"},"geometry":{"type":"Point","coordinates":[120.3528543,22.9683424]}},{"type":"Feature","properties":{"bus":"yes","highway":"bus_stop","name":"\u9f8d\u5d0e","network":"\u81fa\u5357\u5e02\u516c\u8eca","note":"\u8208\u5357\u5ba2\u904b","operator":"\u81fa\u5357\u5e02\u516c\u8eca","public_transport":"platform"},"geometry":{"type":"Point","coordinates":[120.3601423,22.9647505]}},{"type":"Feature","properties":{"from":"\u5b89\u5de5\u5340","name":"\u7d05\u5e79\u7dda(\u5ef6\u99db\u9f8d\u5d0e_\u8fd4)","public_transport:version":"2","ref":"\u7d05\u5e79\u7dda","route":"bus","to":"\u95dc\u5edf","type":"route"},"geometry":{"type":"LineString","coordinates":[[120.3635247,22.9649899],[120.3633798,22.9650693],[120.3632988,22.9651084],[120.3631265,22.965115],[120.3628942,22.9650947],[120.3627751,22.9650751],[120.362615,22.9650777],[120.3619903,22.9651326],[120.361936,22.9651373],[120.3614929,22.9651755],[120.3614155,22.9651784],[120.3613762,22.9651798],[120.3612641,22.9651648],[120.3611683,22.9651218],[120.3608905,22.9649197],[120.3608266,22.9648839],[120.3607362,22.9648578],[120.3602581,22.9647932],[120.3598911,22.9647641]]}},{"type":"Feature","properties":{"from":"\u5b89\u5de5\u5340","name":"\u7d05\u5e79\u7dda(\u5ef6\u99db\u9f8d\u5d0e_\u8fd4)","public_transport:version":"2","ref":"\u7d05\u5e79\u7dda","route":"bus","to":"\u95dc\u5edf","type":"route"},"geometry":{"type":"LineString","coordinates":[[120.3598911,22.9647641],[120.3598302,22.9647782],[120.3597905,22.9648005],[120.3597572,22.9648416],[120.3596773,22.9649772],[120.3595864,22.9651398],[120.3595214,22.9652786],[120.359494,22.9653776],[120.3595125,22.9654406],[120.3595564,22.9655144],[120.3597812,22.9658041],[120.3598076,22.9658539],[120.3598227,22.965898],[120.3598281,22.9659795],[120.3598174,22.966098],[120.3595706,22.9666191],[120.359525,22.9666784],[120.3594553,22.9667327],[120.3593238,22.966787],[120.3582974,22.9670383],[120.3581334,22.9671346],[120.358054,22.9672483],[120.3579311,22.9674747],[120.3578678,22.967531],[120.3577741,22.967589],[120.3574768,22.9676999],[120.3569283,22.967913]]}},{"type":"Feature","properties":{"from":"\u5b89\u5de5\u5340","name":"\u7d05\u5e79\u7dda(\u5ef6\u99db\u9f8d\u5d0e_\u8fd4)","public_transport:version":"2","ref":"\u7d05\u5e79\u7dda","route":"bus","to":"\u95dc\u5edf","type":"route"},"geometry":{"type":"LineString","coordinates":[[120.3569283,22.967913],[120.3567683,22.9679312],[120.3565019,22.967986],[120.3562869,22.9680829],[120.3560725,22.9682313],[120.3558927,22.9684366],[120.3557248,22.9686392],[120.3556125,22.9687731],[120.3555061,22.968872],[120.3553383,22.9689684],[120.3551572,22.9690272],[120.3549763,22.9690383],[120.3548262,22.9690064],[120.3546714,22.968948],[120.3544039,22.9688359],[120.3541099,22.9687084],[120.3538092,22.968616],[120.3532814,22.9685287],[120.3532095,22.9685183],[120.3523177,22.9683898],[120.3519893,22.9683415],[120.3513556,22.968242],[120.3499132,22.9680513]]}},{"type":"Feature","properties":{"from":"\u5b89\u5de5\u5340","name":"\u7d05\u5e79\u7dda(\u5ef6\u99db\u9f8d\u5d0e_\u8fd4)","public_transport:version":"2","ref":"\u7d05\u5e79\u7dda","route":"bus","to":"\u95dc\u5edf","type":"route"},"geometry":{"type":"LineString","coordinates":[[120.3499132,22.9680513],[120.3493898,22.9679767],[120.3488288,22.9678967],[120.3486442,22.9678704],[120.3470394,22.9676449],[120.3442762,22.9672539],[120.343984,22.967157],[120.3437904,22.9670786],[120.3435987,22.9669759],[120.343351,22.9668438]]}},{"type":"Feature","properties":{"from":"\u5b89\u5de5\u5340","name":"\u7d05\u5e79\u7dda(\u5ef6\u99db\u9f8d\u5d0e_\u8fd4)","public_transport:version":"2","ref":"\u7d05\u5e79\u7dda","route":"bus","to":"\u95dc\u5edf","type":"route"},"geometry":{"type":"LineString","coordinates":[[120.343351,22.9668438],[120.3425855,22.9663614]]}},{"type":"Feature","properties":{"from":"\u5b89\u5de5\u5340","name":"\u7d05\u5e79\u7dda(\u5ef6\u99db\u9f8d\u5d0e_\u8fd4)","public_transport:version":"2","ref":"\u7d05\u5e79\u7dda","route":"bus","to":"\u95dc\u5edf","type":"route"},"geometry":{"type":"LineString","coordinates":[[120.3425855,22.9663614],[120.342032,22.9660395],[120.3416278,22.9657899],[120.34136,22.9655722],[120.3408596,22.9650338],[120.3405468,22.9646652],[120.3403614,22.9644837],[120.3401793,22.9643459],[120.3400864,22.9643075],[120.3393817,22.9640166]]}},{"type":"Feature","properties":{"from":"\u5b89\u5de5\u5340","name":"\u7d05\u5e79\u7dda(\u5ef6\u99db\u9f8d\u5d0e_\u8fd4)","public_transport:version":"2","ref":"\u7d05\u5e79\u7dda","route":"bus","to":"\u95dc\u5edf","type":"route"},"geometry":{"type":"LineString","coordinates":[[120.3393817,22.9640166],[120.3380044,22.9634721],[120.3374926,22.963346]]}},{"type":"Feature","properties":{"bus":"yes","highway":"bus_stop","name":"\u9f8d\u5d0e","network":"\u81fa\u5357\u5e02\u516c\u8eca","note":"\u8208\u5357\u5ba2\u904b","operator":"\u81fa\u5357\u5e02\u516c\u8eca","public_transport":"platform"},"geometry":{"type":"Point","coordinates":[120.3601783,22.9648345]}},{"type":"Feature","properties":{"bus":"yes","highway":"bus_stop","name":"\u4e5d\u5929\u5bae","network":"\u81fa\u5357\u5e02\u516c\u8eca","note":"\u8208\u5357\u5ba2\u904b","operator":"\u81fa\u5357\u5e02\u516c\u8eca","public_transport":"platform"},"geometry":{"type":"Point","coordinates":[120.3528314,22.968607]}},{"type":"Feature","properties":{"bus":"yes","highway":"bus_stop","name":"\u725b\u7a20\u57d4","network":"\u81fa\u5357\u5e02\u516c\u8eca","note":"\u8208\u5357\u5ba2\u904b","operator":"\u81fa\u5357\u5e02\u516c\u8eca","public_transport":"platform"},"geometry":{"type":"Point","coordinates":[120.3494819,22.9680841]}},{"type":"Feature","properties":{"bus":"yes","highway":"bus_stop","name":"\u4ef0\u9f8d\u6a4b","network":"\u81fa\u5357\u5e02\u516c\u8eca","note":"\u8208\u5357\u5ba2\u904b","operator":"\u81fa\u5357\u5e02\u516c\u8eca","public_transport":"platform"},"geometry":{"type":"Point","coordinates":[120.344298,22.9673428]}}]}