{"type":"FeatureCollection","features":[{"type":"Feature","properties":{"bus":"yes","highway":"bus_stop","name":"\u53f0\u5357\u516c\u5712(\u516c\u5712\u8def)","network":"\u81fa\u5357\u5e02\u516c\u8eca","operator":"\u81fa\u5357\u5e02\u516c\u8eca","public_transport":"platform"},"geometry":{"type":"Point","coordinates":[120.2090443,23.001795]}},{"type":"Feature","properties":{"bench":"yes","bus":"yes","highway":"bus_stop","name":"\u81fa\u5357\u706b\u8eca\u7ad9(\u5317\u7ad9)","network":"\u81fa\u5357\u5e02\u516c\u8eca","note":"\u8208\u5357\u5ba2\u904b","operator":"\u81fa\u5357\u5e02\u516c\u8eca","public_transport":"platform","ref":"9274","shelter":"yes"},"geometry":{"type":"Point","coordinates":[120.2114063,22.9976794]}},{"type":"Feature","properties":{"bench":"yes","bus":"yes","highway":"bus_stop","name":"\u53f0\u5357\u516c\u5712(\u5317\u9580\u8def)","network":"\u81fa\u5357\u5e02\u516c\u8eca","operator":"\u81fa\u5357\u5e02\u516c\u8eca","public_transport":"platform","shelter":"yes"},"geometry":{"type":"Point","coordinates":[120.2129283,23.0006975]}},{"type":"Feature","properties":{"bus":"yes","highway":"bus_stop","name":"\u53f0\u5357\u4e8c\u4e2d","network":"\u81fa\u5357\u5e02\u516c\u8eca","operator":"\u81fa\u5357\u5e02\u516c\u8eca","public_transport":"platform"},"geometry":{"type":"Point","coordinates":[120.2135197,23.0035925]}},{"type":"Feature","properties":{"bus":"yes","highway":"bus_stop","name":"\u4e2d\u6a13","network":"\u81fa\u5357\u5e02\u516c\u8eca","operator":"\u81fa\u5357\u5e02\u516c\u8eca","public_transport":"platform"},"geometry":{"type":"Point","coordinates":[120.2198969,23.0071668]}},{"type":"Feature","properties":{"bus":"yes","highway":"bus_stop","name":"\u958b\u5143","network":"\u81fa\u5357\u5e02\u516c\u8eca","operator":"\u81fa\u5357\u5e02\u516c\u8eca","public_transport":"platform"},"geometry":{"type":"Point","coordinates":[120.2235916,23.009285]}},{"type":"Feature","properties":{"bus":"yes","highway":"bus_stop","name":"\u5d11\u5c71\u4e2d\u5b78","network":"\u81fa\u5357\u5e02\u516c\u8eca","operator":"\u81fa\u5357\u5e02\u516c\u8eca","public_transport":"platform","ref":"0549"},"geometry":{"type":"Point","coordinates":[120.225785,23.0108783]}},{"type":"Feature","properties":{"bus":"yes","highway":"bus_stop","name":"\u5357\u5de5\u5bbf\u820d","network":"\u81fa\u5357\u5e02\u516c\u8eca","operator":"\u81fa\u5357\u5e02\u516c\u8eca","public_transport":"platform"},"geometry":{"type":"Point","coordinates":[120.2295788,23.0130217]}},{"type":"Feature","properties":{"bench":"no","bus":"yes","highway":"bus_stop","name":"\u5357\u5de5\u793e\u5340","network":"\u81fa\u5357\u5e02\u516c\u8eca","operator":"\u81fa\u5357\u5e02\u516c\u8eca","public_transport":"platform","shelter":"no"},"geometry":{"type":"Point","coordinates":[120.2346667,23.0146761]}},{"type":"Feature","properties":{"bus":"yes","highway":"bus_stop","name":"\u4e2d\u8208","network":"\u81fa\u5357\u5e02\u516c\u8eca","note":"\u8208\u5357\u5ba2\u904b","operator":"\u81fa\u5357\u5e02\u516c\u8eca","public_transport":"platform"},"geometry":{"type":"Point","coordinates":[120.2403232,23.0183708]}},{"type":"Feature","properties":{"bus":"yes","highway":"bus_stop","name":"\u5eb7\u798f\u65b0\u57ce","network":"\u81fa\u5357\u5e02\u516c\u8eca","note":"\u8208\u5357\u5ba2\u904b","operator":"\u81fa\u5357\u5e02\u516c\u8eca","public_transport":"platform"},"geometry":{"type":"Point","coordinates":[120.2434212,23.0200695]}},{"type":"Feature","properties":{"bus":"yes","highway":"bus_stop","name":"\u4e8c\u738b","network":"\u81fa\u5357\u5e02\u516c\u8eca","note":"\u8208\u5357\u5ba2\u904b","operator":"\u81fa\u5357\u5e02\u516c\u8eca","public_transport":"platform"},"geometry":{"type":"Point","coordinates":[120.247393,23.0211641]}},{"type":"Feature","properties":{"bus":"yes","highway":"bus_stop","name":"\u53f0\u5357\u5927\u5b78\u9644\u4e2d","network":"\u81fa\u5357\u5e02\u516c\u8eca","note":"\u8208\u5357\u5ba2\u904b","operator":"\u81fa\u5357\u5e02\u516c\u8eca","public_transport":"platform"},"geometry":{"type":"Point","coordinates":[120.2522537,23.0234622]}},{"type":"Feature","properties":{"bus":"yes","highway":"bus_stop","name":"\u6c38\u5eb7\u8fb2\u6703","network":"\u81fa\u5357\u5e02\u516c\u8eca","note":"\u8208\u5357\u5ba2\u904b","operator":"\u81fa\u5357\u5e02\u516c\u8eca","public_transport":"platform"},"geometry":{"type":"Point","coordinates":[120.254865,23.0249199]}},{"type":"Feature","properties":{"bus":"yes","highway":"bus_stop","name":"\u6c38\u5eb7","network":"\u81fa\u5357\u5e02\u516c\u8eca","note":"\u8208\u5357\u5ba2\u904b","operator":"\u81fa\u5357\u5e02\u516c\u8eca","public_transport":"platform"},"geometry":{"type":"Point","coordinates":[120.2593743,23.0267872]}},{"type":"Feature","properties":{"bus":"yes","highway":"bus_stop","name":"\u9f8d\u6f6d\u53e3","network":"\u81fa\u5357\u5e02\u516c\u8eca","note":"\u8208\u5357\u5ba2\u904b","operator":"\u81fa\u5357\u5e02\u516c\u8eca","public_transport":"platform"},"geometry":{"type":"Point","coordinates":[120.2656256,23.0288814]}},{"type":"Feature","properties":{"bus":"yes","highway":"bus_stop","name":"\u5fb7\u82b3\u793e\u5340","network":"\u81fa\u5357\u5e02\u516c\u8eca","note":"\u8208\u5357\u5ba2\u904b","operator":"\u81fa\u5357\u5e02\u516c\u8eca","public_transport":"platform"},"geometry":{"type":"Point","coordinates":[120.2687608,23.0291701]}},{"type":"Feature","properties":{"bus":"yes","highway":"bus_stop","name":"\u897f\u52e2","network":"\u81fa\u5357\u5e02\u516c\u8eca","note":"\u8208\u5357\u5ba2\u904b","operator":"\u81fa\u5357\u5e02\u516c\u8eca","public_transport":"platform"},"geometry":{"type":"Point","coordinates":[120.274397,23.0300406]}},{"type":"Feature","properties":{"bus":"yes","highway":"bus_stop","name":"\u897f\u52e2\u6771","network":"\u81fa\u5357\u5e02\u516c\u8eca","note":"\u8208\u5357\u5ba2\u904b","operator":"\u81fa\u5357\u5e02\u516c\u8eca","public_transport":"platform"},"geometry":{"type":"Point","coordinates":[120.2773961,23.0307604]}},{"type":"Feature","properties":{"bus":"yes","highway":"bus_stop","name":"\u5357\u5149\u85e5\u5ee0","network":"\u81fa\u5357\u5e02\u516c\u8eca","note":"\u8208\u5357\u5ba2\u904b","operator":"\u81fa\u5357\u5e02\u516c\u8eca","public_transport":"platform"},"geometry":{"type":"Point","coordinates":[120.2894496,23.0347199]}},{"type":"Feature","properties":{"bus":"yes","highway":"bus_stop","name":"\u4fdd\u751f\u5927\u5e1d\u5bae","network":"\u81fa\u5357\u5e02\u516c\u8eca","note":"\u8208\u5357\u5ba2\u904b","operator":"\u81fa\u5357\u5e02\u516c\u8eca","public_transport":"platform"},"geometry":{"type":"Point","coordinates":[120.2954475,23.0356714]}},{"type":"Feature","properties":{"bus":"yes","highway":"bus_stop","name":"\u552a\u53e3","network":"\u81fa\u5357\u5e02\u516c\u8eca","note":"\u8208\u5357\u5ba2\u904b","operator":"\u81fa\u5357\u5e02\u516c\u8eca","public_transport":"platform"},"geometry":{"type":"Point","coordinates":[120.3006929,23.0362595]}},{"type":"Feature","properties":{"bus":"yes","highway":"bus_stop","name":"\u6e05\u6c34\u5bfa","network":"\u81fa\u5357\u5e02\u516c\u8eca","note":"\u8208\u5357\u5ba2\u904b","operator":"\u81fa\u5357\u5e02\u516c\u8eca","public_transport":"platform"},"geometry":{"type":"Point","coordinates":[120.3050884,23.035676]}},{"type":"Feature","properties":{"bench":"yes","bus":"yes","highway":"bus_stop","name":"\u65b0\u5316\u7ad9","network":"\u81fa\u5357\u5e02\u516c\u8eca","operator":"\u81fa\u5357\u5e02\u516c\u8eca","public_transport":"platform","ref":"2225","shelter":"yes"},"geometry":{"type":"Point","coordinates":[120.3094786,23.0360056]}},{"type":"Feature","properties":{"bus":"yes","highway":"bus_stop","name":"\u65b0\u5316\u516c\u6240","network":"\u81fa\u5357\u5e02\u516c\u8eca","note":"\u8208\u5357\u5ba2\u904b","operator":"\u81fa\u5357\u5e02\u516c\u8eca","public_transport":"platform"},"geometry":{"type":"Point","coordinates":[120.3110583,23.0383694]}},{"type":"Feature","properties":{"bus":"yes","highway":"bus_stop","name":"\u65b0\u5316\u4fdd\u990a\u5ee0","network":"\u81fa\u5357\u5e02\u516c\u8eca","note":"\u8208\u5357\u5ba2\u904b","operator":"\u81fa\u5357\u5e02\u516c\u8eca","public_transport":"platform"},"geometry":{"type":"Point","coordinates":[120.3143887,23.0430822]}},{"type":"Feature","properties":{"bus":"yes","highway":"bus_stop","name":"\u4ec1\u611b\u4e4b\u5bb6","network":"\u81fa\u5357\u5e02\u516c\u8eca","note":"\u8208\u5357\u5ba2\u904b","operator":"\u81fa\u5357\u5e02\u516c\u8eca","public_transport":"platform"},"geometry":{"type":"Point","coordinates":[120.3198416,23.0493397]}},{"type":"Feature","properties":{"bus":"yes","highway":"bus_stop","name":"\u755c\u8a66\u6240","network":"\u81fa\u5357\u5e02\u516c\u8eca","note":"\u8208\u5357\u5ba2\u904b","operator":"\u81fa\u5357\u5e02\u516c\u8eca","public_transport":"platform"},"geometry":{"type":"Point","coordinates":[120.3295906,23.059326]}},{"type":"Feature","properties":{"bus":"yes","highway":"bus_stop","name":"\u53f0\u5357\u91ab\u9662\u65b0\u5316\u5206\u9662","network":"\u81fa\u5357\u5e02\u516c\u8eca","note":"\u8208\u5357\u5ba2\u904b","operator":"\u81fa\u5357\u5e02\u516c\u8eca","public_transport":"platform"},"geometry":{"type":"Point","coordinates":[120.3355939,23.0632747]}},{"type":"Feature","properties":{"bus":"yes","highway":"bus_stop","name":"\u63a5\u5929\u5bfa","network":"\u81fa\u5357\u5e02\u516c\u8eca","note":"\u8208\u5357\u5ba2\u904b","operator":"\u81fa\u5357\u5e02\u516c\u8eca","public_transport":"platform"},"geometry":{"type":"Point","coordinates":[120.3461636,23.0671033]}},{"type":"Feature","properties":{"bus":"yes","highway":"bus_stop","name":"\u90a3\u62d4\u6797","network":"\u81fa\u5357\u5e02\u516c\u8eca","note":"\u8208\u5357\u5ba2\u904b","operator":"\u81fa\u5357\u5e02\u516c\u8eca","public_transport":"platform"},"geometry":{"type":"Point","coordinates":[120.3504426,23.0679022]}},{"type":"Feature","properties":{"bus":"yes","highway":"bus_stop","name":"\u5343\u9ce5\u6a4b","network":"\u81fa\u5357\u5e02\u516c\u8eca","note":"\u8208\u5357\u5ba2\u904b","operator":"\u81fa\u5357\u5e02\u516c\u8eca","public_transport":"platform"},"geometry":{"type":"Point","coordinates":[120.3558047,23.0700145]}},{"type":"Feature","properties":{"bus":"yes","highway":"bus_stop","name":"\u9699\u5b50\u53e3","network":"\u81fa\u5357\u5e02\u516c\u8eca","note":"\u8208\u5357\u5ba2\u904b","operator":"\u81fa\u5357\u5e02\u516c\u8eca","public_transport":"platform"},"geometry":{"type":"Point","coordinates":[120.363666,23.0762113]}},{"type":"Feature","properties":{"bus":"yes","highway":"bus_stop","name":"\u8c50\u5fb7","network":"\u81fa\u5357\u5e02\u516c\u8eca","note":"\u8208\u5357\u5ba2\u904b","operator":"\u81fa\u5357\u5e02\u516c\u8eca","public_transport":"platform"},"geometry":{"type":"Point","coordinates":[120.3686394,23.0790364]}},{"type":"Feature","properties":{"bus":"yes","highway":"bus_stop","name":"\u5927\u7acb\u7aaf\u696d","network":"\u81fa\u5357\u5e02\u516c\u8eca","note":"\u8208\u5357\u5ba2\u904b","operator":"\u81fa\u5357\u5e02\u516c\u8eca","public_transport":"platform"},"geometry":{"type":"Point","coordinates":[120.3746637,23.0778973]}},{"type":"Feature","properties":{"bus":"yes","highway":"bus_stop","name":"\u5149\u548c\u91cc","network":"\u81fa\u5357\u5e02\u516c\u8eca","note":"\u8208\u5357\u5ba2\u904b","operator":"\u81fa\u5357\u5e02\u516c\u8eca","public_transport":"platform"},"geometry":{"type":"Point","coordinates":[120.377658,23.0698946]}},{"type":"Feature","properties":{"bus":"yes","highway":"bus_stop","name":"\u4e0b\u83dc\u5bee","network":"\u81fa\u5357\u5e02\u516c\u8eca","operator":"\u81fa\u5357\u5e02\u516c\u8eca","public_transport":"platform","ref":"3000"},"geometry":{"type":"Point","coordinates":[120.3823392,23.0650175]}},{"type":"Feature","properties":{"bus":"yes","highway":"bus_stop","name":"\u9802\u83dc\u5bee","network":"\u81fa\u5357\u5e02\u516c\u8eca","operator":"\u81fa\u5357\u5e02\u516c\u8eca","public_transport":"platform","ref":"3001"},"geometry":{"type":"Point","coordinates":[120.3863737,23.0642445]}},{"type":"Feature","properties":{"bench":"yes","bus":"yes","highway":"bus_stop","name":"\u5de6\u93ae\u5316\u77f3\u9928","network":"\u81fa\u5357\u5e02\u516c\u8eca","operator":"\u81fa\u5357\u5e02\u516c\u8eca","public_transport":"platform","ref":"5504","shelter":"yes"},"geometry":{"type":"Point","coordinates":[120.3895601,23.0627751]}},{"type":"Feature","properties":{"bus":"yes","highway":"bus_stop","name":"\u9f8d\u6e9d","network":"\u81fa\u5357\u5e02\u516c\u8eca","note":"\u8208\u5357\u5ba2\u904b","operator":"\u81fa\u5357\u5e02\u516c\u8eca","public_transport":"platform"},"geometry":{"type":"Point","coordinates":[120.3922559,23.0602269]}},{"type":"Feature","properties":{"bus":"yes","highway":"bus_stop","name":"\u90a6\u5bee","network":"\u81fa\u5357\u5e02\u516c\u8eca","note":"\u8208\u5357\u5ba2\u904b","operator":"\u81fa\u5357\u5e02\u516c\u8eca","public_transport":"platform"},"geometry":{"type":"Point","coordinates":[120.3970086,23.0582169]}},{"type":"Feature","properties":{"bus":"yes","highway":"bus_stop","name":"\u6a44\u6b16\u5c71","network":"\u81fa\u5357\u5e02\u516c\u8eca","note":"\u8208\u5357\u5ba2\u904b","operator":"\u81fa\u5357\u5e02\u516c\u8eca","public_transport":"platform"},"geometry":{"type":"Point","coordinates":[120.4004243,23.0560221]}},{"type":"Feature","properties":{"bus":"yes","highway":"bus_stop","name":"\u5de6\u93ae\u5206\u99d0\u6240","network":"\u81fa\u5357\u5e02\u516c\u8eca","note":"\u8208\u5357\u5ba2\u904b","operator":"\u81fa\u5357\u5e02\u516c\u8eca","public_transport":"platform"},"geometry":{"type":"Point","coordinates":[120.4048505,23.0554545]}},{"type":"Feature","properties":{"bus":"yes","highway":"bus_stop","name":"\u5de6\u93ae","network":"\u81fa\u5357\u5e02\u516c\u8eca","note":"\u8208\u5357\u5ba2\u904b","operator":"\u81fa\u5357\u5e02\u516c\u8eca","public_transport":"platform"},"geometry":{"type":"Point","coordinates":[120.4075638,23.0582417]}},{"type":"Feature","properties":{"bus":"yes","highway":"bus_stop","name":"\u6771\u5c4f\u539d","network":"\u81fa\u5357\u5e02\u516c\u8eca","note":"\u8208\u5357\u5ba2\u904b","operator":"\u81fa\u5357\u5e02\u516c\u8eca","public_transport":"platform"},"geometry":{"type":"Point","coordinates":[120.4132322,23.0601645]}},{"type":"Feature","properties":{"bus":"yes","highway":"bus_stop","name":"\u7766\u5149\u91cc","network":"\u81fa\u5357\u5e02\u516c\u8eca","note":"\u8208\u5357\u5ba2\u904b","operator":"\u81fa\u5357\u5e02\u516c\u8eca","public_transport":"platform"},"geometry":{"type":"Point","coordinates":[120.4161322,23.0600543]}},{"type":"Feature","properties":{"bus":"yes","highway":"bus_stop","name":"\u7af9\u5751","network":"\u81fa\u5357\u5e02\u516c\u8eca","note":"\u8208\u5357\u5ba2\u904b","operator":"\u81fa\u5357\u5e02\u516c\u8eca","public_transport":"platform"},"geometry":{"type":"Point","coordinates":[120.4220959,23.0653879]}},{"type":"Feature","properties":{"bus":"yes","highway":"bus_stop","name":"\u83bf\u6850\u8173","network":"\u81fa\u5357\u5e02\u516c\u8eca","note":"\u8208\u5357\u5ba2\u904b","operator":"\u81fa\u5357\u5e02\u516c\u8eca","public_transport":"platform"},"geometry":{"type":"Point","coordinates":[120.4234827,23.0735446]}},{"type":"Feature","properties":{"bus":"yes","highway":"bus_stop","name":"\u5f8c\u5751","network":"\u81fa\u5357\u5e02\u516c\u8eca","note":"\u8208\u5357\u5ba2\u904b","operator":"\u81fa\u5357\u5e02\u516c\u8eca","public_transport":"platform"},"geometry":{"type":"Point","coordinates":[120.4245796,23.0788791]}},{"type":"Feature","properties":{"bus":"yes","highway":"bus_stop","name":"\u4e5d\u5c64\u6797","network":"\u81fa\u5357\u5e02\u516c\u8eca","note":"\u8208\u5357\u5ba2\u904b","operator":"\u81fa\u5357\u5e02\u516c\u8eca","public_transport":"platform"},"geometry":{"type":"Point","coordinates":[120.4275358,23.082667]}},{"type":"Feature","properties":{"bus":"yes","highway":"bus_stop","name":"\u611b\u6587\u5c71","network":"\u81fa\u5357\u5e02\u516c\u8eca","note":"\u8208\u5357\u5ba2\u904b","operator":"\u81fa\u5357\u5e02\u516c\u8eca","public_transport":"platform"},"geometry":{"type":"Point","coordinates":[120.432524,23.0894823]}},{"type":"Feature","properties":{"bus":"yes","highway":"bus_stop","name":"\u677e\u8173","network":"\u81fa\u5357\u5e02\u516c\u8eca","note":"\u8208\u5357\u5ba2\u904b","operator":"\u81fa\u5357\u5e02\u516c\u8eca","public_transport":"platform"},"geometry":{"type":"Point","coordinates":[120.4356932,23.0935568]}},{"type":"Feature","properties":{"bus":"yes","highway":"bus_stop","name":"\u5012\u677e","network":"\u81fa\u5357\u5e02\u516c\u8eca","note":"\u8208\u5357\u5ba2\u904b","operator":"\u81fa\u5357\u5e02\u516c\u8eca","public_transport":"platform"},"geometry":{"type":"Point","coordinates":[120.4433916,23.0981631]}},{"type":"Feature","properties":{"bus":"yes","highway":"bus_stop","name":"\u5289\u9673","network":"\u81fa\u5357\u5e02\u516c\u8eca","note":"\u8208\u5357\u5ba2\u904b","operator":"\u81fa\u5357\u5e02\u516c\u8eca","public_transport":"platform"},"geometry":{"type":"Point","coordinates":[120.4479088,23.1055915]}},{"type":"Feature","properties":{"bus":"yes","highway":"bus_stop","name":"\u671b\u660e\u53e3","network":"\u81fa\u5357\u5e02\u516c\u8eca","note":"\u8208\u5357\u5ba2\u904b","operator":"\u81fa\u5357\u5e02\u516c\u8eca","public_transport":"platform"},"geometry":{"type":"Point","coordinates":[120.4506215,23.1084438]}},{"type":"Feature","properties":{"bus":"yes","highway":"bus_stop","name":"\u7389\u5c71\u65b0\u57ce","network":"\u81fa\u5357\u5e02\u516c\u8eca","note":"\u8208\u5357\u5ba2\u904b","operator":"\u81fa\u5357\u5e02\u516c\u8eca","public_transport":"platform"},"geometry":{"type":"Point","coordinates":[120.4542403,23.1112688]}},{"type":"Feature","properties":{"bus":"yes","highway":"bus_stop","name":"\u65b0\u5e84","network":"\u81fa\u5357\u5e02\u516c\u8eca","note":"\u8208\u5357\u5ba2\u904b","operator":"\u81fa\u5357\u5e02\u516c\u8eca","public_transport":"platform"},"geometry":{"type":"Point","coordinates":[120.4580231,23.1155012]}},{"type":"Feature","properties":{"bus":"yes","highway":"bus_stop","name":"\u7389\u4e95\u5de5\u5546","network":"\u81fa\u5357\u5e02\u516c\u8eca","note":"\u8208\u5357\u5ba2\u904b","operator":"\u81fa\u5357\u5e02\u516c\u8eca","public_transport":"platform"},"geometry":{"type":"Point","coordinates":[120.4593352,23.1214573]}},{"type":"Feature","properties":{"bus":"yes","highway":"bus_stop","name":"\u7389\u4e95\u7ad9","network":"\u81fa\u5357\u5e02\u516c\u8eca","operator":"\u81fa\u5357\u5e02\u516c\u8eca","public_transport":"platform","ref":"7115"},"geometry":{"type":"Point","coordinates":[120.4606207,23.1239876]}},{"type":"Feature","properties":{"from":"\u81fa\u5357\u516c\u5712","name":"\u7da0\u5e79\u7dda(\u5f80\u7a0b)","public_transport:version":"2","ref":"\u7da0\u5e79\u7dda","route":"bus","to":"\u7389\u4e95","type":"route"},"geometry":{"type":"LineString","coordinates":[[120.2092282,23.0019348],[120.20873,23.0010362]]}},{"type":"Feature","properties":{"from":"\u81fa\u5357\u516c\u5712","name":"\u7da0\u5e79\u7dda(\u5f80\u7a0b)","public_transport:version":"2","ref":"\u7da0\u5e79\u7dda","route":"bus","to":"\u7389\u4e95","type":"route"},"geometry":{"type":"LineString","coordinates":[[120.20873,23.0010362],[120.2080177,22.9998488],[120.2079162,22.9996735],[120.2074123,22.9988316],[120.2069995,22.9980796]]}},{"type":"Feature","properties":{"from":"\u81fa\u5357\u516c\u5712","name":"\u7da0\u5e79\u7dda(\u5f80\u7a0b)","public_transport:version":"2","ref":"\u7da0\u5e79\u7dda","route":"bus","to":"\u7389\u4e95","type":"route"},"geometry":{"type":"LineString","coordinates":[[120.2069995,22.9980796],[120.2069717,22.9980172]]}},{"type":"Feature","properties":{"from":"\u81fa\u5357\u516c\u5712","name":"\u7da0\u5e79\u7dda(\u5f80\u7a0b)","public_transport:version":"2","ref":"\u7da0\u5e79\u7dda","route":"bus","to":"\u7389\u4e95","type":"route"},"geometry":{"type":"LineString","coordinates":[[120.2069717,22.9980172],[120.2076039,22.9979144],[120.2086374,22.9977449],[120.2094626,22.9976123],[120.210203,22.997492],[120.2110557,22.9973534],[120.2112224,22.9973263]]}},{"type":"Feature","properties":{"from":"\u81fa\u5357\u516c\u5712","name":"\u7da0\u5e79\u7dda(\u5f80\u7a0b)","public_transport:version":"2","ref":"\u7da0\u5e79\u7dda","route":"bus","to":"\u7389\u4e95","type":"route"},"geometry":{"type":"LineString","coordinates":[[120.2112224,22.9973263],[120.2112421,22.997198],[120.2112908,22.9970885],[120.2113768,22.9969836],[120.211457,22.9969172],[120.2115406,22.9968838]]}},{"type":"Feature","properties":{"from":"\u81fa\u5357\u516c\u5712","name":"\u7da0\u5e79\u7dda(\u5f80\u7a0b)","public_transport:version":"2","ref":"\u7da0\u5e79\u7dda","route":"bus","to":"\u7389\u4e95","type":"route"},"geometry":{"type":"LineString","coordinates":[[120.2115406,22.9968838],[120.2116717,22.9968407]]}},{"type":"Feature","properties":{"from":"\u81fa\u5357\u516c\u5712","name":"\u7da0\u5e79\u7dda(\u5f80\u7a0b)","public_transport:version":"2","ref":"\u7da0\u5e79\u7dda","route":"bus","to":"\u7389\u4e95","type":"route"},"geometry":{"type":"LineString","coordinates":[[120.2116717,22.9968407],[120.2117548,22.9968827],[120.212069,22.9968492]]}},{"type":"Feature","properties":{"from":"\u81fa\u5357\u516c\u5712","name":"\u7da0\u5e79\u7dda(\u5f80\u7a0b)","public_transport:version":"2","ref":"\u7da0\u5e79\u7dda","route":"bus","to":"\u7389\u4e95","type":"route"},"geometry":{"type":"LineString","coordinates":[[120.212069,22.9968492],[120.2121649,22.9970622]]}},{"type":"Feature","properties":{"from":"\u81fa\u5357\u516c\u5712","name":"\u7da0\u5e79\u7dda(\u5f80\u7a0b)","public_transport:version":"2","ref":"\u7da0\u5e79\u7dda","route":"bus","to":"\u7389\u4e95","type":"route"},"geometry":{"type":"LineString","coordinates":[[120.2121649,22.9970622],[120.2122133,22.9972959],[120.212168,22.9973563],[120.2121286,22.9973921],[120.2120959,22.9974181],[120.2120524,22.997444],[120.2120074,22.9974624],[120.2119414,22.9974731],[120.2118275,22.9974837],[120.2117686,22.9974926],[120.2116821,22.99749],[120.2116207,22.9974678],[120.2115602,22.9973916],[120.2115296,22.9973406],[120.2115066,22.997283],[120.2115271,22.9971846],[120.2115746,22.9971088],[120.2116146,22.9970518],[120.21172,22.9970226],[120.2118512,22.9969848],[120.2120278,22.9969658],[120.2120928,22.9969906],[120.2121649,22.9970622]]}},{"type":"Feature","properties":{"from":"\u81fa\u5357\u516c\u5712","name":"\u7da0\u5e79\u7dda(\u5f80\u7a0b)","public_transport:version":"2","ref":"\u7da0\u5e79\u7dda","route":"bus","to":"\u7389\u4e95","type":"route"},"geometry":{"type":"LineString","coordinates":[[120.2122133,22.9972959],[120.2122397,22.9974216],[120.2122751,22.997603]]}},{"type":"Feature","properties":{"from":"\u81fa\u5357\u516c\u5712","name":"\u7da0\u5e79\u7dda(\u5f80\u7a0b)","public_transport:version":"2","ref":"\u7da0\u5e79\u7dda","route":"bus","to":"\u7389\u4e95","type":"route"},"geometry":{"type":"LineString","coordinates":[[120.2122751,22.997603],[120.2119739,22.9975969],[120.2117832,22.9976462],[120.2115914,22.9976739],[120.2115028,22.9976448],[120.2114348,22.9976192],[120.2113762,22.9975758],[120.211274,22.9974909],[120.211253,22.9974282],[120.2112366,22.9973829]]}},{"type":"Feature","properties":{"from":"\u81fa\u5357\u516c\u5712","name":"\u7da0\u5e79\u7dda(\u5f80\u7a0b)","public_transport:version":"2","ref":"\u7da0\u5e79\u7dda","route":"bus","to":"\u7389\u4e95","type":"route"},"geometry":{"type":"LineString","coordinates":[[120.2112366,22.9973829],[120.2112224,22.9973263]]}},{"type":"Feature","properties":{"from":"\u81fa\u5357\u516c\u5712","name":"\u7da0\u5e79\u7dda(\u5f80\u7a0b)","public_transport:version":"2","ref":"\u7da0\u5e79\u7dda","route":"bus","to":"\u7389\u4e95","type":"route"},"geometry":{"type":"LineString","coordinates":[[120.2122751,22.997603],[120.2124005,22.9982391],[120.2124535,22.9985075],[120.2126009,22.999255],[120.2126525,22.9995165],[120.2127079,22.9997975],[120.2127411,22.9999659]]}},{"type":"Feature","properties":{"from":"\u81fa\u5357\u516c\u5712","name":"\u7da0\u5e79\u7dda(\u5f80\u7a0b)","public_transport:version":"2","ref":"\u7da0\u5e79\u7dda","route":"bus","to":"\u7389\u4e95","type":"route"},"geometry":{"type":"LineString","coordinates":[[120.2127411,22.9999659],[120.2127492,23.0000177],[120.2127622,23.0000873],[120.213034,23.0015451],[120.2130526,23.0016447]]}},{"type":"Feature","properties":{"from":"\u81fa\u5357\u516c\u5712","name":"\u7da0\u5e79\u7dda(\u5f80\u7a0b)","public_transport:version":"2","ref":"\u7da0\u5e79\u7dda","route":"bus","to":"\u7389\u4e95","type":"route"},"geometry":{"type":"LineString","coordinates":[[120.2130526,23.0016447],[120.213061,23.0016892]]}},{"type":"Feature","properties":{"from":"\u81fa\u5357\u516c\u5712","name":"\u7da0\u5e79\u7dda(\u5f80\u7a0b)","public_transport:version":"2","ref":"\u7da0\u5e79\u7dda","route":"bus","to":"\u7389\u4e95","type":"route"},"geometry":{"type":"LineString","coordinates":[[120.213061,23.0016892],[120.2130989,23.0018772],[120.2132038,23.0023991],[120.213515,23.0037841],[120.2135239,23.0038182],[120.2135579,23.0039495]]}},{"type":"Feature","properties":{"from":"\u81fa\u5357\u516c\u5712","name":"\u7da0\u5e79\u7dda(\u5f80\u7a0b)","public_transport:version":"2","ref":"\u7da0\u5e79\u7dda","route":"bus","to":"\u7389\u4e95","type":"route"},"geometry":{"type":"LineString","coordinates":[[120.2135579,23.0039495],[120.2135814,23.0040317]]}},{"type":"Feature","properties":{"from":"\u81fa\u5357\u516c\u5712","name":"\u7da0\u5e79\u7dda(\u5f80\u7a0b)","public_transport:version":"2","ref":"\u7da0\u5e79\u7dda","route":"bus","to":"\u7389\u4e95","type":"route"},"geometry":{"type":"LineString","coordinates":[[120.2135814,23.0040317],[120.2136217,23.0041544]]}},{"type":"Feature","properties":{"from":"\u81fa\u5357\u516c\u5712","name":"\u7da0\u5e79\u7dda(\u5f80\u7a0b)","public_transport:version":"2","ref":"\u7da0\u5e79\u7dda","route":"bus","to":"\u7389\u4e95","type":"route"},"geometry":{"type":"LineString","coordinates":[[120.2159086,23.0058014],[120.2156846,23.0057132],[120.215483,23.0056296],[120.2150042,23.005384],[120.2141752,23.0050318],[120.21401,23.0049237],[120.2138552,23.0047377],[120.2136217,23.0041544]]}},{"type":"Feature","properties":{"from":"\u81fa\u5357\u516c\u5712","name":"\u7da0\u5e79\u7dda(\u5f80\u7a0b)","public_transport:version":"2","ref":"\u7da0\u5e79\u7dda","route":"bus","to":"\u7389\u4e95","type":"route"},"geometry":{"type":"LineString","coordinates":[[120.2159086,23.0058014],[120.2161693,23.0058911],[120.216596,23.006038],[120.216786,23.0061033],[120.216975,23.0061684],[120.2171492,23.0062302],[120.2174804,23.0063423],[120.2178574,23.006472],[120.218379,23.0066516],[120.2184872,23.0066888]]}},{"type":"Feature","properties":{"from":"\u81fa\u5357\u516c\u5712","name":"\u7da0\u5e79\u7dda(\u5f80\u7a0b)","public_transport:version":"2","ref":"\u7da0\u5e79\u7dda","route":"bus","to":"\u7389\u4e95","type":"route"},"geometry":{"type":"LineString","coordinates":[[120.2184872,23.0066888],[120.2189513,23.0068409],[120.2194764,23.007013],[120.219816,23.0071243],[120.2202432,23.0073523],[120.2206606,23.007575],[120.2207846,23.0076411]]}},{"type":"Feature","properties":{"from":"\u81fa\u5357\u516c\u5712","name":"\u7da0\u5e79\u7dda(\u5f80\u7a0b)","public_transport:version":"2","ref":"\u7da0\u5e79\u7dda","route":"bus","to":"\u7389\u4e95","type":"route"},"geometry":{"type":"LineString","coordinates":[[120.2207846,23.0076411],[120.220857,23.007693]]}},{"type":"Feature","properties":{"from":"\u81fa\u5357\u516c\u5712","name":"\u7da0\u5e79\u7dda(\u5f80\u7a0b)","public_transport:version":"2","ref":"\u7da0\u5e79\u7dda","route":"bus","to":"\u7389\u4e95","type":"route"},"geometry":{"type":"LineString","coordinates":[[120.220857,23.007693],[120.221942,23.0083009],[120.2228573,23.0088404],[120.2229665,23.0089059],[120.2233335,23.0091792],[120.2239561,23.009642],[120.2243632,23.0099293],[120.2247575,23.010196],[120.2250015,23.0103713],[120.2259765,23.0111279],[120.2260596,23.0111859]]}},{"type":"Feature","properties":{"from":"\u81fa\u5357\u516c\u5712","name":"\u7da0\u5e79\u7dda(\u5f80\u7a0b)","public_transport:version":"2","ref":"\u7da0\u5e79\u7dda","route":"bus","to":"\u7389\u4e95","type":"route"},"geometry":{"type":"LineString","coordinates":[[120.2260596,23.0111859],[120.2262233,23.0113106]]}},{"type":"Feature","properties":{"from":"\u81fa\u5357\u516c\u5712","name":"\u7da0\u5e79\u7dda(\u5f80\u7a0b)","public_transport:version":"2","ref":"\u7da0\u5e79\u7dda","route":"bus","to":"\u7389\u4e95","type":"route"},"geometry":{"type":"LineString","coordinates":[[120.2262233,23.0113106],[120.2263695,23.0114143],[120.2270957,23.0119315],[120.2275422,23.0122599],[120.2279594,23.0125204],[120.228245,23.0126586],[120.2287412,23.0127919],[120.2291909,23.0129344],[120.2299334,23.0131696],[120.2307341,23.0134165]]}},{"type":"Feature","properties":{"from":"\u81fa\u5357\u516c\u5712","name":"\u7da0\u5e79\u7dda(\u5f80\u7a0b)","public_transport:version":"2","ref":"\u7da0\u5e79\u7dda","route":"bus","to":"\u7389\u4e95","type":"route"},"geometry":{"type":"LineString","coordinates":[[120.2307341,23.0134165],[120.2308306,23.0134634]]}},{"type":"Feature","properties":{"from":"\u81fa\u5357\u516c\u5712","name":"\u7da0\u5e79\u7dda(\u5f80\u7a0b)","public_transport:version":"2","ref":"\u7da0\u5e79\u7dda","route":"bus","to":"\u7389\u4e95","type":"route"},"geometry":{"type":"LineString","coordinates":[[120.2572937,23.0259927],[120.2571408,23.0259581],[120.256818,23.0258809],[120.2563611,23.0257341],[120.2557751,23.0255556],[120.2550159,23.0251186],[120.2546291,23.0248798],[120.2544326,23.0247522],[120.2538588,23.0243924],[120.2537961,23.024357],[120.2535005,23.0242078],[120.2526834,23.0237751],[120.251903,23.0233466],[120.2501609,23.0223362],[120.2498028,23.0220768],[120.2493044,23.0218817],[120.2486285,23.0216087],[120.2485855,23.0215829],[120.2470506,23.0210726],[120.2459133,23.020696],[120.2456441,23.0205793],[120.2450518,23.0204051],[120.2446568,23.0202627],[120.2444197,23.0202013],[120.2440715,23.0201382],[120.2433196,23.0200799],[120.2430393,23.0200334],[120.2428501,23.0199641],[120.2424577,23.0197653],[120.2422233,23.0196237],[120.2420395,23.0194997],[120.2419336,23.0194282],[120.2417929,23.0193396],[120.241421,23.0191056],[120.2412225,23.0189822],[120.2408077,23.0187258],[120.2406613,23.0186353],[120.2401034,23.0182949],[120.2399394,23.0181922],[120.2395758,23.017954],[120.2393376,23.0177979],[120.2392746,23.0177571],[120.2392089,23.0177083],[120.2388619,23.0174491],[120.2388156,23.0174096],[120.2384556,23.0171927],[120.2379463,23.0168598],[120.2372148,23.0163789],[120.2371702,23.0163471],[120.2362829,23.0157149],[120.2362071,23.0156754],[120.2358073,23.0154142],[120.2356569,23.015291],[120.2352503,23.0150499],[120.2351284,23.0149689],[120.2348486,23.0147971],[120.2345534,23.0146348],[120.2341586,23.0144805],[120.2340499,23.01442],[120.2335478,23.0142923],[120.2320431,23.0138543],[120.2308306,23.0134634]]}},{"type":"Feature","properties":{"from":"\u81fa\u5357\u516c\u5712","name":"\u7da0\u5e79\u7dda(\u5f80\u7a0b)","public_transport:version":"2","ref":"\u7da0\u5e79\u7dda","route":"bus","to":"\u7389\u4e95","type":"route"},"geometry":{"type":"LineString","coordinates":[[120.2586146,23.0262247],[120.2584591,23.0261753],[120.2581426,23.0261198],[120.2572937,23.0259927]]}},{"type":"Feature","properties":{"from":"\u81fa\u5357\u516c\u5712","name":"\u7da0\u5e79\u7dda(\u5f80\u7a0b)","public_transport:version":"2","ref":"\u7da0\u5e79\u7dda","route":"bus","to":"\u7389\u4e95","type":"route"},"geometry":{"type":"LineString","coordinates":[[120.2740011,23.0299859],[120.2730664,23.0297896],[120.2724978,23.0296761],[120.2719479,23.0295946],[120.271779,23.0295811],[120.2711646,23.029529],[120.2707608,23.0294858],[120.2704394,23.0294649],[120.2700865,23.0294339],[120.2693823,23.0293423],[120.2686015,23.0292606],[120.2684324,23.0292518],[120.2670701,23.0291174],[120.2657158,23.0290054],[120.2652947,23.0289215],[120.2649957,23.0288079],[120.2626111,23.0279761],[120.2612421,23.0274736],[120.2607071,23.0274186],[120.2605757,23.0274034],[120.2598354,23.0271638],[120.2595159,23.0269936],[120.2592719,23.0268162],[120.2589834,23.0265715],[120.2587192,23.0262901],[120.2586146,23.0262247]]}},{"type":"Feature","properties":{"from":"\u81fa\u5357\u516c\u5712","name":"\u7da0\u5e79\u7dda(\u5f80\u7a0b)","public_transport:version":"2","ref":"\u7da0\u5e79\u7dda","route":"bus","to":"\u7389\u4e95","type":"route"},"geometry":{"type":"LineString","coordinates":[[120.2852136,23.033409],[120.2851183,23.0333633],[120.2850271,23.0333226],[120.2831295,23.0325598],[120.2822497,23.0322599],[120.2810588,23.0319156],[120.2809305,23.0318822],[120.28088,23.0318621],[120.2808525,23.031855],[120.280796,23.0318403],[120.2786442,23.0312541],[120.2773365,23.0308683],[120.277256,23.0308474],[120.2749654,23.0302389],[120.2740011,23.0299859]]}},{"type":"Feature","properties":{"from":"\u81fa\u5357\u516c\u5712","name":"\u7da0\u5e79\u7dda(\u5f80\u7a0b)","public_transport:version":"2","ref":"\u7da0\u5e79\u7dda","route":"bus","to":"\u7389\u4e95","type":"route"},"geometry":{"type":"LineString","coordinates":[[120.2873082,23.0342698],[120.2852136,23.033409]]}},{"type":"Feature","properties":{"from":"\u81fa\u5357\u516c\u5712","name":"\u7da0\u5e79\u7dda(\u5f80\u7a0b)","public_transport:version":"2","ref":"\u7da0\u5e79\u7dda","route":"bus","to":"\u7389\u4e95","type":"route"},"geometry":{"type":"LineString","coordinates":[[120.2899947,23.0349306],[120.2891166,23.0348149],[120.2889513,23.0348052],[120.2888923,23.0347958],[120.2887449,23.0347832],[120.2883774,23.0346857],[120.2877524,23.0344473],[120.2873082,23.0342698]]}},{"type":"Feature","properties":{"from":"\u81fa\u5357\u516c\u5712","name":"\u7da0\u5e79\u7dda(\u5f80\u7a0b)","public_transport:version":"2","ref":"\u7da0\u5e79\u7dda","route":"bus","to":"\u7389\u4e95","type":"route"},"geometry":{"type":"LineString","coordinates":[[120.2899947,23.0349306],[120.2903887,23.0349844],[120.2919865,23.0351801],[120.2924738,23.0352401],[120.293854,23.0354161],[120.2945642,23.0355522],[120.2947557,23.0355548],[120.2951191,23.0356514],[120.2956476,23.0358293],[120.2975543,23.0363556],[120.2983502,23.0365911],[120.2984527,23.0366151],[120.2988477,23.0367184],[120.299063,23.0366871],[120.2995271,23.0366364],[120.2997715,23.0365734]]}},{"type":"Feature","properties":{"from":"\u81fa\u5357\u516c\u5712","name":"\u7da0\u5e79\u7dda(\u5f80\u7a0b)","public_transport:version":"2","ref":"\u7da0\u5e79\u7dda","route":"bus","to":"\u7389\u4e95","type":"route"},"geometry":{"type":"LineString","coordinates":[[120.2997715,23.0365734],[120.2998563,23.0364507],[120.2999857,23.0363672],[120.30014,23.0363357],[120.3002956,23.0363611],[120.300401,23.0364188]]}},{"type":"Feature","properties":{"from":"\u81fa\u5357\u516c\u5712","name":"\u7da0\u5e79\u7dda(\u5f80\u7a0b)","public_transport:version":"2","ref":"\u7da0\u5e79\u7dda","route":"bus","to":"\u7389\u4e95","type":"route"},"geometry":{"type":"LineString","coordinates":[[120.30131,23.0362093],[120.300401,23.0364188]]}},{"type":"Feature","properties":{"from":"\u81fa\u5357\u516c\u5712","name":"\u7da0\u5e79\u7dda(\u5f80\u7a0b)","public_transport:version":"2","ref":"\u7da0\u5e79\u7dda","route":"bus","to":"\u7389\u4e95","type":"route"},"geometry":{"type":"LineString","coordinates":[[120.3080732,23.0359316],[120.3072147,23.0358939],[120.3068466,23.0358842],[120.3063522,23.0358459],[120.3060616,23.0358254],[120.3058097,23.0358018],[120.3053942,23.0357755],[120.3049308,23.0357489],[120.3040541,23.0357408],[120.3032815,23.0357785],[120.3029342,23.0358487],[120.301754,23.0361204],[120.30131,23.0362093]]}},{"type":"Feature","properties":{"from":"\u81fa\u5357\u516c\u5712","name":"\u7da0\u5e79\u7dda(\u5f80\u7a0b)","public_transport:version":"2","ref":"\u7da0\u5e79\u7dda","route":"bus","to":"\u7389\u4e95","type":"route"},"geometry":{"type":"LineString","coordinates":[[120.3093634,23.0362278],[120.3090403,23.0361691],[120.3085326,23.0360485],[120.3080732,23.0359316]]}},{"type":"Feature","properties":{"from":"\u81fa\u5357\u516c\u5712","name":"\u7da0\u5e79\u7dda(\u5f80\u7a0b)","public_transport:version":"2","ref":"\u7da0\u5e79\u7dda","route":"bus","to":"\u7389\u4e95","type":"route"},"geometry":{"type":"LineString","coordinates":[[120.3096498,23.0362542],[120.3093634,23.0362278]]}},{"type":"Feature","properties":{"from":"\u81fa\u5357\u516c\u5712","name":"\u7da0\u5e79\u7dda(\u5f80\u7a0b)","public_transport:version":"2","ref":"\u7da0\u5e79\u7dda","route":"bus","to":"\u7389\u4e95","type":"route"},"geometry":{"type":"LineString","coordinates":[[120.3096498,23.0362542],[120.3096879,23.0359396],[120.3095345,23.0359334]]}},{"type":"Feature","properties":{"from":"\u81fa\u5357\u516c\u5712","name":"\u7da0\u5e79\u7dda(\u5f80\u7a0b)","public_transport:version":"2","ref":"\u7da0\u5e79\u7dda","route":"bus","to":"\u7389\u4e95","type":"route"},"geometry":{"type":"LineString","coordinates":[[120.3095345,23.0359334],[120.3093867,23.0359275],[120.3093634,23.0362278]]}},{"type":"Feature","properties":{"from":"\u81fa\u5357\u516c\u5712","name":"\u7da0\u5e79\u7dda(\u5f80\u7a0b)","public_transport:version":"2","ref":"\u7da0\u5e79\u7dda","route":"bus","to":"\u7389\u4e95","type":"route"},"geometry":{"type":"LineString","coordinates":[[120.3112656,23.0390189],[120.3110571,23.0385327],[120.3104641,23.0374723],[120.3098462,23.0364461],[120.3096498,23.0362542]]}},{"type":"Feature","properties":{"from":"\u81fa\u5357\u516c\u5712","name":"\u7da0\u5e79\u7dda(\u5f80\u7a0b)","public_transport:version":"2","ref":"\u7da0\u5e79\u7dda","route":"bus","to":"\u7389\u4e95","type":"route"},"geometry":{"type":"LineString","coordinates":[[120.3112656,23.0390189],[120.3116252,23.0400086]]}},{"type":"Feature","properties":{"from":"\u81fa\u5357\u516c\u5712","name":"\u7da0\u5e79\u7dda(\u5f80\u7a0b)","public_transport:version":"2","ref":"\u7da0\u5e79\u7dda","route":"bus","to":"\u7389\u4e95","type":"route"},"geometry":{"type":"LineString","coordinates":[[120.3116252,23.0400086],[120.311733,23.0402183]]}},{"type":"Feature","properties":{"from":"\u81fa\u5357\u516c\u5712","name":"\u7da0\u5e79\u7dda(\u5f80\u7a0b)","public_transport:version":"2","ref":"\u7da0\u5e79\u7dda","route":"bus","to":"\u7389\u4e95","type":"route"},"geometry":{"type":"LineString","coordinates":[[120.311733,23.0402183],[120.3119229,23.0404948],[120.3121292,23.0407653]]}},{"type":"Feature","properties":{"from":"\u81fa\u5357\u516c\u5712","name":"\u7da0\u5e79\u7dda(\u5f80\u7a0b)","public_transport:version":"2","ref":"\u7da0\u5e79\u7dda","route":"bus","to":"\u7389\u4e95","type":"route"},"geometry":{"type":"LineString","coordinates":[[120.3124513,23.0410971],[120.3121292,23.0407653]]}},{"type":"Feature","properties":{"from":"\u81fa\u5357\u516c\u5712","name":"\u7da0\u5e79\u7dda(\u5f80\u7a0b)","public_transport:version":"2","ref":"\u7da0\u5e79\u7dda","route":"bus","to":"\u7389\u4e95","type":"route"},"geometry":{"type":"LineString","coordinates":[[120.3194431,23.0490385],[120.3193426,23.0489212],[120.3191555,23.0486805],[120.318969,23.0484522],[120.3182945,23.0476883],[120.3173391,23.0465899],[120.3169285,23.0461153],[120.3167511,23.0458974],[120.3164203,23.0455258],[120.3161836,23.0452495],[120.3161387,23.045199],[120.3157995,23.044818],[120.3156875,23.0446922],[120.315381,23.044348],[120.3152699,23.0442232],[120.3147522,23.0436418],[120.3142704,23.0431006],[120.3141655,23.042974],[120.3138461,23.0426175],[120.3135143,23.0422379],[120.3129609,23.0416327],[120.312782,23.0414555],[120.3125742,23.0412331],[120.3125161,23.0411689],[120.3124513,23.0410971]]}},{"type":"Feature","properties":{"from":"\u81fa\u5357\u516c\u5712","name":"\u7da0\u5e79\u7dda(\u5f80\u7a0b)","public_transport:version":"2","ref":"\u7da0\u5e79\u7dda","route":"bus","to":"\u7389\u4e95","type":"route"},"geometry":{"type":"LineString","coordinates":[[120.3230238,23.0532706],[120.3227872,23.0528538],[120.3223152,23.0523096],[120.3214547,23.051311],[120.3205758,23.0503096],[120.3200366,23.0497092],[120.3199536,23.0496209],[120.3197172,23.0493254],[120.3194431,23.0490385]]}},{"type":"Feature","properties":{"from":"\u81fa\u5357\u516c\u5712","name":"\u7da0\u5e79\u7dda(\u5f80\u7a0b)","public_transport:version":"2","ref":"\u7da0\u5e79\u7dda","route":"bus","to":"\u7389\u4e95","type":"route"},"geometry":{"type":"LineString","coordinates":[[120.3231574,23.0535933],[120.3230238,23.0532706]]}},{"type":"Feature","properties":{"from":"\u81fa\u5357\u516c\u5712","name":"\u7da0\u5e79\u7dda(\u5f80\u7a0b)","public_transport:version":"2","ref":"\u7da0\u5e79\u7dda","route":"bus","to":"\u7389\u4e95","type":"route"},"geometry":{"type":"LineString","coordinates":[[120.3233335,23.0539805],[120.3231574,23.0535933]]}},{"type":"Feature","properties":{"from":"\u81fa\u5357\u516c\u5712","name":"\u7da0\u5e79\u7dda(\u5f80\u7a0b)","public_transport:version":"2","ref":"\u7da0\u5e79\u7dda","route":"bus","to":"\u7389\u4e95","type":"route"},"geometry":{"type":"LineString","coordinates":[[120.3236759,23.0546953],[120.3235583,23.0545119],[120.3234305,23.0541937],[120.3233335,23.0539805]]}},{"type":"Feature","properties":{"from":"\u81fa\u5357\u516c\u5712","name":"\u7da0\u5e79\u7dda(\u5f80\u7a0b)","public_transport:version":"2","ref":"\u7da0\u5e79\u7dda","route":"bus","to":"\u7389\u4e95","type":"route"},"geometry":{"type":"LineString","coordinates":[[120.331904,23.0614359],[120.331841,23.0613817],[120.3311495,23.0607606],[120.3299381,23.0596849],[120.3294038,23.0592625],[120.3267611,23.0569054],[120.3252875,23.0556395],[120.3249943,23.0553628],[120.3248706,23.0553221],[120.3246409,23.0552244],[120.3240394,23.0549615],[120.3237838,23.0547955],[120.3236759,23.0546953]]}},{"type":"Feature","properties":{"from":"\u81fa\u5357\u516c\u5712","name":"\u7da0\u5e79\u7dda(\u5f80\u7a0b)","public_transport:version":"2","ref":"\u7da0\u5e79\u7dda","route":"bus","to":"\u7389\u4e95","type":"route"},"geometry":{"type":"LineString","coordinates":[[120.3573224,23.0711768],[120.3570948,23.0709163],[120.3568292,23.0706592],[120.3566997,23.0705221],[120.3565141,23.0704083],[120.3560719,23.0702147],[120.355841,23.0701091],[120.3555974,23.0699976],[120.3541291,23.0693665],[120.3538467,23.0692239],[120.3536189,23.0691197],[120.352658,23.068653],[120.3520363,23.0684018],[120.3516189,23.0682157],[120.351289,23.0681398],[120.3510888,23.0680938],[120.3509367,23.0680903],[120.3508481,23.0680742],[120.3500965,23.0679326],[120.3497039,23.0678614],[120.3489213,23.0677178],[120.3487587,23.0676756],[120.3483943,23.067607],[120.3456753,23.067095],[120.3453094,23.0670244],[120.3447135,23.0669094],[120.342928,23.0666126],[120.3427951,23.0665691],[120.3426807,23.066537],[120.342434,23.0664784],[120.3421984,23.066387],[120.3417646,23.0662288],[120.3413181,23.06606],[120.3402269,23.0655986],[120.3391711,23.0651039],[120.3372136,23.0641984],[120.334975,23.063088],[120.3340913,23.0626409],[120.3327948,23.0619414],[120.3324391,23.0617376],[120.3323412,23.0616864],[120.331904,23.0614359]]}},{"type":"Feature","properties":{"from":"\u81fa\u5357\u516c\u5712","name":"\u7da0\u5e79\u7dda(\u5f80\u7a0b)","public_transport:version":"2","ref":"\u7da0\u5e79\u7dda","route":"bus","to":"\u7389\u4e95","type":"route"},"geometry":{"type":"LineString","coordinates":[[120.3593029,23.0734131],[120.3573224,23.0711768]]}},{"type":"Feature","properties":{"from":"\u81fa\u5357\u516c\u5712","name":"\u7da0\u5e79\u7dda(\u5f80\u7a0b)","public_transport:version":"2","ref":"\u7da0\u5e79\u7dda","route":"bus","to":"\u7389\u4e95","type":"route"},"geometry":{"type":"LineString","coordinates":[[120.3679549,23.0788128],[120.3672449,23.078393],[120.3668552,23.0781627],[120.3666792,23.0780586],[120.3665069,23.077958],[120.3660342,23.0776819],[120.3659941,23.0776585],[120.3656322,23.0774522],[120.3642801,23.0766811],[120.3627778,23.0758277],[120.3627037,23.0757756],[120.360308,23.074416],[120.3599776,23.0741753],[120.359736,23.0738958],[120.3593029,23.0734131]]}},{"type":"Feature","properties":{"from":"\u81fa\u5357\u516c\u5712","name":"\u7da0\u5e79\u7dda(\u5f80\u7a0b)","public_transport:version":"2","ref":"\u7da0\u5e79\u7dda","route":"bus","to":"\u7389\u4e95","type":"route"},"geometry":{"type":"LineString","coordinates":[[120.3695351,23.079428],[120.3694291,23.0793963],[120.3690224,23.0792767],[120.3688159,23.0792027],[120.3684538,23.0790571],[120.368199,23.0789362],[120.3679549,23.0788128]]}},{"type":"Feature","properties":{"from":"\u81fa\u5357\u516c\u5712","name":"\u7da0\u5e79\u7dda(\u5f80\u7a0b)","public_transport:version":"2","ref":"\u7da0\u5e79\u7dda","route":"bus","to":"\u7389\u4e95","type":"route"},"geometry":{"type":"LineString","coordinates":[[120.3734601,23.0793865],[120.3731973,23.0796185],[120.3729156,23.0797542],[120.3724301,23.0799072],[120.3721163,23.0799788],[120.3717033,23.0799491],[120.3709522,23.0797814],[120.3703199,23.0796237],[120.3695351,23.079428]]}},{"type":"Feature","properties":{"from":"\u81fa\u5357\u516c\u5712","name":"\u7da0\u5e79\u7dda(\u5f80\u7a0b)","public_transport:version":"2","ref":"\u7da0\u5e79\u7dda","route":"bus","to":"\u7389\u4e95","type":"route"},"geometry":{"type":"LineString","coordinates":[[120.3750188,23.0776775],[120.3745761,23.0781087],[120.3739012,23.0788989],[120.3734601,23.0793865]]}},{"type":"Feature","properties":{"from":"\u81fa\u5357\u516c\u5712","name":"\u7da0\u5e79\u7dda(\u5f80\u7a0b)","public_transport:version":"2","ref":"\u7da0\u5e79\u7dda","route":"bus","to":"\u7389\u4e95","type":"route"},"geometry":{"type":"LineString","coordinates":[[120.3762746,23.0724619],[120.3760298,23.0761465],[120.375998,23.0765127],[120.3758899,23.0768377],[120.3756966,23.0770858],[120.3751438,23.0775702],[120.3750188,23.0776775]]}},{"type":"Feature","properties":{"from":"\u81fa\u5357\u516c\u5712","name":"\u7da0\u5e79\u7dda(\u5f80\u7a0b)","public_transport:version":"2","ref":"\u7da0\u5e79\u7dda","route":"bus","to":"\u7389\u4e95","type":"route"},"geometry":{"type":"LineString","coordinates":[[120.3805173,23.0671613],[120.3802487,23.067432],[120.3799427,23.0676838],[120.3794153,23.0681309],[120.377962,23.0696821],[120.377849,23.0698053],[120.3766878,23.0713043],[120.3766466,23.0713568],[120.3765728,23.071451],[120.3764523,23.0716448],[120.3763384,23.0718823],[120.3762903,23.0721653],[120.3762746,23.0724619]]}},{"type":"Feature","properties":{"from":"\u81fa\u5357\u516c\u5712","name":"\u7da0\u5e79\u7dda(\u5f80\u7a0b)","public_transport:version":"2","ref":"\u7da0\u5e79\u7dda","route":"bus","to":"\u7389\u4e95","type":"route"},"geometry":{"type":"LineString","coordinates":[[120.3811887,23.0663764],[120.3805173,23.0671613]]}},{"type":"Feature","properties":{"from":"\u81fa\u5357\u516c\u5712","name":"\u7da0\u5e79\u7dda(\u5f80\u7a0b)","public_transport:version":"2","ref":"\u7da0\u5e79\u7dda","route":"bus","to":"\u7389\u4e95","type":"route"},"geometry":{"type":"LineString","coordinates":[[120.4015542,23.055637],[120.4011978,23.0558192],[120.4008947,23.0559513],[120.4004883,23.0561043],[120.4002576,23.0561919],[120.3982285,23.0569668],[120.3980837,23.0570433],[120.3979724,23.057126],[120.3978825,23.0572025],[120.3977706,23.0573176],[120.3975768,23.0575455],[120.3972495,23.0579836],[120.3971369,23.0581588],[120.3969397,23.0584648],[120.3968056,23.0586327],[120.3967466,23.0586919],[120.3966729,23.05874],[120.3965776,23.0587807],[120.3964797,23.0588104],[120.3962772,23.0588511],[120.395722,23.058951],[120.3952808,23.0590448],[120.3950421,23.0591188],[120.3948356,23.0591916],[120.3934264,23.0598025],[120.3925489,23.0602122],[120.3913301,23.0607433],[120.3909182,23.0609328],[120.3907894,23.0610068],[120.3906835,23.0610833],[120.3905641,23.0612042],[120.3904789,23.0613692],[120.3903188,23.0616115],[120.3900807,23.062087],[120.3896923,23.0627722],[120.3895559,23.0629401],[120.38937,23.0630927],[120.3888608,23.0633257],[120.3874862,23.06395],[120.3869995,23.064133],[120.3864413,23.0642849],[120.3860727,23.0643735],[120.3859302,23.0644078],[120.3854584,23.0644296],[120.3851182,23.0644083],[120.3849946,23.0644006],[120.3845857,23.0643572],[120.3842398,23.0643572],[120.3837208,23.0644874],[120.3832316,23.0646577],[120.383139,23.06469],[120.3826987,23.0648853],[120.3823056,23.0651385],[120.3821061,23.0653257],[120.3819046,23.0655147],[120.3811887,23.0663764]]}},{"type":"Feature","properties":{"from":"\u81fa\u5357\u516c\u5712","name":"\u7da0\u5e79\u7dda(\u5f80\u7a0b)","public_transport:version":"2","ref":"\u7da0\u5e79\u7dda","route":"bus","to":"\u7389\u4e95","type":"route"},"geometry":{"type":"LineString","coordinates":[[120.4015542,23.055637],[120.4019099,23.0553232],[120.4022518,23.0549937],[120.4023068,23.054937]]}},{"type":"Feature","properties":{"from":"\u81fa\u5357\u516c\u5712","name":"\u7da0\u5e79\u7dda(\u5f80\u7a0b)","public_transport:version":"2","ref":"\u7da0\u5e79\u7dda","route":"bus","to":"\u7389\u4e95","type":"route"},"geometry":{"type":"LineString","coordinates":[[120.4023068,23.054937],[120.4023692,23.0549876],[120.4024436,23.0550425],[120.4025194,23.0550727],[120.4026086,23.0551005],[120.4027408,23.0551064]]}},{"type":"Feature","properties":{"from":"\u81fa\u5357\u516c\u5712","name":"\u7da0\u5e79\u7dda(\u5f80\u7a0b)","public_transport:version":"2","ref":"\u7da0\u5e79\u7dda","route":"bus","to":"\u7389\u4e95","type":"route"},"geometry":{"type":"LineString","coordinates":[[120.4073366,23.0582539],[120.4070862,23.0581817],[120.4063425,23.0579911],[120.4060757,23.0578837],[120.4058557,23.0577332],[120.4057002,23.0575567],[120.405566,23.0573321],[120.4052213,23.0565844],[120.4049165,23.0559235],[120.4046232,23.0552874],[120.4043886,23.0547506],[120.4043229,23.0546556],[120.4042397,23.0545927],[120.4042102,23.0545705],[120.4041136,23.0545581],[120.4039902,23.0545606],[120.4038726,23.0545976],[120.4027408,23.0551064]]}},{"type":"Feature","properties":{"from":"\u81fa\u5357\u516c\u5712","name":"\u7da0\u5e79\u7dda(\u5f80\u7a0b)","public_transport:version":"2","ref":"\u7da0\u5e79\u7dda","route":"bus","to":"\u7389\u4e95","type":"route"},"geometry":{"type":"LineString","coordinates":[[120.4087954,23.0591929],[120.4086694,23.0590708],[120.4086057,23.058998],[120.4083817,23.0587857],[120.408267,23.0586907],[120.4081544,23.0586142],[120.4079988,23.0585303],[120.4078436,23.05846],[120.4074339,23.0582854],[120.4073366,23.0582539]]}},{"type":"Feature","properties":{"from":"\u81fa\u5357\u516c\u5712","name":"\u7da0\u5e79\u7dda(\u5f80\u7a0b)","public_transport:version":"2","ref":"\u7da0\u5e79\u7dda","route":"bus","to":"\u7389\u4e95","type":"route"},"geometry":{"type":"LineString","coordinates":[[120.4087954,23.0591929],[120.4091334,23.0595119]]}},{"type":"Feature","properties":{"from":"\u81fa\u5357\u516c\u5712","name":"\u7da0\u5e79\u7dda(\u5f80\u7a0b)","public_transport:version":"2","ref":"\u7da0\u5e79\u7dda","route":"bus","to":"\u7389\u4e95","type":"route"},"geometry":{"type":"LineString","coordinates":[[120.4091334,23.0595119],[120.4092997,23.0596569],[120.4094378,23.0597556],[120.410115,23.0601252],[120.4104047,23.0602652],[120.4106475,23.0603553],[120.4108285,23.0604139],[120.4109881,23.0604602],[120.4111986,23.0604806],[120.4114495,23.0604725],[120.4122447,23.0603899],[120.4126994,23.0603393],[120.4129368,23.0603047],[120.4131044,23.0602652],[120.4132653,23.060222],[120.4138702,23.0599999],[120.4144482,23.0597778],[120.4145608,23.059742],[120.4146695,23.0597211],[120.4148264,23.0597186],[120.4149886,23.0597383],[120.4153239,23.0598111],[120.4155881,23.0598901],[120.4158188,23.0599938],[120.4162399,23.0602307],[120.416771,23.060607],[120.417181,23.0609151],[120.4174472,23.0611218],[120.4177269,23.0613723],[120.4179335,23.0616018],[120.4182698,23.0620711],[120.4184978,23.062345],[120.4186158,23.0624684],[120.4187258,23.0625573],[120.4188733,23.0626264],[120.4190691,23.0626732],[120.419281,23.0627004],[120.4206452,23.0626866],[120.4209841,23.0627378],[120.4212154,23.0627804]]}},{"type":"Feature","properties":{"from":"\u81fa\u5357\u516c\u5712","name":"\u7da0\u5e79\u7dda(\u5f80\u7a0b)","public_transport:version":"2","ref":"\u7da0\u5e79\u7dda","route":"bus","to":"\u7389\u4e95","type":"route"},"geometry":{"type":"LineString","coordinates":[[120.4581429,23.1159172],[120.4580745,23.1158024],[120.4579522,23.1156225],[120.4577053,23.115301],[120.4566519,23.1141169],[120.4554664,23.1126386],[120.4550718,23.1121981],[120.4546714,23.1117931],[120.4539676,23.111212],[120.4536234,23.1109303],[120.4531522,23.1105101],[120.4523268,23.1098062],[120.4517815,23.1093412],[120.4513682,23.109062],[120.45065,23.108592],[120.450475,23.1085049],[120.4498866,23.1081556],[120.4490363,23.107634],[120.4487671,23.1074614],[120.4485503,23.1072829],[120.4483481,23.1070368],[120.4483256,23.1069967],[120.4482509,23.1068635],[120.4481309,23.1065816],[120.4481035,23.1065171],[120.4480133,23.1062487],[120.4479212,23.1059425],[120.4476749,23.1052585],[120.4471747,23.1038337],[120.4468153,23.1028197],[120.4465189,23.1021684],[120.4459811,23.1012433],[120.4455372,23.1004488],[120.4452194,23.0999724],[120.4450611,23.0997849],[120.4448083,23.0995308],[120.4446099,23.0993636],[120.4444596,23.0992335],[120.4439757,23.0988004],[120.4426998,23.097715],[120.4411159,23.0964616],[120.4394516,23.0951959],[120.4390292,23.0949479],[120.4387687,23.0948402],[120.4383604,23.0947136],[120.4372039,23.0943126],[120.4358467,23.0937464],[120.4343943,23.0931308],[120.4339169,23.0929063],[120.4336916,23.0927397],[120.4334904,23.0925275],[120.4333308,23.0922882],[120.4331793,23.0919428],[120.4331297,23.0916442],[120.4331266,23.0907486],[120.4330938,23.0905673],[120.4330408,23.09041],[120.4329248,23.0901725],[120.4327662,23.0899628],[120.4322666,23.0893663],[120.4320896,23.0891335],[120.4318646,23.0889995],[120.4313843,23.0887965],[120.4304237,23.0884701],[120.4299823,23.0882883],[120.4297717,23.0881848],[120.429577,23.0880309],[120.429378,23.0878425],[120.4292179,23.0876236],[120.4290405,23.0873184],[120.4288385,23.0869376],[120.4287448,23.086716],[120.4286294,23.086436],[120.4284664,23.0860685],[120.4283366,23.0857753],[120.4282183,23.0853931],[120.4279327,23.0840809],[120.427875,23.083858],[120.4277279,23.0833975],[120.4275,23.082831],[120.4274366,23.082693],[120.4273644,23.0825125],[120.4273125,23.082405],[120.427187,23.0822206],[120.427037,23.0820335],[120.4269144,23.0819273],[120.42675,23.081788],[120.4264514,23.0815492],[120.4260476,23.0812745],[120.4257923,23.0810901],[120.4256105,23.0809454],[120.4253927,23.080757],[120.4252889,23.0806469],[120.425185,23.0805288],[120.4250047,23.0802674],[120.4246728,23.0797235],[120.4245776,23.0795347],[120.4245212,23.0794175],[120.4244716,23.0791708],[120.4244515,23.0789129],[120.4244998,23.0785971],[120.4245483,23.078339],[120.4245966,23.0780552],[120.4246046,23.0779367],[120.4246111,23.0778037],[120.4246084,23.0776545],[120.4245832,23.0775444],[120.4245376,23.077384],[120.4244206,23.0771054],[120.4242771,23.0769006],[120.4239995,23.0764762],[120.4236578,23.0758863],[120.4236236,23.0758232],[120.4235552,23.0757122],[120.4234567,23.075523],[120.4233882,23.0753463],[120.4233318,23.0751769],[120.4232895,23.0749811],[120.4232738,23.0749098],[120.4232132,23.0746348],[120.4231803,23.0744426],[120.4231729,23.0742821],[120.4231699,23.0740995],[120.4231971,23.0739833],[120.4232404,23.0738533],[120.4233007,23.0737029],[120.4234075,23.0734701],[120.4235825,23.0731893],[120.4237313,23.0729623],[120.4238936,23.072702],[120.4239593,23.0724873],[120.4240049,23.0722763],[120.4240183,23.0720641],[120.42397,23.0717544],[120.4239097,23.0714521],[120.4238735,23.0713176],[120.4238292,23.071135],[120.4237675,23.070982],[120.4236804,23.0707932],[120.4236307,23.0707241],[120.4235221,23.0705995],[120.4234121,23.0704811],[120.4231493,23.0702479],[120.4229843,23.0700887],[120.4228542,23.0699443],[120.4227322,23.0698209],[120.4226075,23.0696248],[120.4224506,23.0692669],[120.4222657,23.0687423],[120.4221756,23.0684834],[120.4220657,23.0680911],[120.4220067,23.0678739],[120.421953,23.0675765],[120.4219114,23.0673211],[120.4219061,23.067162],[120.4219275,23.0664821],[120.4219785,23.0659034],[120.4219932,23.0653815],[120.4219798,23.0651902],[120.4219624,23.0650212],[120.4219342,23.0648065],[120.4218162,23.0644326],[120.4216365,23.0638724],[120.4214474,23.0632727],[120.4212154,23.0627804]]}},{"type":"Feature","properties":{"from":"\u81fa\u5357\u516c\u5712","name":"\u7da0\u5e79\u7dda(\u5f80\u7a0b)","public_transport:version":"2","ref":"\u7da0\u5e79\u7dda","route":"bus","to":"\u7389\u4e95","type":"route"},"geometry":{"type":"LineString","coordinates":[[120.4581429,23.1159172],[120.4582547,23.1160336],[120.4582839,23.1161471],[120.4582932,23.1162779],[120.4583018,23.1165302]]}},{"type":"Feature","properties":{"from":"\u81fa\u5357\u516c\u5712","name":"\u7da0\u5e79\u7dda(\u5f80\u7a0b)","public_transport:version":"2","ref":"\u7da0\u5e79\u7dda","route":"bus","to":"\u7389\u4e95","type":"route"},"geometry":{"type":"LineString","coordinates":[[120.4583018,23.1165302],[120.4582772,23.1182419],[120.4583307,23.1193488]]}},{"type":"Feature","properties":{"from":"\u81fa\u5357\u516c\u5712","name":"\u7da0\u5e79\u7dda(\u5f80\u7a0b)","public_transport:version":"2","ref":"\u7da0\u5e79\u7dda","route":"bus","to":"\u7389\u4e95","type":"route"},"geometry":{"type":"LineString","coordinates":[[120.4583307,23.1193488],[120.4584199,23.119486]]}},{"type":"Feature","properties":{"from":"\u81fa\u5357\u516c\u5712","name":"\u7da0\u5e79\u7dda(\u5f80\u7a0b)","public_transport:version":"2","ref":"\u7da0\u5e79\u7dda","route":"bus","to":"\u7389\u4e95","type":"route"},"geometry":{"type":"LineString","coordinates":[[120.4584199,23.119486],[120.4584791,23.1197007]]}},{"type":"Feature","properties":{"from":"\u81fa\u5357\u516c\u5712","name":"\u7da0\u5e79\u7dda(\u5f80\u7a0b)","public_transport:version":"2","ref":"\u7da0\u5e79\u7dda","route":"bus","to":"\u7389\u4e95","type":"route"},"geometry":{"type":"LineString","coordinates":[[120.4584791,23.1197007],[120.459341,23.1218959]]}},{"type":"Feature","properties":{"from":"\u81fa\u5357\u516c\u5712","name":"\u7da0\u5e79\u7dda(\u5f80\u7a0b)","public_transport:version":"2","ref":"\u7da0\u5e79\u7dda","route":"bus","to":"\u7389\u4e95","type":"route"},"geometry":{"type":"LineString","coordinates":[[120.459341,23.1218959],[120.4594872,23.1222878],[120.4596709,23.1226997],[120.4597675,23.1228267],[120.4598144,23.1229242],[120.46012,23.1234163],[120.4604874,23.1239669]]}},{"type":"Feature","properties":{"from":"\u81fa\u5357\u516c\u5712","name":"\u7da0\u5e79\u7dda(\u5f80\u7a0b)","public_transport:version":"2","ref":"\u7da0\u5e79\u7dda","route":"bus","to":"\u7389\u4e95","type":"route"},"geometry":{"type":"LineString","coordinates":[[120.4604874,23.1239669],[120.4605106,23.1240035]]}},{"type":"Feature","properties":{"bus":"yes","highway":"bus_stop","name":"\u7389\u4e95\u7ad9","network":"\u81fa\u5357\u5e02\u516c\u8eca","operator":"\u81fa\u5357\u5e02\u516c\u8eca","public_transport":"platform","ref":"7116"},"geometry":{"type":"Point","coordinates":[120.4605997,23.1239622]}},{"type":"Feature","properties":{"bus":"yes","highway":"bus_stop","name":"\u7389\u4e95\u5de5\u5546","network":"\u81fa\u5357\u5e02\u516c\u8eca","note":"\u8208\u5357\u5ba2\u904b","operator":"\u81fa\u5357\u5e02\u516c\u8eca","public_transport":"platform"},"geometry":{"type":"Point","coordinates":[120.4590847,23.1214112]}},{"type":"Feature","properties":{"bus":"yes","highway":"bus_stop","name":"\u65b0\u5e84","network":"\u81fa\u5357\u5e02\u516c\u8eca","note":"\u8208\u5357\u5ba2\u904b","operator":"\u81fa\u5357\u5e02\u516c\u8eca","public_transport":"platform"},"geometry":{"type":"Point","coordinates":[120.4579907,23.1157758]}},{"type":"Feature","properties":{"bus":"yes","highway":"bus_stop","name":"\u7389\u5c71\u65b0\u57ce","network":"\u81fa\u5357\u5e02\u516c\u8eca","note":"\u8208\u5357\u5ba2\u904b","operator":"\u81fa\u5357\u5e02\u516c\u8eca","public_transport":"platform"},"geometry":{"type":"Point","coordinates":[120.4540065,23.1112837]}},{"type":"Feature","properties":{"bus":"yes","highway":"bus_stop","name":"\u671b\u660e\u53e3","network":"\u81fa\u5357\u5e02\u516c\u8eca","note":"\u8208\u5357\u5ba2\u904b","operator":"\u81fa\u5357\u5e02\u516c\u8eca","public_transport":"platform"},"geometry":{"type":"Point","coordinates":[120.4504808,23.1085371]}},{"type":"Feature","properties":{"bus":"yes","highway":"bus_stop","name":"\u5289\u9673","network":"\u81fa\u5357\u5e02\u516c\u8eca","note":"\u8208\u5357\u5ba2\u904b","operator":"\u81fa\u5357\u5e02\u516c\u8eca","public_transport":"platform"},"geometry":{"type":"Point","coordinates":[120.4477844,23.1057029]}},{"type":"Feature","properties":{"bus":"yes","highway":"bus_stop","name":"\u5012\u677e","network":"\u81fa\u5357\u5e02\u516c\u8eca","note":"\u8208\u5357\u5ba2\u904b","operator":"\u81fa\u5357\u5e02\u516c\u8eca","public_transport":"platform"},"geometry":{"type":"Point","coordinates":[120.4434148,23.0984143]}},{"type":"Feature","properties":{"bus":"yes","highway":"bus_stop","name":"\u677e\u8173","network":"\u81fa\u5357\u5e02\u516c\u8eca","note":"\u8208\u5357\u5ba2\u904b","operator":"\u81fa\u5357\u5e02\u516c\u8eca","public_transport":"platform"},"geometry":{"type":"Point","coordinates":[120.4357893,23.0937621]}},{"type":"Feature","properties":{"bus":"yes","highway":"bus_stop","name":"\u611b\u6587\u5c71","network":"\u81fa\u5357\u5e02\u516c\u8eca","note":"\u8208\u5357\u5ba2\u904b","operator":"\u81fa\u5357\u5e02\u516c\u8eca","public_transport":"platform"},"geometry":{"type":"Point","coordinates":[120.4323767,23.0895515]}},{"type":"Feature","properties":{"bus":"yes","highway":"bus_stop","name":"\u4e5d\u5c64\u6797","network":"\u81fa\u5357\u5e02\u516c\u8eca","note":"\u8208\u5357\u5ba2\u904b","operator":"\u81fa\u5357\u5e02\u516c\u8eca","public_transport":"platform"},"geometry":{"type":"Point","coordinates":[120.42742,23.0828118]}},{"type":"Feature","properties":{"bus":"yes","highway":"bus_stop","name":"\u5f8c\u5751","network":"\u81fa\u5357\u5e02\u516c\u8eca","note":"\u8208\u5357\u5ba2\u904b","operator":"\u81fa\u5357\u5e02\u516c\u8eca","public_transport":"platform"},"geometry":{"type":"Point","coordinates":[120.4244037,23.079092]}},{"type":"Feature","properties":{"bus":"yes","highway":"bus_stop","name":"\u83bf\u6850\u8173","network":"\u81fa\u5357\u5e02\u516c\u8eca","note":"\u8208\u5357\u5ba2\u904b","operator":"\u81fa\u5357\u5e02\u516c\u8eca","public_transport":"platform"},"geometry":{"type":"Point","coordinates":[120.4232405,23.0736109]}},{"type":"Feature","properties":{"bus":"yes","highway":"bus_stop","name":"\u7af9\u5751","network":"\u81fa\u5357\u5e02\u516c\u8eca","note":"\u8208\u5357\u5ba2\u904b","operator":"\u81fa\u5357\u5e02\u516c\u8eca","public_transport":"platform"},"geometry":{"type":"Point","coordinates":[120.421926,23.0651353]}},{"type":"Feature","properties":{"bus":"yes","highway":"bus_stop","name":"\u7766\u5149\u91cc","network":"\u81fa\u5357\u5e02\u516c\u8eca","note":"\u8208\u5357\u5ba2\u904b","operator":"\u81fa\u5357\u5e02\u516c\u8eca","public_transport":"platform"},"geometry":{"type":"Point","coordinates":[120.4159578,23.0601727]}},{"type":"Feature","properties":{"bus":"yes","highway":"bus_stop","name":"\u6771\u5c4f\u539d","network":"\u81fa\u5357\u5e02\u516c\u8eca","note":"\u8208\u5357\u5ba2\u904b","operator":"\u81fa\u5357\u5e02\u516c\u8eca","public_transport":"platform"},"geometry":{"type":"Point","coordinates":[120.4132087,23.0602655]}},{"type":"Feature","properties":{"bus":"yes","highway":"bus_stop","name":"\u5de6\u93ae","network":"\u81fa\u5357\u5e02\u516c\u8eca","note":"\u8208\u5357\u5ba2\u904b","operator":"\u81fa\u5357\u5e02\u516c\u8eca","public_transport":"platform"},"geometry":{"type":"Point","coordinates":[120.4075102,23.0583301]}},{"type":"Feature","properties":{"bus":"yes","highway":"bus_stop","name":"\u5de6\u93ae\u5206\u99d0\u6240","network":"\u81fa\u5357\u5e02\u516c\u8eca","note":"\u8208\u5357\u5ba2\u904b","operator":"\u81fa\u5357\u5e02\u516c\u8eca","public_transport":"platform"},"geometry":{"type":"Point","coordinates":[120.4046472,23.0553967]}},{"type":"Feature","properties":{"bus":"yes","highway":"bus_stop","name":"\u6a44\u6b16\u5c71","network":"\u81fa\u5357\u5e02\u516c\u8eca","note":"\u8208\u5357\u5ba2\u904b","operator":"\u81fa\u5357\u5e02\u516c\u8eca","public_transport":"platform"},"geometry":{"type":"Point","coordinates":[120.4004464,23.0562176]}},{"type":"Feature","properties":{"bus":"yes","highway":"bus_stop","name":"\u90a6\u5bee","network":"\u81fa\u5357\u5e02\u516c\u8eca","note":"\u8208\u5357\u5ba2\u904b","operator":"\u81fa\u5357\u5e02\u516c\u8eca","public_transport":"platform"},"geometry":{"type":"Point","coordinates":[120.3972256,23.0582096]}},{"type":"Feature","properties":{"bus":"yes","highway":"bus_stop","name":"\u9f8d\u6e9d","network":"\u81fa\u5357\u5e02\u516c\u8eca","note":"\u8208\u5357\u5ba2\u904b","operator":"\u81fa\u5357\u5e02\u516c\u8eca","public_transport":"platform"},"geometry":{"type":"Point","coordinates":[120.3921827,23.060453]}},{"type":"Feature","properties":{"bench":"yes","bus":"yes","highway":"bus_stop","name":"\u5de6\u93ae\u5316\u77f3\u9928","network":"\u81fa\u5357\u5e02\u516c\u8eca","operator":"\u81fa\u5357\u5e02\u516c\u8eca","public_transport":"platform","ref":"5547","shelter":"yes"},"geometry":{"type":"Point","coordinates":[120.3896525,23.0630226]}},{"type":"Feature","properties":{"bus":"yes","highway":"bus_stop","name":"\u9802\u83dc\u5bee","network":"\u81fa\u5357\u5e02\u516c\u8eca","operator":"\u81fa\u5357\u5e02\u516c\u8eca","public_transport":"platform","ref":"3002"},"geometry":{"type":"Point","coordinates":[120.3863486,23.0644279]}},{"type":"Feature","properties":{"bus":"yes","highway":"bus_stop","name":"\u4e0b\u83dc\u5bee","network":"\u81fa\u5357\u5e02\u516c\u8eca","operator":"\u81fa\u5357\u5e02\u516c\u8eca","public_transport":"platform","ref":"3003"},"geometry":{"type":"Point","coordinates":[120.3825453,23.0651333]}},{"type":"Feature","properties":{"bus":"yes","highway":"bus_stop","name":"\u5149\u548c\u91cc","network":"\u81fa\u5357\u5e02\u516c\u8eca","note":"\u8208\u5357\u5ba2\u904b","operator":"\u81fa\u5357\u5e02\u516c\u8eca","public_transport":"platform"},"geometry":{"type":"Point","coordinates":[120.3777613,23.070089]}},{"type":"Feature","properties":{"bus":"yes","highway":"bus_stop","name":"\u5927\u7acb\u7aaf\u696d","network":"\u81fa\u5357\u5e02\u516c\u8eca","note":"\u8208\u5357\u5ba2\u904b","operator":"\u81fa\u5357\u5e02\u516c\u8eca","public_transport":"platform"},"geometry":{"type":"Point","coordinates":[120.3750112,23.0778239]}},{"type":"Feature","properties":{"bus":"yes","highway":"bus_stop","name":"\u8c50\u5fb7","network":"\u81fa\u5357\u5e02\u516c\u8eca","note":"\u8208\u5357\u5ba2\u904b","operator":"\u81fa\u5357\u5e02\u516c\u8eca","public_transport":"platform"},"geometry":{"type":"Point","coordinates":[120.367446,23.0786168]}},{"type":"Feature","properties":{"bus":"yes","highway":"bus_stop","name":"\u9699\u5b50\u53e3","network":"\u81fa\u5357\u5e02\u516c\u8eca","note":"\u8208\u5357\u5ba2\u904b","operator":"\u81fa\u5357\u5e02\u516c\u8eca","public_transport":"platform"},"geometry":{"type":"Point","coordinates":[120.3635204,23.0763712]}},{"type":"Feature","properties":{"bus":"yes","highway":"bus_stop","name":"\u5343\u9ce5\u6a4b","network":"\u81fa\u5357\u5e02\u516c\u8eca","note":"\u8208\u5357\u5ba2\u904b","operator":"\u81fa\u5357\u5e02\u516c\u8eca","public_transport":"platform"},"geometry":{"type":"Point","coordinates":[120.3556818,23.0701336]}},{"type":"Feature","properties":{"bus":"yes","highway":"bus_stop","name":"\u90a3\u62d4\u6797","network":"\u81fa\u5357\u5e02\u516c\u8eca","note":"\u8208\u5357\u5ba2\u904b","operator":"\u81fa\u5357\u5e02\u516c\u8eca","public_transport":"platform"},"geometry":{"type":"Point","coordinates":[120.3505494,23.0680495]}},{"type":"Feature","properties":{"bus":"yes","highway":"bus_stop","name":"\u63a5\u5929\u5bfa","network":"\u81fa\u5357\u5e02\u516c\u8eca","note":"\u8208\u5357\u5ba2\u904b","operator":"\u81fa\u5357\u5e02\u516c\u8eca","public_transport":"platform"},"geometry":{"type":"Point","coordinates":[120.3463568,23.0673138]}},{"type":"Feature","properties":{"bus":"yes","highway":"bus_stop","name":"\u53f0\u5357\u91ab\u9662\u65b0\u5316\u5206\u9662","network":"\u81fa\u5357\u5e02\u516c\u8eca","note":"\u8208\u5357\u5ba2\u904b","operator":"\u81fa\u5357\u5e02\u516c\u8eca","public_transport":"platform"},"geometry":{"type":"Point","coordinates":[120.3354439,23.0633986]}},{"type":"Feature","properties":{"bus":"yes","highway":"bus_stop","name":"\u755c\u8a66\u6240","network":"\u81fa\u5357\u5e02\u516c\u8eca","note":"\u8208\u5357\u5ba2\u904b","operator":"\u81fa\u5357\u5e02\u516c\u8eca","public_transport":"platform"},"geometry":{"type":"Point","coordinates":[120.3295118,23.0594383]}},{"type":"Feature","properties":{"bus":"yes","highway":"bus_stop","name":"\u4ec1\u611b\u4e4b\u5bb6","network":"\u81fa\u5357\u5e02\u516c\u8eca","note":"\u8208\u5357\u5ba2\u904b","operator":"\u81fa\u5357\u5e02\u516c\u8eca","public_transport":"platform"},"geometry":{"type":"Point","coordinates":[120.3197298,23.0495549]}},{"type":"Feature","properties":{"bus":"yes","highway":"bus_stop","name":"\u65b0\u5316\u4fdd\u990a\u5ee0","network":"\u81fa\u5357\u5e02\u516c\u8eca","note":"\u8208\u5357\u5ba2\u904b","operator":"\u81fa\u5357\u5e02\u516c\u8eca","public_transport":"platform"},"geometry":{"type":"Point","coordinates":[120.3141342,23.043096]}},{"type":"Feature","properties":{"bus":"yes","highway":"bus_stop","name":"\u65b0\u5316\u516c\u6240","network":"\u81fa\u5357\u5e02\u516c\u8eca","note":"\u8208\u5357\u5ba2\u904b","operator":"\u81fa\u5357\u5e02\u516c\u8eca","public_transport":"platform"},"geometry":{"type":"Point","coordinates":[120.3109366,23.0384863]}},{"type":"Feature","properties":{"bench":"yes","bus":"yes","highway":"bus_stop","name":"\u65b0\u5316\u7ad9","network":"\u81fa\u5357\u5e02\u516c\u8eca","operator":"\u81fa\u5357\u5e02\u516c\u8eca","public_transport":"platform","ref":"2226","shelter":"yes"},"geometry":{"type":"Point","coordinates":[120.3095238,23.0360063]}},{"type":"Feature","properties":{"bus":"yes","highway":"bus_stop","name":"\u8fb2\u6703\u524d","network":"\u81fa\u5357\u5e02\u516c\u8eca","note":"\u8208\u5357\u5ba2\u904b","operator":"\u81fa\u5357\u5e02\u516c\u8eca","public_transport":"platform"},"geometry":{"type":"Point","coordinates":[120.3071429,23.0359756]}},{"type":"Feature","properties":{"bus":"yes","highway":"bus_stop","name":"\u6e05\u6c34\u5bfa","network":"\u81fa\u5357\u5e02\u516c\u8eca","note":"\u8208\u5357\u5ba2\u904b","operator":"\u81fa\u5357\u5e02\u516c\u8eca","public_transport":"platform"},"geometry":{"type":"Point","coordinates":[120.3050595,23.0358114]}},{"type":"Feature","properties":{"bus":"yes","highway":"bus_stop","name":"\u552a\u53e3","network":"\u81fa\u5357\u5e02\u516c\u8eca","note":"\u8208\u5357\u5ba2\u904b","operator":"\u81fa\u5357\u5e02\u516c\u8eca","public_transport":"platform"},"geometry":{"type":"Point","coordinates":[120.3008047,23.0363821]}},{"type":"Feature","properties":{"bus":"yes","highway":"bus_stop","name":"\u4fdd\u751f\u5927\u5e1d\u5bae","network":"\u81fa\u5357\u5e02\u516c\u8eca","note":"\u8208\u5357\u5ba2\u904b","operator":"\u81fa\u5357\u5e02\u516c\u8eca","public_transport":"platform"},"geometry":{"type":"Point","coordinates":[120.2953179,23.0357973]}},{"type":"Feature","properties":{"bus":"yes","highway":"bus_stop","name":"\u5357\u5149\u85e5\u5ee0","network":"\u81fa\u5357\u5e02\u516c\u8eca","note":"\u8208\u5357\u5ba2\u904b","operator":"\u81fa\u5357\u5e02\u516c\u8eca","public_transport":"platform"},"geometry":{"type":"Point","coordinates":[120.2893575,23.0348565]}},{"type":"Feature","properties":{"bus":"yes","highway":"bus_stop","name":"\u897f\u52e2\u6771","network":"\u81fa\u5357\u5e02\u516c\u8eca","note":"\u8208\u5357\u5ba2\u904b","operator":"\u81fa\u5357\u5e02\u516c\u8eca","public_transport":"platform"},"geometry":{"type":"Point","coordinates":[120.2773705,23.0309859]}},{"type":"Feature","properties":{"bus":"yes","highway":"bus_stop","name":"\u897f\u52e2","network":"\u81fa\u5357\u5e02\u516c\u8eca","note":"\u8208\u5357\u5ba2\u904b","operator":"\u81fa\u5357\u5e02\u516c\u8eca","public_transport":"platform"},"geometry":{"type":"Point","coordinates":[120.2744711,23.0302681]}},{"type":"Feature","properties":{"bus":"yes","highway":"bus_stop","name":"\u5fb7\u82b3\u793e\u5340","network":"\u81fa\u5357\u5e02\u516c\u8eca","note":"\u8208\u5357\u5ba2\u904b","operator":"\u81fa\u5357\u5e02\u516c\u8eca","public_transport":"platform"},"geometry":{"type":"Point","coordinates":[120.2685757,23.0293484]}},{"type":"Feature","properties":{"bus":"yes","highway":"bus_stop","name":"\u9f8d\u6f6d\u53e3","network":"\u81fa\u5357\u5e02\u516c\u8eca","note":"\u8208\u5357\u5ba2\u904b","operator":"\u81fa\u5357\u5e02\u516c\u8eca","public_transport":"platform"},"geometry":{"type":"Point","coordinates":[120.2657557,23.0291361]}},{"type":"Feature","properties":{"bus":"yes","highway":"bus_stop","name":"\u6c38\u5eb7","network":"\u81fa\u5357\u5e02\u516c\u8eca","note":"\u8208\u5357\u5ba2\u904b","operator":"\u81fa\u5357\u5e02\u516c\u8eca","public_transport":"platform"},"geometry":{"type":"Point","coordinates":[120.2593407,23.0269225]}},{"type":"Feature","properties":{"bus":"yes","highway":"bus_stop","name":"\u6c38\u5eb7\u8fb2\u6703","network":"\u81fa\u5357\u5e02\u516c\u8eca","note":"\u8208\u5357\u5ba2\u904b","operator":"\u81fa\u5357\u5e02\u516c\u8eca","public_transport":"platform"},"geometry":{"type":"Point","coordinates":[120.2551857,23.0252751]}},{"type":"Feature","properties":{"bus":"yes","highway":"bus_stop","name":"\u53f0\u5357\u5927\u5b78\u9644\u4e2d","network":"\u81fa\u5357\u5e02\u516c\u8eca","note":"\u8208\u5357\u5ba2\u904b","operator":"\u81fa\u5357\u5e02\u516c\u8eca","public_transport":"platform"},"geometry":{"type":"Point","coordinates":[120.2516628,23.0233146]}},{"type":"Feature","properties":{"bus":"yes","highway":"bus_stop","name":"\u4e8c\u738b","network":"\u81fa\u5357\u5e02\u516c\u8eca","note":"\u8208\u5357\u5ba2\u904b","operator":"\u81fa\u5357\u5e02\u516c\u8eca","public_transport":"platform"},"geometry":{"type":"Point","coordinates":[120.2473808,23.0213042]}},{"type":"Feature","properties":{"bus":"yes","highway":"bus_stop","name":"\u5eb7\u798f\u65b0\u57ce","network":"\u81fa\u5357\u5e02\u516c\u8eca","note":"\u8208\u5357\u5ba2\u904b","operator":"\u81fa\u5357\u5e02\u516c\u8eca","public_transport":"platform"},"geometry":{"type":"Point","coordinates":[120.2433544,23.0201963]}},{"type":"Feature","properties":{"bus":"yes","highway":"bus_stop","name":"\u4e2d\u8208","network":"\u81fa\u5357\u5e02\u516c\u8eca","note":"\u8208\u5357\u5ba2\u904b","operator":"\u81fa\u5357\u5e02\u516c\u8eca","public_transport":"platform"},"geometry":{"type":"Point","coordinates":[120.240306,23.0185293]}},{"type":"Feature","properties":{"bench":"yes","bus":"yes","highway":"bus_stop","name":"\u5357\u5de5\u793e\u5340","network":"\u81fa\u5357\u5e02\u516c\u8eca","operator":"\u81fa\u5357\u5e02\u516c\u8eca","public_transport":"platform","shelter":"yes"},"geometry":{"type":"Point","coordinates":[120.2347779,23.014906]}},{"type":"Feature","properties":{"bus":"yes","highway":"bus_stop","name":"\u5357\u5de5\u5bbf\u820d","network":"\u81fa\u5357\u5e02\u516c\u8eca","operator":"\u81fa\u5357\u5e02\u516c\u8eca","public_transport":"platform"},"geometry":{"type":"Point","coordinates":[120.229426,23.0131433]}},{"type":"Feature","properties":{"bus":"yes","highway":"bus_stop","name":"\u5d11\u5c71\u4e2d\u5b78","network":"\u81fa\u5357\u5e02\u516c\u8eca","operator":"\u81fa\u5357\u5e02\u516c\u8eca","public_transport":"platform","ref":"0514"},"geometry":{"type":"Point","coordinates":[120.2257294,23.0110579]}},{"type":"Feature","properties":{"bus":"yes","highway":"bus_stop","name":"\u958b\u5143","network":"\u81fa\u5357\u5e02\u516c\u8eca","operator":"\u81fa\u5357\u5e02\u516c\u8eca","public_transport":"platform"},"geometry":{"type":"Point","coordinates":[120.2234292,23.0094165]}},{"type":"Feature","properties":{"bus":"yes","highway":"bus_stop","name":"\u4e2d\u6a13","network":"\u81fa\u5357\u5e02\u516c\u8eca","operator":"\u81fa\u5357\u5e02\u516c\u8eca","public_transport":"platform"},"geometry":{"type":"Point","coordinates":[120.2187726,23.0069283]}},{"type":"Feature","properties":{"bus":"yes","highway":"bus_stop","name":"\u53f0\u5357\u4e8c\u4e2d","network":"\u81fa\u5357\u5e02\u516c\u8eca","operator":"\u81fa\u5357\u5e02\u516c\u8eca","public_transport":"platform"},"geometry":{"type":"Point","coordinates":[120.2133047,23.0035109]}},{"type":"Feature","properties":{"bench":"yes","bus":"yes","highway":"bus_stop","name":"\u53f0\u5357\u516c\u5712(\u5317\u9580\u8def)","network":"\u81fa\u5357\u5e02\u516c\u8eca","operator":"\u81fa\u5357\u5e02\u516c\u8eca","public_transport":"platform","shelter":"yes"},"geometry":{"type":"Point","coordinates":[120.2126986,23.0005175]}},{"type":"Feature","properties":{"bench":"yes","bus":"yes","highway":"bus_stop","name":"\u81fa\u5357\u706b\u8eca\u7ad9(\u5357\u7ad9)","network":"\u81fa\u5357\u5e02\u516c\u8eca","note":"\u8208\u5357\u5ba2\u904b","operator":"\u81fa\u5357\u5e02\u516c\u8eca","public_transport":"platform","ref":"9211","shelter":"yes"},"geometry":{"type":"Point","coordinates":[120.2111399,22.9972139]}},{"type":"Feature","properties":{"bus":"yes","highway":"bus_stop","name":"\u53f0\u5357\u516c\u5712(\u516c\u5712\u8def)","network":"\u81fa\u5357\u5e02\u516c\u8eca","operator":"\u81fa\u5357\u5e02\u516c\u8eca","public_transport":"platform"},"geometry":{"type":"Point","coordinates":[120.2092589,23.0018108]}},{"type":"Feature","properties":{"from":"\u7389\u4e95","name":"\u7da0\u5e79\u7dda(\u8fd4\u7a0b)","public_transport:version":"2","ref":"\u7da0\u5e79\u7dda","route":"bus","to":"\u81fa\u5357\u516c\u5712","type":"route"},"geometry":{"type":"LineString","coordinates":[[120.4604874,23.1239669],[120.4605106,23.1240035]]}},{"type":"Feature","properties":{"from":"\u7389\u4e95","name":"\u7da0\u5e79\u7dda(\u8fd4\u7a0b)","public_transport:version":"2","ref":"\u7da0\u5e79\u7dda","route":"bus","to":"\u81fa\u5357\u516c\u5712","type":"route"},"geometry":{"type":"LineString","coordinates":[[120.459341,23.1218959],[120.4594872,23.1222878],[120.4596709,23.1226997],[120.4597675,23.1228267],[120.4598144,23.1229242],[120.46012,23.1234163],[120.4604874,23.1239669]]}},{"type":"Feature","properties":{"from":"\u7389\u4e95","name":"\u7da0\u5e79\u7dda(\u8fd4\u7a0b)","public_transport:version":"2","ref":"\u7da0\u5e79\u7dda","route":"bus","to":"\u81fa\u5357\u516c\u5712","type":"route"},"geometry":{"type":"LineString","coordinates":[[120.4584791,23.1197007],[120.459341,23.1218959]]}},{"type":"Feature","properties":{"from":"\u7389\u4e95","name":"\u7da0\u5e79\u7dda(\u8fd4\u7a0b)","public_transport:version":"2","ref":"\u7da0\u5e79\u7dda","route":"bus","to":"\u81fa\u5357\u516c\u5712","type":"route"},"geometry":{"type":"LineString","coordinates":[[120.4584791,23.1197007],[120.4582778,23.1195536],[120.4581785,23.1194181]]}},{"type":"Feature","properties":{"from":"\u7389\u4e95","name":"\u7da0\u5e79\u7dda(\u8fd4\u7a0b)","public_transport:version":"2","ref":"\u7da0\u5e79\u7dda","route":"bus","to":"\u81fa\u5357\u516c\u5712","type":"route"},"geometry":{"type":"LineString","coordinates":[[120.4581785,23.1194181],[120.4581431,23.1179706],[120.4581532,23.1165218]]}},{"type":"Feature","properties":{"from":"\u7389\u4e95","name":"\u7da0\u5e79\u7dda(\u8fd4\u7a0b)","public_transport:version":"2","ref":"\u7da0\u5e79\u7dda","route":"bus","to":"\u81fa\u5357\u516c\u5712","type":"route"},"geometry":{"type":"LineString","coordinates":[[120.4581532,23.1165218],[120.4581587,23.116368],[120.4581659,23.1162827],[120.4581578,23.1161667],[120.4581297,23.1160498],[120.4581429,23.1159172]]}},{"type":"Feature","properties":{"from":"\u7389\u4e95","name":"\u7da0\u5e79\u7dda(\u8fd4\u7a0b)","public_transport:version":"2","ref":"\u7da0\u5e79\u7dda","route":"bus","to":"\u81fa\u5357\u516c\u5712","type":"route"},"geometry":{"type":"LineString","coordinates":[[120.4581429,23.1159172],[120.4580745,23.1158024],[120.4579522,23.1156225],[120.4577053,23.115301],[120.4566519,23.1141169],[120.4554664,23.1126386],[120.4550718,23.1121981],[120.4546714,23.1117931],[120.4539676,23.111212],[120.4536234,23.1109303],[120.4531522,23.1105101],[120.4523268,23.1098062],[120.4517815,23.1093412],[120.4513682,23.109062],[120.45065,23.108592],[120.450475,23.1085049],[120.4498866,23.1081556],[120.4490363,23.107634],[120.4487671,23.1074614],[120.4485503,23.1072829],[120.4483481,23.1070368],[120.4483256,23.1069967],[120.4482509,23.1068635],[120.4481309,23.1065816],[120.4481035,23.1065171],[120.4480133,23.1062487],[120.4479212,23.1059425],[120.4476749,23.1052585],[120.4471747,23.1038337],[120.4468153,23.1028197],[120.4465189,23.1021684],[120.4459811,23.1012433],[120.4455372,23.1004488],[120.4452194,23.0999724],[120.4450611,23.0997849],[120.4448083,23.0995308],[120.4446099,23.0993636],[120.4444596,23.0992335],[120.4439757,23.0988004],[120.4426998,23.097715],[120.4411159,23.0964616],[120.4394516,23.0951959],[120.4390292,23.0949479],[120.4387687,23.0948402],[120.4383604,23.0947136],[120.4372039,23.0943126],[120.4358467,23.0937464],[120.4343943,23.0931308],[120.4339169,23.0929063],[120.4336916,23.0927397],[120.4334904,23.0925275],[120.4333308,23.0922882],[120.4331793,23.0919428],[120.4331297,23.0916442],[120.4331266,23.0907486],[120.4330938,23.0905673],[120.4330408,23.09041],[120.4329248,23.0901725],[120.4327662,23.0899628],[120.4322666,23.0893663],[120.4320896,23.0891335],[120.4318646,23.0889995],[120.4313843,23.0887965],[120.4304237,23.0884701],[120.4299823,23.0882883],[120.4297717,23.0881848],[120.429577,23.0880309],[120.429378,23.0878425],[120.4292179,23.0876236],[120.4290405,23.0873184],[120.4288385,23.0869376],[120.4287448,23.086716],[120.4286294,23.086436],[120.4284664,23.0860685],[120.4283366,23.0857753],[120.4282183,23.0853931],[120.4279327,23.0840809],[120.427875,23.083858],[120.4277279,23.0833975],[120.4275,23.082831],[120.4274366,23.082693],[120.4273644,23.0825125],[120.4273125,23.082405],[120.427187,23.0822206],[120.427037,23.0820335],[120.4269144,23.0819273],[120.42675,23.081788],[120.4264514,23.0815492],[120.4260476,23.0812745],[120.4257923,23.0810901],[120.4256105,23.0809454],[120.4253927,23.080757],[120.4252889,23.0806469],[120.425185,23.0805288],[120.4250047,23.0802674],[120.4246728,23.0797235],[120.4245776,23.0795347],[120.4245212,23.0794175],[120.4244716,23.0791708],[120.4244515,23.0789129],[120.4244998,23.0785971],[120.4245483,23.078339],[120.4245966,23.0780552],[120.4246046,23.0779367],[120.4246111,23.0778037],[120.4246084,23.0776545],[120.4245832,23.0775444],[120.4245376,23.077384],[120.4244206,23.0771054],[120.4242771,23.0769006],[120.4239995,23.0764762],[120.4236578,23.0758863],[120.4236236,23.0758232],[120.4235552,23.0757122],[120.4234567,23.075523],[120.4233882,23.0753463],[120.4233318,23.0751769],[120.4232895,23.0749811],[120.4232738,23.0749098],[120.4232132,23.0746348],[120.4231803,23.0744426],[120.4231729,23.0742821],[120.4231699,23.0740995],[120.4231971,23.0739833],[120.4232404,23.0738533],[120.4233007,23.0737029],[120.4234075,23.0734701],[120.4235825,23.0731893],[120.4237313,23.0729623],[120.4238936,23.072702],[120.4239593,23.0724873],[120.4240049,23.0722763],[120.4240183,23.0720641],[120.42397,23.0717544],[120.4239097,23.0714521],[120.4238735,23.0713176],[120.4238292,23.071135],[120.4237675,23.070982],[120.4236804,23.0707932],[120.4236307,23.0707241],[120.4235221,23.0705995],[120.4234121,23.0704811],[120.4231493,23.0702479],[120.4229843,23.0700887],[120.4228542,23.0699443],[120.4227322,23.0698209],[120.4226075,23.0696248],[120.4224506,23.0692669],[120.4222657,23.0687423],[120.4221756,23.0684834],[120.4220657,23.0680911],[120.4220067,23.0678739],[120.421953,23.0675765],[120.4219114,23.0673211],[120.4219061,23.067162],[120.4219275,23.0664821],[120.4219785,23.0659034],[120.4219932,23.0653815],[120.4219798,23.0651902],[120.4219624,23.0650212],[120.4219342,23.0648065],[120.4218162,23.0644326],[120.4216365,23.0638724],[120.4214474,23.0632727],[120.4212154,23.0627804]]}},{"type":"Feature","properties":{"from":"\u7389\u4e95","name":"\u7da0\u5e79\u7dda(\u8fd4\u7a0b)","public_transport:version":"2","ref":"\u7da0\u5e79\u7dda","route":"bus","to":"\u81fa\u5357\u516c\u5712","type":"route"},"geometry":{"type":"LineString","coordinates":[[120.4091334,23.0595119],[120.4092997,23.0596569],[120.4094378,23.0597556],[120.410115,23.0601252],[120.4104047,23.0602652],[120.4106475,23.0603553],[120.4108285,23.0604139],[120.4109881,23.0604602],[120.4111986,23.0604806],[120.4114495,23.0604725],[120.4122447,23.0603899],[120.4126994,23.0603393],[120.4129368,23.0603047],[120.4131044,23.0602652],[120.4132653,23.060222],[120.4138702,23.0599999],[120.4144482,23.0597778],[120.4145608,23.059742],[120.4146695,23.0597211],[120.4148264,23.0597186],[120.4149886,23.0597383],[120.4153239,23.0598111],[120.4155881,23.0598901],[120.4158188,23.0599938],[120.4162399,23.0602307],[120.416771,23.060607],[120.417181,23.0609151],[120.4174472,23.0611218],[120.4177269,23.0613723],[120.4179335,23.0616018],[120.4182698,23.0620711],[120.4184978,23.062345],[120.4186158,23.0624684],[120.4187258,23.0625573],[120.4188733,23.0626264],[120.4190691,23.0626732],[120.419281,23.0627004],[120.4206452,23.0626866],[120.4209841,23.0627378],[120.4212154,23.0627804]]}},{"type":"Feature","properties":{"from":"\u7389\u4e95","name":"\u7da0\u5e79\u7dda(\u8fd4\u7a0b)","public_transport:version":"2","ref":"\u7da0\u5e79\u7dda","route":"bus","to":"\u81fa\u5357\u516c\u5712","type":"route"},"geometry":{"type":"LineString","coordinates":[[120.4087954,23.0591929],[120.4091334,23.0595119]]}},{"type":"Feature","properties":{"from":"\u7389\u4e95","name":"\u7da0\u5e79\u7dda(\u8fd4\u7a0b)","public_transport:version":"2","ref":"\u7da0\u5e79\u7dda","route":"bus","to":"\u81fa\u5357\u516c\u5712","type":"route"},"geometry":{"type":"LineString","coordinates":[[120.4087954,23.0591929],[120.4086694,23.0590708],[120.4086057,23.058998],[120.4083817,23.0587857],[120.408267,23.0586907],[120.4081544,23.0586142],[120.4079988,23.0585303],[120.4078436,23.05846],[120.4074339,23.0582854],[120.4073366,23.0582539]]}},{"type":"Feature","properties":{"from":"\u7389\u4e95","name":"\u7da0\u5e79\u7dda(\u8fd4\u7a0b)","public_transport:version":"2","ref":"\u7da0\u5e79\u7dda","route":"bus","to":"\u81fa\u5357\u516c\u5712","type":"route"},"geometry":{"type":"LineString","coordinates":[[120.4073366,23.0582539],[120.4070862,23.0581817],[120.4063425,23.0579911],[120.4060757,23.0578837],[120.4058557,23.0577332],[120.4057002,23.0575567],[120.405566,23.0573321],[120.4052213,23.0565844],[120.4049165,23.0559235],[120.4046232,23.0552874],[120.4043886,23.0547506],[120.4043229,23.0546556],[120.4042397,23.0545927],[120.4042102,23.0545705],[120.4041136,23.0545581],[120.4039902,23.0545606],[120.4038726,23.0545976],[120.4027408,23.0551064]]}},{"type":"Feature","properties":{"from":"\u7389\u4e95","name":"\u7da0\u5e79\u7dda(\u8fd4\u7a0b)","public_transport:version":"2","ref":"\u7da0\u5e79\u7dda","route":"bus","to":"\u81fa\u5357\u516c\u5712","type":"route"},"geometry":{"type":"LineString","coordinates":[[120.4027408,23.0551064],[120.402677,23.0551448]]}},{"type":"Feature","properties":{"from":"\u7389\u4e95","name":"\u7da0\u5e79\u7dda(\u8fd4\u7a0b)","public_transport:version":"2","ref":"\u7da0\u5e79\u7dda","route":"bus","to":"\u81fa\u5357\u516c\u5712","type":"route"},"geometry":{"type":"LineString","coordinates":[[120.402677,23.0551448],[120.4024262,23.0552701],[120.4020386,23.055454],[120.4018361,23.0555366],[120.4015542,23.055637]]}},{"type":"Feature","properties":{"from":"\u7389\u4e95","name":"\u7da0\u5e79\u7dda(\u8fd4\u7a0b)","public_transport:version":"2","ref":"\u7da0\u5e79\u7dda","route":"bus","to":"\u81fa\u5357\u516c\u5712","type":"route"},"geometry":{"type":"LineString","coordinates":[[120.4015542,23.055637],[120.4011978,23.0558192],[120.4008947,23.0559513],[120.4004883,23.0561043],[120.4002576,23.0561919],[120.3982285,23.0569668],[120.3980837,23.0570433],[120.3979724,23.057126],[120.3978825,23.0572025],[120.3977706,23.0573176],[120.3975768,23.0575455],[120.3972495,23.0579836],[120.3971369,23.0581588],[120.3969397,23.0584648],[120.3968056,23.0586327],[120.3967466,23.0586919],[120.3966729,23.05874],[120.3965776,23.0587807],[120.3964797,23.0588104],[120.3962772,23.0588511],[120.395722,23.058951],[120.3952808,23.0590448],[120.3950421,23.0591188],[120.3948356,23.0591916],[120.3934264,23.0598025],[120.3925489,23.0602122],[120.3913301,23.0607433],[120.3909182,23.0609328],[120.3907894,23.0610068],[120.3906835,23.0610833],[120.3905641,23.0612042],[120.3904789,23.0613692],[120.3903188,23.0616115],[120.3900807,23.062087],[120.3896923,23.0627722],[120.3895559,23.0629401],[120.38937,23.0630927],[120.3888608,23.0633257],[120.3874862,23.06395],[120.3869995,23.064133],[120.3864413,23.0642849],[120.3860727,23.0643735],[120.3859302,23.0644078],[120.3854584,23.0644296],[120.3851182,23.0644083],[120.3849946,23.0644006],[120.3845857,23.0643572],[120.3842398,23.0643572],[120.3837208,23.0644874],[120.3832316,23.0646577],[120.383139,23.06469],[120.3826987,23.0648853],[120.3823056,23.0651385],[120.3821061,23.0653257],[120.3819046,23.0655147],[120.3811887,23.0663764]]}},{"type":"Feature","properties":{"from":"\u7389\u4e95","name":"\u7da0\u5e79\u7dda(\u8fd4\u7a0b)","public_transport:version":"2","ref":"\u7da0\u5e79\u7dda","route":"bus","to":"\u81fa\u5357\u516c\u5712","type":"route"},"geometry":{"type":"LineString","coordinates":[[120.3811887,23.0663764],[120.3805173,23.0671613]]}},{"type":"Feature","properties":{"from":"\u7389\u4e95","name":"\u7da0\u5e79\u7dda(\u8fd4\u7a0b)","public_transport:version":"2","ref":"\u7da0\u5e79\u7dda","route":"bus","to":"\u81fa\u5357\u516c\u5712","type":"route"},"geometry":{"type":"LineString","coordinates":[[120.3805173,23.0671613],[120.3802487,23.067432],[120.3799427,23.0676838],[120.3794153,23.0681309],[120.377962,23.0696821],[120.377849,23.0698053],[120.3766878,23.0713043],[120.3766466,23.0713568],[120.3765728,23.071451],[120.3764523,23.0716448],[120.3763384,23.0718823],[120.3762903,23.0721653],[120.3762746,23.0724619]]}},{"type":"Feature","properties":{"from":"\u7389\u4e95","name":"\u7da0\u5e79\u7dda(\u8fd4\u7a0b)","public_transport:version":"2","ref":"\u7da0\u5e79\u7dda","route":"bus","to":"\u81fa\u5357\u516c\u5712","type":"route"},"geometry":{"type":"LineString","coordinates":[[120.3762746,23.0724619],[120.3760298,23.0761465],[120.375998,23.0765127],[120.3758899,23.0768377],[120.3756966,23.0770858],[120.3751438,23.0775702],[120.3750188,23.0776775]]}},{"type":"Feature","properties":{"from":"\u7389\u4e95","name":"\u7da0\u5e79\u7dda(\u8fd4\u7a0b)","public_transport:version":"2","ref":"\u7da0\u5e79\u7dda","route":"bus","to":"\u81fa\u5357\u516c\u5712","type":"route"},"geometry":{"type":"LineString","coordinates":[[120.3750188,23.0776775],[120.3745761,23.0781087],[120.3739012,23.0788989],[120.3734601,23.0793865]]}},{"type":"Feature","properties":{"from":"\u7389\u4e95","name":"\u7da0\u5e79\u7dda(\u8fd4\u7a0b)","public_transport:version":"2","ref":"\u7da0\u5e79\u7dda","route":"bus","to":"\u81fa\u5357\u516c\u5712","type":"route"},"geometry":{"type":"LineString","coordinates":[[120.3734601,23.0793865],[120.3731973,23.0796185],[120.3729156,23.0797542],[120.3724301,23.0799072],[120.3721163,23.0799788],[120.3717033,23.0799491],[120.3709522,23.0797814],[120.3703199,23.0796237],[120.3695351,23.079428]]}},{"type":"Feature","properties":{"from":"\u7389\u4e95","name":"\u7da0\u5e79\u7dda(\u8fd4\u7a0b)","public_transport:version":"2","ref":"\u7da0\u5e79\u7dda","route":"bus","to":"\u81fa\u5357\u516c\u5712","type":"route"},"geometry":{"type":"LineString","coordinates":[[120.3695351,23.079428],[120.3694291,23.0793963],[120.3690224,23.0792767],[120.3688159,23.0792027],[120.3684538,23.0790571],[120.368199,23.0789362],[120.3679549,23.0788128]]}},{"type":"Feature","properties":{"from":"\u7389\u4e95","name":"\u7da0\u5e79\u7dda(\u8fd4\u7a0b)","public_transport:version":"2","ref":"\u7da0\u5e79\u7dda","route":"bus","to":"\u81fa\u5357\u516c\u5712","type":"route"},"geometry":{"type":"LineString","coordinates":[[120.3679549,23.0788128],[120.3672449,23.078393],[120.3668552,23.0781627],[120.3666792,23.0780586],[120.3665069,23.077958],[120.3660342,23.0776819],[120.3659941,23.0776585],[120.3656322,23.0774522],[120.3642801,23.0766811],[120.3627778,23.0758277],[120.3627037,23.0757756],[120.360308,23.074416],[120.3599776,23.0741753],[120.359736,23.0738958],[120.3593029,23.0734131]]}},{"type":"Feature","properties":{"from":"\u7389\u4e95","name":"\u7da0\u5e79\u7dda(\u8fd4\u7a0b)","public_transport:version":"2","ref":"\u7da0\u5e79\u7dda","route":"bus","to":"\u81fa\u5357\u516c\u5712","type":"route"},"geometry":{"type":"LineString","coordinates":[[120.3593029,23.0734131],[120.3573224,23.0711768]]}},{"type":"Feature","properties":{"from":"\u7389\u4e95","name":"\u7da0\u5e79\u7dda(\u8fd4\u7a0b)","public_transport:version":"2","ref":"\u7da0\u5e79\u7dda","route":"bus","to":"\u81fa\u5357\u516c\u5712","type":"route"},"geometry":{"type":"LineString","coordinates":[[120.3573224,23.0711768],[120.3570948,23.0709163],[120.3568292,23.0706592],[120.3566997,23.0705221],[120.3565141,23.0704083],[120.3560719,23.0702147],[120.355841,23.0701091],[120.3555974,23.0699976],[120.3541291,23.0693665],[120.3538467,23.0692239],[120.3536189,23.0691197],[120.352658,23.068653],[120.3520363,23.0684018],[120.3516189,23.0682157],[120.351289,23.0681398],[120.3510888,23.0680938],[120.3509367,23.0680903],[120.3508481,23.0680742],[120.3500965,23.0679326],[120.3497039,23.0678614],[120.3489213,23.0677178],[120.3487587,23.0676756],[120.3483943,23.067607],[120.3456753,23.067095],[120.3453094,23.0670244],[120.3447135,23.0669094],[120.342928,23.0666126],[120.3427951,23.0665691],[120.3426807,23.066537],[120.342434,23.0664784],[120.3421984,23.066387],[120.3417646,23.0662288],[120.3413181,23.06606],[120.3402269,23.0655986],[120.3391711,23.0651039],[120.3372136,23.0641984],[120.334975,23.063088],[120.3340913,23.0626409],[120.3327948,23.0619414],[120.3324391,23.0617376],[120.3323412,23.0616864],[120.331904,23.0614359]]}},{"type":"Feature","properties":{"from":"\u7389\u4e95","name":"\u7da0\u5e79\u7dda(\u8fd4\u7a0b)","public_transport:version":"2","ref":"\u7da0\u5e79\u7dda","route":"bus","to":"\u81fa\u5357\u516c\u5712","type":"route"},"geometry":{"type":"LineString","coordinates":[[120.331904,23.0614359],[120.331841,23.0613817],[120.3311495,23.0607606],[120.3299381,23.0596849],[120.3294038,23.0592625],[120.3267611,23.0569054],[120.3252875,23.0556395],[120.3249943,23.0553628],[120.3248706,23.0553221],[120.3246409,23.0552244],[120.3240394,23.0549615],[120.3237838,23.0547955],[120.3236759,23.0546953]]}},{"type":"Feature","properties":{"from":"\u7389\u4e95","name":"\u7da0\u5e79\u7dda(\u8fd4\u7a0b)","public_transport:version":"2","ref":"\u7da0\u5e79\u7dda","route":"bus","to":"\u81fa\u5357\u516c\u5712","type":"route"},"geometry":{"type":"LineString","coordinates":[[120.3236759,23.0546953],[120.3235583,23.0545119],[120.3234305,23.0541937],[120.3233335,23.0539805]]}},{"type":"Feature","properties":{"from":"\u7389\u4e95","name":"\u7da0\u5e79\u7dda(\u8fd4\u7a0b)","public_transport:version":"2","ref":"\u7da0\u5e79\u7dda","route":"bus","to":"\u81fa\u5357\u516c\u5712","type":"route"},"geometry":{"type":"LineString","coordinates":[[120.3233335,23.0539805],[120.3231574,23.0535933]]}},{"type":"Feature","properties":{"from":"\u7389\u4e95","name":"\u7da0\u5e79\u7dda(\u8fd4\u7a0b)","public_transport:version":"2","ref":"\u7da0\u5e79\u7dda","route":"bus","to":"\u81fa\u5357\u516c\u5712","type":"route"},"geometry":{"type":"LineString","coordinates":[[120.3231574,23.0535933],[120.3230238,23.0532706]]}},{"type":"Feature","properties":{"from":"\u7389\u4e95","name":"\u7da0\u5e79\u7dda(\u8fd4\u7a0b)","public_transport:version":"2","ref":"\u7da0\u5e79\u7dda","route":"bus","to":"\u81fa\u5357\u516c\u5712","type":"route"},"geometry":{"type":"LineString","coordinates":[[120.3230238,23.0532706],[120.3227872,23.0528538],[120.3223152,23.0523096],[120.3214547,23.051311],[120.3205758,23.0503096],[120.3200366,23.0497092],[120.3199536,23.0496209],[120.3197172,23.0493254],[120.3194431,23.0490385]]}},{"type":"Feature","properties":{"from":"\u7389\u4e95","name":"\u7da0\u5e79\u7dda(\u8fd4\u7a0b)","public_transport:version":"2","ref":"\u7da0\u5e79\u7dda","route":"bus","to":"\u81fa\u5357\u516c\u5712","type":"route"},"geometry":{"type":"LineString","coordinates":[[120.3194431,23.0490385],[120.3193426,23.0489212],[120.3191555,23.0486805],[120.318969,23.0484522],[120.3182945,23.0476883],[120.3173391,23.0465899],[120.3169285,23.0461153],[120.3167511,23.0458974],[120.3164203,23.0455258],[120.3161836,23.0452495],[120.3161387,23.045199],[120.3157995,23.044818],[120.3156875,23.0446922],[120.315381,23.044348],[120.3152699,23.0442232],[120.3147522,23.0436418],[120.3142704,23.0431006],[120.3141655,23.042974],[120.3138461,23.0426175],[120.3135143,23.0422379],[120.3129609,23.0416327],[120.312782,23.0414555],[120.3125742,23.0412331],[120.3125161,23.0411689],[120.3124513,23.0410971]]}},{"type":"Feature","properties":{"from":"\u7389\u4e95","name":"\u7da0\u5e79\u7dda(\u8fd4\u7a0b)","public_transport:version":"2","ref":"\u7da0\u5e79\u7dda","route":"bus","to":"\u81fa\u5357\u516c\u5712","type":"route"},"geometry":{"type":"LineString","coordinates":[[120.3124513,23.0410971],[120.3121292,23.0407653]]}},{"type":"Feature","properties":{"from":"\u7389\u4e95","name":"\u7da0\u5e79\u7dda(\u8fd4\u7a0b)","public_transport:version":"2","ref":"\u7da0\u5e79\u7dda","route":"bus","to":"\u81fa\u5357\u516c\u5712","type":"route"},"geometry":{"type":"LineString","coordinates":[[120.311733,23.0402183],[120.3119229,23.0404948],[120.3121292,23.0407653]]}},{"type":"Feature","properties":{"from":"\u7389\u4e95","name":"\u7da0\u5e79\u7dda(\u8fd4\u7a0b)","public_transport:version":"2","ref":"\u7da0\u5e79\u7dda","route":"bus","to":"\u81fa\u5357\u516c\u5712","type":"route"},"geometry":{"type":"LineString","coordinates":[[120.3116252,23.0400086],[120.311733,23.0402183]]}},{"type":"Feature","properties":{"from":"\u7389\u4e95","name":"\u7da0\u5e79\u7dda(\u8fd4\u7a0b)","public_transport:version":"2","ref":"\u7da0\u5e79\u7dda","route":"bus","to":"\u81fa\u5357\u516c\u5712","type":"route"},"geometry":{"type":"LineString","coordinates":[[120.3112656,23.0390189],[120.3116252,23.0400086]]}},{"type":"Feature","properties":{"from":"\u7389\u4e95","name":"\u7da0\u5e79\u7dda(\u8fd4\u7a0b)","public_transport:version":"2","ref":"\u7da0\u5e79\u7dda","route":"bus","to":"\u81fa\u5357\u516c\u5712","type":"route"},"geometry":{"type":"LineString","coordinates":[[120.3112656,23.0390189],[120.3110571,23.0385327],[120.3104641,23.0374723],[120.3098462,23.0364461],[120.3096498,23.0362542]]}},{"type":"Feature","properties":{"from":"\u7389\u4e95","name":"\u7da0\u5e79\u7dda(\u8fd4\u7a0b)","public_transport:version":"2","ref":"\u7da0\u5e79\u7dda","route":"bus","to":"\u81fa\u5357\u516c\u5712","type":"route"},"geometry":{"type":"LineString","coordinates":[[120.3096498,23.0362542],[120.3096879,23.0359396],[120.3095345,23.0359334]]}},{"type":"Feature","properties":{"from":"\u7389\u4e95","name":"\u7da0\u5e79\u7dda(\u8fd4\u7a0b)","public_transport:version":"2","ref":"\u7da0\u5e79\u7dda","route":"bus","to":"\u81fa\u5357\u516c\u5712","type":"route"},"geometry":{"type":"LineString","coordinates":[[120.3095345,23.0359334],[120.3093867,23.0359275],[120.3093634,23.0362278]]}},{"type":"Feature","properties":{"from":"\u7389\u4e95","name":"\u7da0\u5e79\u7dda(\u8fd4\u7a0b)","public_transport:version":"2","ref":"\u7da0\u5e79\u7dda","route":"bus","to":"\u81fa\u5357\u516c\u5712","type":"route"},"geometry":{"type":"LineString","coordinates":[[120.3093634,23.0362278],[120.3090403,23.0361691],[120.3085326,23.0360485],[120.3080732,23.0359316]]}},{"type":"Feature","properties":{"from":"\u7389\u4e95","name":"\u7da0\u5e79\u7dda(\u8fd4\u7a0b)","public_transport:version":"2","ref":"\u7da0\u5e79\u7dda","route":"bus","to":"\u81fa\u5357\u516c\u5712","type":"route"},"geometry":{"type":"LineString","coordinates":[[120.3080732,23.0359316],[120.3072147,23.0358939],[120.3068466,23.0358842],[120.3063522,23.0358459],[120.3060616,23.0358254],[120.3058097,23.0358018],[120.3053942,23.0357755],[120.3049308,23.0357489],[120.3040541,23.0357408],[120.3032815,23.0357785],[120.3029342,23.0358487],[120.301754,23.0361204],[120.30131,23.0362093]]}},{"type":"Feature","properties":{"from":"\u7389\u4e95","name":"\u7da0\u5e79\u7dda(\u8fd4\u7a0b)","public_transport:version":"2","ref":"\u7da0\u5e79\u7dda","route":"bus","to":"\u81fa\u5357\u516c\u5712","type":"route"},"geometry":{"type":"LineString","coordinates":[[120.30131,23.0362093],[120.300401,23.0364188]]}},{"type":"Feature","properties":{"from":"\u7389\u4e95","name":"\u7da0\u5e79\u7dda(\u8fd4\u7a0b)","public_transport:version":"2","ref":"\u7da0\u5e79\u7dda","route":"bus","to":"\u81fa\u5357\u516c\u5712","type":"route"},"geometry":{"type":"LineString","coordinates":[[120.300401,23.0364188],[120.3001818,23.0366379]]}},{"type":"Feature","properties":{"from":"\u7389\u4e95","name":"\u7da0\u5e79\u7dda(\u8fd4\u7a0b)","public_transport:version":"2","ref":"\u7da0\u5e79\u7dda","route":"bus","to":"\u81fa\u5357\u516c\u5712","type":"route"},"geometry":{"type":"LineString","coordinates":[[120.3001818,23.0366379],[120.2997715,23.0365734]]}},{"type":"Feature","properties":{"from":"\u7389\u4e95","name":"\u7da0\u5e79\u7dda(\u8fd4\u7a0b)","public_transport:version":"2","ref":"\u7da0\u5e79\u7dda","route":"bus","to":"\u81fa\u5357\u516c\u5712","type":"route"},"geometry":{"type":"LineString","coordinates":[[120.2899947,23.0349306],[120.2903887,23.0349844],[120.2919865,23.0351801],[120.2924738,23.0352401],[120.293854,23.0354161],[120.2945642,23.0355522],[120.2947557,23.0355548],[120.2951191,23.0356514],[120.2956476,23.0358293],[120.2975543,23.0363556],[120.2983502,23.0365911],[120.2984527,23.0366151],[120.2988477,23.0367184],[120.299063,23.0366871],[120.2995271,23.0366364],[120.2997715,23.0365734]]}},{"type":"Feature","properties":{"from":"\u7389\u4e95","name":"\u7da0\u5e79\u7dda(\u8fd4\u7a0b)","public_transport:version":"2","ref":"\u7da0\u5e79\u7dda","route":"bus","to":"\u81fa\u5357\u516c\u5712","type":"route"},"geometry":{"type":"LineString","coordinates":[[120.2899947,23.0349306],[120.2891166,23.0348149],[120.2889513,23.0348052],[120.2888923,23.0347958],[120.2887449,23.0347832],[120.2883774,23.0346857],[120.2877524,23.0344473],[120.2873082,23.0342698]]}},{"type":"Feature","properties":{"from":"\u7389\u4e95","name":"\u7da0\u5e79\u7dda(\u8fd4\u7a0b)","public_transport:version":"2","ref":"\u7da0\u5e79\u7dda","route":"bus","to":"\u81fa\u5357\u516c\u5712","type":"route"},"geometry":{"type":"LineString","coordinates":[[120.2873082,23.0342698],[120.2852136,23.033409]]}},{"type":"Feature","properties":{"from":"\u7389\u4e95","name":"\u7da0\u5e79\u7dda(\u8fd4\u7a0b)","public_transport:version":"2","ref":"\u7da0\u5e79\u7dda","route":"bus","to":"\u81fa\u5357\u516c\u5712","type":"route"},"geometry":{"type":"LineString","coordinates":[[120.2852136,23.033409],[120.2851183,23.0333633],[120.2850271,23.0333226],[120.2831295,23.0325598],[120.2822497,23.0322599],[120.2810588,23.0319156],[120.2809305,23.0318822],[120.28088,23.0318621],[120.2808525,23.031855],[120.280796,23.0318403],[120.2786442,23.0312541],[120.2773365,23.0308683],[120.277256,23.0308474],[120.2749654,23.0302389],[120.2740011,23.0299859]]}},{"type":"Feature","properties":{"from":"\u7389\u4e95","name":"\u7da0\u5e79\u7dda(\u8fd4\u7a0b)","public_transport:version":"2","ref":"\u7da0\u5e79\u7dda","route":"bus","to":"\u81fa\u5357\u516c\u5712","type":"route"},"geometry":{"type":"LineString","coordinates":[[120.2740011,23.0299859],[120.2730664,23.0297896],[120.2724978,23.0296761],[120.2719479,23.0295946],[120.271779,23.0295811],[120.2711646,23.029529],[120.2707608,23.0294858],[120.2704394,23.0294649],[120.2700865,23.0294339],[120.2693823,23.0293423],[120.2686015,23.0292606],[120.2684324,23.0292518],[120.2670701,23.0291174],[120.2657158,23.0290054],[120.2652947,23.0289215],[120.2649957,23.0288079],[120.2626111,23.0279761],[120.2612421,23.0274736],[120.2607071,23.0274186],[120.2605757,23.0274034],[120.2598354,23.0271638],[120.2595159,23.0269936],[120.2592719,23.0268162],[120.2589834,23.0265715],[120.2587192,23.0262901],[120.2586146,23.0262247]]}},{"type":"Feature","properties":{"from":"\u7389\u4e95","name":"\u7da0\u5e79\u7dda(\u8fd4\u7a0b)","public_transport:version":"2","ref":"\u7da0\u5e79\u7dda","route":"bus","to":"\u81fa\u5357\u516c\u5712","type":"route"},"geometry":{"type":"LineString","coordinates":[[120.2586146,23.0262247],[120.2584591,23.0261753],[120.2581426,23.0261198],[120.2572937,23.0259927]]}},{"type":"Feature","properties":{"from":"\u7389\u4e95","name":"\u7da0\u5e79\u7dda(\u8fd4\u7a0b)","public_transport:version":"2","ref":"\u7da0\u5e79\u7dda","route":"bus","to":"\u81fa\u5357\u516c\u5712","type":"route"},"geometry":{"type":"LineString","coordinates":[[120.2572937,23.0259927],[120.2571408,23.0259581],[120.256818,23.0258809],[120.2563611,23.0257341],[120.2557751,23.0255556],[120.2550159,23.0251186],[120.2546291,23.0248798],[120.2544326,23.0247522],[120.2538588,23.0243924],[120.2537961,23.024357],[120.2535005,23.0242078],[120.2526834,23.0237751],[120.251903,23.0233466],[120.2501609,23.0223362],[120.2498028,23.0220768],[120.2493044,23.0218817],[120.2486285,23.0216087],[120.2485855,23.0215829],[120.2470506,23.0210726],[120.2459133,23.020696],[120.2456441,23.0205793],[120.2450518,23.0204051],[120.2446568,23.0202627],[120.2444197,23.0202013],[120.2440715,23.0201382],[120.2433196,23.0200799],[120.2430393,23.0200334],[120.2428501,23.0199641],[120.2424577,23.0197653],[120.2422233,23.0196237],[120.2420395,23.0194997],[120.2419336,23.0194282],[120.2417929,23.0193396],[120.241421,23.0191056],[120.2412225,23.0189822],[120.2408077,23.0187258],[120.2406613,23.0186353],[120.2401034,23.0182949],[120.2399394,23.0181922],[120.2395758,23.017954],[120.2393376,23.0177979],[120.2392746,23.0177571],[120.2392089,23.0177083],[120.2388619,23.0174491],[120.2388156,23.0174096],[120.2384556,23.0171927],[120.2379463,23.0168598],[120.2372148,23.0163789],[120.2371702,23.0163471],[120.2362829,23.0157149],[120.2362071,23.0156754],[120.2358073,23.0154142],[120.2356569,23.015291],[120.2352503,23.0150499],[120.2351284,23.0149689],[120.2348486,23.0147971],[120.2345534,23.0146348],[120.2341586,23.0144805],[120.2340499,23.01442],[120.2335478,23.0142923],[120.2320431,23.0138543],[120.2308306,23.0134634]]}},{"type":"Feature","properties":{"from":"\u7389\u4e95","name":"\u7da0\u5e79\u7dda(\u8fd4\u7a0b)","public_transport:version":"2","ref":"\u7da0\u5e79\u7dda","route":"bus","to":"\u81fa\u5357\u516c\u5712","type":"route"},"geometry":{"type":"LineString","coordinates":[[120.2307341,23.0134165],[120.2308306,23.0134634]]}},{"type":"Feature","properties":{"from":"\u7389\u4e95","name":"\u7da0\u5e79\u7dda(\u8fd4\u7a0b)","public_transport:version":"2","ref":"\u7da0\u5e79\u7dda","route":"bus","to":"\u81fa\u5357\u516c\u5712","type":"route"},"geometry":{"type":"LineString","coordinates":[[120.2262233,23.0113106],[120.2263695,23.0114143],[120.2270957,23.0119315],[120.2275422,23.0122599],[120.2279594,23.0125204],[120.228245,23.0126586],[120.2287412,23.0127919],[120.2291909,23.0129344],[120.2299334,23.0131696],[120.2307341,23.0134165]]}},{"type":"Feature","properties":{"from":"\u7389\u4e95","name":"\u7da0\u5e79\u7dda(\u8fd4\u7a0b)","public_transport:version":"2","ref":"\u7da0\u5e79\u7dda","route":"bus","to":"\u81fa\u5357\u516c\u5712","type":"route"},"geometry":{"type":"LineString","coordinates":[[120.2260596,23.0111859],[120.2262233,23.0113106]]}},{"type":"Feature","properties":{"from":"\u7389\u4e95","name":"\u7da0\u5e79\u7dda(\u8fd4\u7a0b)","public_transport:version":"2","ref":"\u7da0\u5e79\u7dda","route":"bus","to":"\u81fa\u5357\u516c\u5712","type":"route"},"geometry":{"type":"LineString","coordinates":[[120.220857,23.007693],[120.221942,23.0083009],[120.2228573,23.0088404],[120.2229665,23.0089059],[120.2233335,23.0091792],[120.2239561,23.009642],[120.2243632,23.0099293],[120.2247575,23.010196],[120.2250015,23.0103713],[120.2259765,23.0111279],[120.2260596,23.0111859]]}},{"type":"Feature","properties":{"from":"\u7389\u4e95","name":"\u7da0\u5e79\u7dda(\u8fd4\u7a0b)","public_transport:version":"2","ref":"\u7da0\u5e79\u7dda","route":"bus","to":"\u81fa\u5357\u516c\u5712","type":"route"},"geometry":{"type":"LineString","coordinates":[[120.2207846,23.0076411],[120.220857,23.007693]]}},{"type":"Feature","properties":{"from":"\u7389\u4e95","name":"\u7da0\u5e79\u7dda(\u8fd4\u7a0b)","public_transport:version":"2","ref":"\u7da0\u5e79\u7dda","route":"bus","to":"\u81fa\u5357\u516c\u5712","type":"route"},"geometry":{"type":"LineString","coordinates":[[120.2184872,23.0066888],[120.2189513,23.0068409],[120.2194764,23.007013],[120.219816,23.0071243],[120.2202432,23.0073523],[120.2206606,23.007575],[120.2207846,23.0076411]]}},{"type":"Feature","properties":{"from":"\u7389\u4e95","name":"\u7da0\u5e79\u7dda(\u8fd4\u7a0b)","public_transport:version":"2","ref":"\u7da0\u5e79\u7dda","route":"bus","to":"\u81fa\u5357\u516c\u5712","type":"route"},"geometry":{"type":"LineString","coordinates":[[120.2159086,23.0058014],[120.2161693,23.0058911],[120.216596,23.006038],[120.216786,23.0061033],[120.216975,23.0061684],[120.2171492,23.0062302],[120.2174804,23.0063423],[120.2178574,23.006472],[120.218379,23.0066516],[120.2184872,23.0066888]]}},{"type":"Feature","properties":{"from":"\u7389\u4e95","name":"\u7da0\u5e79\u7dda(\u8fd4\u7a0b)","public_transport:version":"2","ref":"\u7da0\u5e79\u7dda","route":"bus","to":"\u81fa\u5357\u516c\u5712","type":"route"},"geometry":{"type":"LineString","coordinates":[[120.2159086,23.0058014],[120.2156846,23.0057132],[120.215483,23.0056296],[120.2150042,23.005384],[120.2141752,23.0050318],[120.21401,23.0049237],[120.2138552,23.0047377],[120.2136217,23.0041544]]}},{"type":"Feature","properties":{"from":"\u7389\u4e95","name":"\u7da0\u5e79\u7dda(\u8fd4\u7a0b)","public_transport:version":"2","ref":"\u7da0\u5e79\u7dda","route":"bus","to":"\u81fa\u5357\u516c\u5712","type":"route"},"geometry":{"type":"LineString","coordinates":[[120.2135814,23.0040317],[120.2136217,23.0041544]]}},{"type":"Feature","properties":{"from":"\u7389\u4e95","name":"\u7da0\u5e79\u7dda(\u8fd4\u7a0b)","public_transport:version":"2","ref":"\u7da0\u5e79\u7dda","route":"bus","to":"\u81fa\u5357\u516c\u5712","type":"route"},"geometry":{"type":"LineString","coordinates":[[120.2135579,23.0039495],[120.2135814,23.0040317]]}},{"type":"Feature","properties":{"from":"\u7389\u4e95","name":"\u7da0\u5e79\u7dda(\u8fd4\u7a0b)","public_transport:version":"2","ref":"\u7da0\u5e79\u7dda","route":"bus","to":"\u81fa\u5357\u516c\u5712","type":"route"},"geometry":{"type":"LineString","coordinates":[[120.213061,23.0016892],[120.2130989,23.0018772],[120.2132038,23.0023991],[120.213515,23.0037841],[120.2135239,23.0038182],[120.2135579,23.0039495]]}},{"type":"Feature","properties":{"from":"\u7389\u4e95","name":"\u7da0\u5e79\u7dda(\u8fd4\u7a0b)","public_transport:version":"2","ref":"\u7da0\u5e79\u7dda","route":"bus","to":"\u81fa\u5357\u516c\u5712","type":"route"},"geometry":{"type":"LineString","coordinates":[[120.2130526,23.0016447],[120.213061,23.0016892]]}},{"type":"Feature","properties":{"from":"\u7389\u4e95","name":"\u7da0\u5e79\u7dda(\u8fd4\u7a0b)","public_transport:version":"2","ref":"\u7da0\u5e79\u7dda","route":"bus","to":"\u81fa\u5357\u516c\u5712","type":"route"},"geometry":{"type":"LineString","coordinates":[[120.2127411,22.9999659],[120.2127492,23.0000177],[120.2127622,23.0000873],[120.213034,23.0015451],[120.2130526,23.0016447]]}},{"type":"Feature","properties":{"from":"\u7389\u4e95","name":"\u7da0\u5e79\u7dda(\u8fd4\u7a0b)","public_transport:version":"2","ref":"\u7da0\u5e79\u7dda","route":"bus","to":"\u81fa\u5357\u516c\u5712","type":"route"},"geometry":{"type":"LineString","coordinates":[[120.2122751,22.997603],[120.2124005,22.9982391],[120.2124535,22.9985075],[120.2126009,22.999255],[120.2126525,22.9995165],[120.2127079,22.9997975],[120.2127411,22.9999659]]}},{"type":"Feature","properties":{"from":"\u7389\u4e95","name":"\u7da0\u5e79\u7dda(\u8fd4\u7a0b)","public_transport:version":"2","ref":"\u7da0\u5e79\u7dda","route":"bus","to":"\u81fa\u5357\u516c\u5712","type":"route"},"geometry":{"type":"LineString","coordinates":[[120.2122751,22.997603],[120.2119414,22.9974731]]}},{"type":"Feature","properties":{"from":"\u7389\u4e95","name":"\u7da0\u5e79\u7dda(\u8fd4\u7a0b)","public_transport:version":"2","ref":"\u7da0\u5e79\u7dda","route":"bus","to":"\u81fa\u5357\u516c\u5712","type":"route"},"geometry":{"type":"LineString","coordinates":[[120.2121649,22.9970622],[120.2122133,22.9972959],[120.212168,22.9973563],[120.2121286,22.9973921],[120.2120959,22.9974181],[120.2120524,22.997444],[120.2120074,22.9974624],[120.2119414,22.9974731],[120.2118275,22.9974837],[120.2117686,22.9974926],[120.2116821,22.99749],[120.2116207,22.9974678],[120.2115602,22.9973916],[120.2115296,22.9973406],[120.2115066,22.997283],[120.2115271,22.9971846],[120.2115746,22.9971088],[120.2116146,22.9970518],[120.21172,22.9970226],[120.2118512,22.9969848],[120.2120278,22.9969658],[120.2120928,22.9969906],[120.2121649,22.9970622]]}},{"type":"Feature","properties":{"from":"\u7389\u4e95","name":"\u7da0\u5e79\u7dda(\u8fd4\u7a0b)","public_transport:version":"2","ref":"\u7da0\u5e79\u7dda","route":"bus","to":"\u81fa\u5357\u516c\u5712","type":"route"},"geometry":{"type":"LineString","coordinates":[[120.2115296,22.9973406],[120.2112366,22.9973829]]}},{"type":"Feature","properties":{"from":"\u7389\u4e95","name":"\u7da0\u5e79\u7dda(\u8fd4\u7a0b)","public_transport:version":"2","ref":"\u7da0\u5e79\u7dda","route":"bus","to":"\u81fa\u5357\u516c\u5712","type":"route"},"geometry":{"type":"LineString","coordinates":[[120.2112366,22.9973829],[120.2112224,22.9973263]]}},{"type":"Feature","properties":{"from":"\u7389\u4e95","name":"\u7da0\u5e79\u7dda(\u8fd4\u7a0b)","public_transport:version":"2","ref":"\u7da0\u5e79\u7dda","route":"bus","to":"\u81fa\u5357\u516c\u5712","type":"route"},"geometry":{"type":"LineString","coordinates":[[120.2112224,22.9973263],[120.2112421,22.997198],[120.2112908,22.9970885],[120.2113768,22.9969836],[120.211457,22.9969172],[120.2115406,22.9968838]]}},{"type":"Feature","properties":{"from":"\u7389\u4e95","name":"\u7da0\u5e79\u7dda(\u8fd4\u7a0b)","public_transport:version":"2","ref":"\u7da0\u5e79\u7dda","route":"bus","to":"\u81fa\u5357\u516c\u5712","type":"route"},"geometry":{"type":"LineString","coordinates":[[120.2115406,22.9968838],[120.2116717,22.9968407]]}},{"type":"Feature","properties":{"from":"\u7389\u4e95","name":"\u7da0\u5e79\u7dda(\u8fd4\u7a0b)","public_transport:version":"2","ref":"\u7da0\u5e79\u7dda","route":"bus","to":"\u81fa\u5357\u516c\u5712","type":"route"},"geometry":{"type":"LineString","coordinates":[[120.2116717,22.9968407],[120.2117548,22.9968827],[120.212069,22.9968492]]}},{"type":"Feature","properties":{"from":"\u7389\u4e95","name":"\u7da0\u5e79\u7dda(\u8fd4\u7a0b)","public_transport:version":"2","ref":"\u7da0\u5e79\u7dda","route":"bus","to":"\u81fa\u5357\u516c\u5712","type":"route"},"geometry":{"type":"LineString","coordinates":[[120.212069,22.9968492],[120.2121649,22.9970622]]}},{"type":"Feature","properties":{"from":"\u7389\u4e95","name":"\u7da0\u5e79\u7dda(\u8fd4\u7a0b)","public_transport:version":"2","ref":"\u7da0\u5e79\u7dda","route":"bus","to":"\u81fa\u5357\u516c\u5712","type":"route"},"geometry":{"type":"LineString","coordinates":[[120.2112366,22.9973829],[120.2110671,22.9974117],[120.210217,22.99755],[120.2094737,22.9976725],[120.2086676,22.9978025],[120.2079985,22.9979187],[120.2076404,22.997973],[120.2069995,22.9980796]]}},{"type":"Feature","properties":{"from":"\u7389\u4e95","name":"\u7da0\u5e79\u7dda(\u8fd4\u7a0b)","public_transport:version":"2","ref":"\u7da0\u5e79\u7dda","route":"bus","to":"\u81fa\u5357\u516c\u5712","type":"route"},"geometry":{"type":"LineString","coordinates":[[120.20873,23.0010362],[120.2080177,22.9998488],[120.2079162,22.9996735],[120.2074123,22.9988316],[120.2069995,22.9980796]]}},{"type":"Feature","properties":{"from":"\u7389\u4e95","name":"\u7da0\u5e79\u7dda(\u8fd4\u7a0b)","public_transport:version":"2","ref":"\u7da0\u5e79\u7dda","route":"bus","to":"\u81fa\u5357\u516c\u5712","type":"route"},"geometry":{"type":"LineString","coordinates":[[120.2092282,23.0019348],[120.20873,23.0010362]]}}]}