{"type":"FeatureCollection","features":[{"type":"Feature","properties":{"bus":"yes","highway":"bus_stop","name":"\u5b89\u5e73\u5de5\u696d\u5340","network":"\u81fa\u5357\u5e02\u516c\u8eca","operator":"\u81fa\u5357\u5e02\u516c\u8eca","public_transport":"platform"},"geometry":{"type":"Point","coordinates":[120.1742274,22.9687956]}},{"type":"Feature","properties":{"bus":"yes","highway":"bus_stop","name":"\u5b89\u5e73\u6e2f","network":"\u81fa\u5357\u5e02\u516c\u8eca","operator":"\u81fa\u5357\u5e02\u516c\u8eca","public_transport":"platform"},"geometry":{"type":"Point","coordinates":[120.1779389,22.973061]}},{"type":"Feature","properties":{"bus":"yes","highway":"bus_stop","name":"\u670d\u52d9\u4e2d\u5fc3","network":"\u81fa\u5357\u5e02\u516c\u8eca","operator":"\u81fa\u5357\u5e02\u516c\u8eca","public_transport":"platform","ref":"1502"},"geometry":{"type":"Point","coordinates":[120.1830539,22.9730934]}},{"type":"Feature","properties":{"bench":"yes","bus":"yes","highway":"bus_stop","name":"\u660e\u548c\u516c\u5712","network":"\u81fa\u5357\u5e02\u516c\u8eca","operator":"\u81fa\u5357\u5e02\u516c\u8eca","public_transport":"platform","shelter":"yes"},"geometry":{"type":"Point","coordinates":[120.1864608,22.9745262]}},{"type":"Feature","properties":{"bench":"no","bus":"yes","highway":"bus_stop","name":"\u4e09\u5b98\u5edf","network":"\u81fa\u5357\u5e02\u516c\u8eca","operator":"\u81fa\u5357\u5e02\u516c\u8eca","public_transport":"platform","shelter":"no"},"geometry":{"type":"Point","coordinates":[120.1914468,22.9755494]}},{"type":"Feature","properties":{"bus":"yes","highway":"bus_stop","name":"\u65b0\u8208\u570b\u5c0f","network":"\u81fa\u5357\u5e02\u516c\u8eca","operator":"\u81fa\u5357\u5e02\u516c\u8eca","public_transport":"platform"},"geometry":{"type":"Point","coordinates":[120.1961403,22.9788208]}},{"type":"Feature","properties":{"bench":"no","bus":"yes","highway":"bus_stop","name":"\u53f0\u5357\u7ad9","network":"\u81fa\u5357\u5e02\u516c\u8eca","operator":"\u81fa\u5357\u5e02\u516c\u8eca","public_transport":"platform","ref":"0835","shelter":"no"},"geometry":{"type":"Point","coordinates":[120.1976742,22.9810101]}},{"type":"Feature","properties":{"bench":"yes","bus":"yes","highway":"bus_stop","name":"\u65b0\u5149\u4e09\u8d8a\u65b0\u5929\u5730","network":"\u81fa\u5357\u5e02\u516c\u8eca","operator":"\u81fa\u5357\u5e02\u516c\u8eca","public_transport":"platform","ref":"9203","shelter":"no"},"geometry":{"type":"Point","coordinates":[120.1976038,22.9869254]}},{"type":"Feature","properties":{"bench":"yes","bus":"yes","highway":"bus_stop","name":"\u5c0f\u897f\u9580(\u5927\u5104\u9e97\u7dfb)","network":"\u81fa\u5357\u5e02\u516c\u8eca","operator":"\u81fa\u5357\u5e02\u516c\u8eca","public_transport":"platform","ref":"9281","shelter":"no"},"geometry":{"type":"Point","coordinates":[120.1975906,22.9888382]}},{"type":"Feature","properties":{"bench":"no","bus":"yes","highway":"bus_stop","name":"\u897f\u9580\u3001\u53cb\u611b\u8857\u53e3","name:en":"Intersection of Simen Rd. & Youai St.","network":"\u81fa\u5357\u5e02\u516c\u8eca","operator":"\u81fa\u5357\u5e02\u516c\u8eca","public_transport":"platform","ref":"9205","shelter":"no"},"geometry":{"type":"Point","coordinates":[120.198188,22.9914232]}},{"type":"Feature","properties":{"bus":"yes","highway":"bus_stop","name":"\u897f\u9580\u3001\u6c11\u6b0a\u8def\u53e3","network":"\u81fa\u5357\u5e02\u516c\u8eca","operator":"\u81fa\u5357\u5e02\u516c\u8eca","public_transport":"platform","ref":"9206","shelter":"no"},"geometry":{"type":"Point","coordinates":[120.1993769,22.9950164]}},{"type":"Feature","properties":{"bus":"yes","highway":"bus_stop","name":"\u897f\u9580\u5713\u74b0","network":"\u81fa\u5357\u5e02\u516c\u8eca","note":"\u8208\u5357\u5ba2\u904b","operator":"\u81fa\u5357\u5e02\u516c\u8eca","public_transport":"platform"},"geometry":{"type":"Point","coordinates":[120.1998736,22.9967157]}},{"type":"Feature","properties":{"bus":"yes","highway":"bus_stop","name":"\u6c38\u6a02\u5e02\u5834","network":"\u81fa\u5357\u5e02\u516c\u8eca","operator":"\u81fa\u5357\u5e02\u516c\u8eca","public_transport":"platform","ref":"9002"},"geometry":{"type":"Point","coordinates":[120.1983899,22.9980473]}},{"type":"Feature","properties":{"bus":"yes","highway":"bus_stop","name":"\u5354\u548c\u91cc","network":"\u81fa\u5357\u5e02\u516c\u8eca","note":"\u8208\u5357\u5ba2\u904b","operator":"\u81fa\u5357\u5e02\u516c\u8eca","public_transport":"platform"},"geometry":{"type":"Point","coordinates":[120.1934432,22.9997607]}},{"type":"Feature","properties":{"bus":"yes","highway":"bus_stop","name":"\u6587\u8ce2\u570b\u4e2d","network":"\u81fa\u5357\u5e02\u516c\u8eca","operator":"\u81fa\u5357\u5e02\u516c\u8eca","public_transport":"platform"},"geometry":{"type":"Point","coordinates":[120.1937586,23.0039784]}},{"type":"Feature","properties":{"bus":"yes","highway":"bus_stop","name":"\u6587\u8ce2\u8def","network":"\u81fa\u5357\u5e02\u516c\u8eca","operator":"\u81fa\u5357\u5e02\u516c\u8eca","public_transport":"platform"},"geometry":{"type":"Point","coordinates":[120.1936438,23.0063318]}},{"type":"Feature","properties":{"bus":"yes","highway":"bus_stop","name":"\u7279\u529b\u5c4b\/\u597d\u5e02\u591a","network":"\u81fa\u5357\u5e02\u516c\u8eca","operator":"\u81fa\u5357\u5e02\u516c\u8eca","public_transport":"platform"},"geometry":{"type":"Point","coordinates":[120.1939578,23.0106901]}},{"type":"Feature","properties":{"bus":"yes","highway":"bus_stop","name":"\u6587\u5143\u5bee","network":"\u81fa\u5357\u5e02\u516c\u8eca","operator":"\u81fa\u5357\u5e02\u516c\u8eca","public_transport":"platform"},"geometry":{"type":"Point","coordinates":[120.1936585,23.0153575]}},{"type":"Feature","properties":{"bus":"yes","highway":"bus_stop","name":"\u6eaa\u4ed4\u5898\u793e\u5340","network":"\u81fa\u5357\u5e02\u516c\u8eca","operator":"\u81fa\u5357\u5e02\u516c\u8eca","public_transport":"platform","ref":"0330"},"geometry":{"type":"Point","coordinates":[120.1923923,23.0208563]}},{"type":"Feature","properties":{"bus":"yes","highway":"bus_stop","name":"\u5354\u6210\u793e\u5340","network":"\u81fa\u5357\u5e02\u516c\u8eca","operator":"\u81fa\u5357\u5e02\u516c\u8eca","public_transport":"platform"},"geometry":{"type":"Point","coordinates":[120.1916509,23.0244447]}},{"type":"Feature","properties":{"bus":"yes","highway":"bus_stop","name":"\u4e2d\u83ef\u793e\u5340","network":"\u81fa\u5357\u5e02\u516c\u8eca","operator":"\u81fa\u5357\u5e02\u516c\u8eca","public_transport":"platform"},"geometry":{"type":"Point","coordinates":[120.1910164,23.0272591]}},{"type":"Feature","properties":{"bus":"yes","highway":"bus_stop","name":"\u6d77\u6771\u6a4b","network":"\u81fa\u5357\u5e02\u516c\u8eca","note":"\u8208\u5357\u5ba2\u904b","operator":"\u81fa\u5357\u5e02\u516c\u8eca","public_transport":"platform"},"geometry":{"type":"Point","coordinates":[120.1902909,23.0312943]}},{"type":"Feature","properties":{"bus":"yes","highway":"bus_stop","name":"\u6d77\u5c3e\u524d","network":"\u81fa\u5357\u5e02\u516c\u8eca","operator":"\u81fa\u5357\u5e02\u516c\u8eca","public_transport":"platform"},"geometry":{"type":"Point","coordinates":[120.1888992,23.036257]}},{"type":"Feature","properties":{"bus":"yes","highway":"bus_stop","name":"\u6d77\u6771\u91cc","network":"\u81fa\u5357\u5e02\u516c\u8eca","operator":"\u81fa\u5357\u5e02\u516c\u8eca","public_transport":"platform"},"geometry":{"type":"Point","coordinates":[120.1877626,23.0402962]}},{"type":"Feature","properties":{"bus":"yes","highway":"bus_stop","name":"\u5357\u6d77\u5c3e","network":"\u81fa\u5357\u5e02\u516c\u8eca","operator":"\u81fa\u5357\u5e02\u516c\u8eca","public_transport":"platform"},"geometry":{"type":"Point","coordinates":[120.1870247,23.0426782]}},{"type":"Feature","properties":{"bus":"yes","highway":"bus_stop","name":"\u6d77\u5c3e","network":"\u81fa\u5357\u5e02\u516c\u8eca","note":"\u8208\u5357\u5ba2\u904b","operator":"\u81fa\u5357\u5e02\u516c\u8eca","public_transport":"platform"},"geometry":{"type":"Point","coordinates":[120.1846254,23.0463109]}},{"type":"Feature","properties":{"bus":"yes","highway":"bus_stop","name":"\u5b89\u5357\u570b\u4e2d","network":"\u81fa\u5357\u5e02\u516c\u8eca","operator":"\u81fa\u5357\u5e02\u516c\u8eca","public_transport":"platform"},"geometry":{"type":"Point","coordinates":[120.1777525,23.0485197]}},{"type":"Feature","properties":{"bus":"yes","highway":"bus_stop","name":"\u6d77\u6771\u570b\u5c0f","network":"\u81fa\u5357\u5e02\u516c\u8eca","operator":"\u81fa\u5357\u5e02\u516c\u8eca","public_transport":"platform"},"geometry":{"type":"Point","coordinates":[120.1756677,23.0489692]}},{"type":"Feature","properties":{"bus":"yes","highway":"bus_stop","name":"\u4ec1\u5b89\u8def","network":"\u81fa\u5357\u5e02\u516c\u8eca","operator":"\u81fa\u5357\u5e02\u516c\u8eca","public_transport":"platform"},"geometry":{"type":"Point","coordinates":[120.178514,23.0512211]}},{"type":"Feature","properties":{"bus":"yes","highway":"bus_stop","name":"\u672c\u539f\u8857\u53e3","network":"\u81fa\u5357\u5e02\u516c\u8eca","note":"\u8208\u5357\u5ba2\u904b","operator":"\u81fa\u5357\u5e02\u516c\u8eca","public_transport":"platform"},"geometry":{"type":"Point","coordinates":[120.1786858,23.0532386]}},{"type":"Feature","properties":{"bus":"yes","highway":"bus_stop","name":"\u5341\u4e8c\u4f43","network":"\u81fa\u5357\u5e02\u516c\u8eca","operator":"\u81fa\u5357\u5e02\u516c\u8eca","public_transport":"platform"},"geometry":{"type":"Point","coordinates":[120.1763258,23.0625007]}},{"type":"Feature","properties":{"bus":"yes","highway":"bus_stop","name":"\u5341\u4e8c\u4f43\u795e\u6995\u524d","network":"\u81fa\u5357\u5e02\u516c\u8eca","operator":"\u81fa\u5357\u5e02\u516c\u8eca","public_transport":"platform","ref":"0725"},"geometry":{"type":"Point","coordinates":[120.1758697,23.0668714]}},{"type":"Feature","properties":{"bus":"yes","highway":"bus_stop","name":"\u5357\u5929\u5bae","network":"\u81fa\u5357\u5e02\u516c\u8eca","operator":"\u81fa\u5357\u5e02\u516c\u8eca","public_transport":"platform","ref":"0726"},"geometry":{"type":"Point","coordinates":[120.1745909,23.0658737]}},{"type":"Feature","properties":{"bus":"yes","highway":"bus_stop","name":"\u5341\u4e8c\u4f43\u6a4b","network":"\u81fa\u5357\u5e02\u516c\u8eca","note":"\u8208\u5357\u5ba2\u904b","operator":"\u81fa\u5357\u5e02\u516c\u8eca","public_transport":"platform"},"geometry":{"type":"Point","coordinates":[120.1708762,23.0649914]}},{"type":"Feature","properties":{"bus":"yes","highway":"bus_stop","name":"\u65b0\u5409\u5e84","network":"\u81fa\u5357\u5e02\u516c\u8eca","operator":"\u81fa\u5357\u5e02\u516c\u8eca","public_transport":"platform"},"geometry":{"type":"Point","coordinates":[120.1679979,23.0682877]}},{"type":"Feature","properties":{"bus":"yes","highway":"bus_stop","name":"\u516c\u586d","network":"\u81fa\u5357\u5e02\u516c\u8eca","note":"\u8208\u5357\u5ba2\u904b","operator":"\u81fa\u5357\u5e02\u516c\u8eca","public_transport":"platform"},"geometry":{"type":"Point","coordinates":[120.165042,23.0708206]}},{"type":"Feature","properties":{"bus":"yes","highway":"bus_stop","name":"\u6eaa\u5357\u5bee","network":"\u81fa\u5357\u5e02\u516c\u8eca","note":"\u8208\u5357\u5ba2\u904b","operator":"\u81fa\u5357\u5e02\u516c\u8eca","public_transport":"platform"},"geometry":{"type":"Point","coordinates":[120.1608109,23.0739256]}},{"type":"Feature","properties":{"bus":"yes","highway":"bus_stop","name":"\u5b78\u7532\u5bee","network":"\u81fa\u5357\u5e02\u516c\u8eca","note":"\u8208\u5357\u5ba2\u904b","operator":"\u81fa\u5357\u5e02\u516c\u8eca","public_transport":"platform"},"geometry":{"type":"Point","coordinates":[120.1477741,23.0783575]}},{"type":"Feature","properties":{"bus":"yes","highway":"bus_stop","name":"\u5b78\u6771\u5edf","network":"\u81fa\u5357\u5e02\u516c\u8eca","note":"\u8208\u5357\u5ba2\u904b","operator":"\u81fa\u5357\u5e02\u516c\u8eca","public_transport":"platform"},"geometry":{"type":"Point","coordinates":[120.1434774,23.0787408]}},{"type":"Feature","properties":{"bus":"yes","highway":"bus_stop","name":"\u570b\u8056\u5927\u6a4b","network":"\u81fa\u5357\u5e02\u516c\u8eca","note":"\u8208\u5357\u5ba2\u904b","operator":"\u81fa\u5357\u5e02\u516c\u8eca","public_transport":"platform"},"geometry":{"type":"Point","coordinates":[120.1384753,23.0802784]}},{"type":"Feature","properties":{"bus":"yes","highway":"bus_stop","name":"\u5b89\u660e\u8def\u53e3","network":"\u81fa\u5357\u5e02\u516c\u8eca","note":"\u8208\u5357\u5ba2\u904b","operator":"\u81fa\u5357\u5e02\u516c\u8eca","public_transport":"platform","ref":"8908"},"geometry":{"type":"Point","coordinates":[120.1363512,23.0811483]}},{"type":"Feature","properties":{"bus":"yes","highway":"bus_stop","name":"\u9e7f\u8033\u9580","network":"\u81fa\u5357\u5e02\u516c\u8eca","note":"\u8208\u5357\u5ba2\u904b","operator":"\u81fa\u5357\u5e02\u516c\u8eca","public_transport":"platform"},"geometry":{"type":"Point","coordinates":[120.1311951,23.0810573]}},{"type":"Feature","properties":{"bus":"yes","highway":"bus_stop","name":"\u6eaa\u57d4\u4ed4","network":"\u81fa\u5357\u5e02\u516c\u8eca","note":"\u8208\u5357\u5ba2\u904b","operator":"\u81fa\u5357\u5e02\u516c\u8eca","public_transport":"platform"},"geometry":{"type":"Point","coordinates":[120.1304383,23.0790192]}},{"type":"Feature","properties":{"bus":"yes","highway":"bus_stop","name":"\u7802\u5d19\u8def\u53e3","network":"\u81fa\u5357\u5e02\u516c\u8eca","note":"\u8208\u5357\u5ba2\u904b","operator":"\u81fa\u5357\u5e02\u516c\u8eca","public_transport":"platform","ref":"8582"},"geometry":{"type":"Point","coordinates":[120.1302291,23.0761255]}},{"type":"Feature","properties":{"bus":"yes","highway":"bus_stop","name":"\u571f\u57ce\u570b\u5c0f","network":"\u81fa\u5357\u5e02\u516c\u8eca","note":"\u8208\u5357\u5ba2\u904b","operator":"\u81fa\u5357\u5e02\u516c\u8eca","public_transport":"platform"},"geometry":{"type":"Point","coordinates":[120.1309851,23.0664016]}},{"type":"Feature","properties":{"bus":"yes","highway":"bus_stop","name":"\u57ce\u6771\u91cc","network":"\u81fa\u5357\u5e02\u516c\u8eca","operator":"\u81fa\u5357\u5e02\u516c\u8eca","public_transport":"platform"},"geometry":{"type":"Point","coordinates":[120.1313536,23.0645961]}},{"type":"Feature","properties":{"bus":"yes","highway":"bus_stop","name":"\u571f\u57ce\u5b50","network":"\u81fa\u5357\u5e02\u516c\u8eca","note":"\u8208\u5357\u5ba2\u904b","operator":"\u81fa\u5357\u5e02\u516c\u8eca","public_transport":"platform"},"geometry":{"type":"Point","coordinates":[120.1295365,23.0627991]}},{"type":"Feature","properties":{"bus":"yes","highway":"bus_stop","name":"\u8056\u6bcd\u5edf","name:en":"Shengmu Temple","name:zh":"\u8056\u6bcd\u5edf","network":"\u81fa\u5357\u5e02\u516c\u8eca","note":"\u8208\u5357\u5ba2\u904b","operator":"\u81fa\u5357\u5e02\u516c\u8eca","public_transport":"platform","ref":"8612"},"geometry":{"type":"Point","coordinates":[120.1264698,23.0665797]}},{"type":"Feature","properties":{"bus":"yes","highway":"bus_stop","name":"\u7802\u5d19\u793e\u5340","network":"\u81fa\u5357\u5e02\u516c\u8eca","note":"\u8208\u5357\u5ba2\u904b","operator":"\u81fa\u5357\u5e02\u516c\u8eca","public_transport":"platform"},"geometry":{"type":"Point","coordinates":[120.122602,23.0728245]}},{"type":"Feature","properties":{"bus":"yes","highway":"bus_stop","name":"\u7802\u5d19\u91cc","network":"\u81fa\u5357\u5e02\u516c\u8eca","note":"\u8208\u5357\u5ba2\u904b","operator":"\u81fa\u5357\u5e02\u516c\u8eca","public_transport":"platform"},"geometry":{"type":"Point","coordinates":[120.1212006,23.0750912]}},{"type":"Feature","properties":{"bus":"yes","highway":"bus_stop","name":"\u9752\u8349\u91cc","network":"\u81fa\u5357\u5e02\u516c\u8eca","note":"\u8208\u5357\u5ba2\u904b","operator":"\u81fa\u5357\u5e02\u516c\u8eca","public_transport":"platform"},"geometry":{"type":"Point","coordinates":[120.1117971,23.0766961]}},{"type":"Feature","properties":{"from":"\u5b89\u5de5\u5340","name":"\u85cd24(\u5f80\u7a0b)","public_transport:version":"2","ref":"\u85cd24","route":"bus","to":"\u9752\u8349\u91cc","type":"route"},"geometry":{"type":"LineString","coordinates":[[120.1743541,22.9689217],[120.1741941,22.9688483],[120.1738341,22.9686832],[120.1731019,22.9683168],[120.1735143,22.9677699],[120.1741427,22.9680838],[120.1738341,22.9686832]]}},{"type":"Feature","properties":{"from":"\u5b89\u5de5\u5340","name":"\u85cd24(\u5f80\u7a0b)","public_transport:version":"2","ref":"\u85cd24","route":"bus","to":"\u9752\u8349\u91cc","type":"route"},"geometry":{"type":"LineString","coordinates":[[120.1771161,22.9731619],[120.1764792,22.9702339],[120.1745902,22.9693012],[120.174516,22.9692476],[120.1744437,22.9691848],[120.1744075,22.9691201],[120.1743694,22.9690388],[120.1743541,22.9689217]]}},{"type":"Feature","properties":{"from":"\u5b89\u5de5\u5340","name":"\u85cd24(\u5f80\u7a0b)","public_transport:version":"2","ref":"\u85cd24","route":"bus","to":"\u9752\u8349\u91cc","type":"route"},"geometry":{"type":"LineString","coordinates":[[120.1771161,22.9731619],[120.1835069,22.9731957],[120.1837329,22.9732291]]}},{"type":"Feature","properties":{"from":"\u5b89\u5de5\u5340","name":"\u85cd24(\u5f80\u7a0b)","public_transport:version":"2","ref":"\u85cd24","route":"bus","to":"\u9752\u8349\u91cc","type":"route"},"geometry":{"type":"LineString","coordinates":[[120.1837329,22.9732291],[120.1838478,22.9732551]]}},{"type":"Feature","properties":{"from":"\u5b89\u5de5\u5340","name":"\u85cd24(\u5f80\u7a0b)","public_transport:version":"2","ref":"\u85cd24","route":"bus","to":"\u9752\u8349\u91cc","type":"route"},"geometry":{"type":"LineString","coordinates":[[120.1838478,22.9732551],[120.1852552,22.9739563]]}},{"type":"Feature","properties":{"from":"\u5b89\u5de5\u5340","name":"\u85cd24(\u5f80\u7a0b)","public_transport:version":"2","ref":"\u85cd24","route":"bus","to":"\u9752\u8349\u91cc","type":"route"},"geometry":{"type":"LineString","coordinates":[[120.1852552,22.9739563],[120.1861583,22.9744564],[120.1864,22.9745977],[120.186771,22.9747972],[120.186925,22.9748222],[120.1875345,22.9748866],[120.1876888,22.9748989],[120.1886353,22.9750031],[120.1891184,22.9750603],[120.1897917,22.9751559],[120.1908408,22.9752807],[120.1909645,22.9752993]]}},{"type":"Feature","properties":{"from":"\u5b89\u5de5\u5340","name":"\u85cd24(\u5f80\u7a0b)","public_transport:version":"2","ref":"\u85cd24","route":"bus","to":"\u9752\u8349\u91cc","type":"route"},"geometry":{"type":"LineString","coordinates":[[120.1909645,22.9752993],[120.19114,22.9754062],[120.1917174,22.9758004],[120.1920208,22.9760111],[120.1927194,22.9764961],[120.1930851,22.97675],[120.1934541,22.9770063],[120.1937066,22.9771815],[120.1941471,22.9774874],[120.1947387,22.9778981],[120.1952191,22.9782317]]}},{"type":"Feature","properties":{"from":"\u5b89\u5de5\u5340","name":"\u85cd24(\u5f80\u7a0b)","public_transport:version":"2","ref":"\u85cd24","route":"bus","to":"\u9752\u8349\u91cc","type":"route"},"geometry":{"type":"LineString","coordinates":[[120.1952191,22.9782317],[120.1957463,22.9785992],[120.1959327,22.9787292],[120.1969618,22.9794466],[120.1971661,22.979589]]}},{"type":"Feature","properties":{"from":"\u5b89\u5de5\u5340","name":"\u85cd24(\u5f80\u7a0b)","public_transport:version":"2","ref":"\u85cd24","route":"bus","to":"\u9752\u8349\u91cc","type":"route"},"geometry":{"type":"LineString","coordinates":[[120.1971661,22.979589],[120.197271,22.9796021],[120.1973657,22.9796635],[120.1974601,22.9796952],[120.1976015,22.9797164],[120.1976604,22.9797183]]}},{"type":"Feature","properties":{"from":"\u5b89\u5de5\u5340","name":"\u85cd24(\u5f80\u7a0b)","public_transport:version":"2","ref":"\u85cd24","route":"bus","to":"\u9752\u8349\u91cc","type":"route"},"geometry":{"type":"LineString","coordinates":[[120.1976604,22.9797183],[120.1976597,22.9798317],[120.1976572,22.980222],[120.1976531,22.9808663],[120.1976515,22.9813514],[120.1976497,22.9813935]]}},{"type":"Feature","properties":{"from":"\u5b89\u5de5\u5340","name":"\u85cd24(\u5f80\u7a0b)","public_transport:version":"2","ref":"\u85cd24","route":"bus","to":"\u9752\u8349\u91cc","type":"route"},"geometry":{"type":"LineString","coordinates":[[120.1976497,22.9813935],[120.197647,22.9814614]]}},{"type":"Feature","properties":{"from":"\u5b89\u5de5\u5340","name":"\u85cd24(\u5f80\u7a0b)","public_transport:version":"2","ref":"\u85cd24","route":"bus","to":"\u9752\u8349\u91cc","type":"route"},"geometry":{"type":"LineString","coordinates":[[120.197647,22.9814614],[120.1976448,22.9815785],[120.1976413,22.9819826],[120.1976339,22.9826488],[120.1976246,22.983496],[120.1976209,22.9838689],[120.197607,22.9851007],[120.1975935,22.9863426],[120.1975927,22.986418],[120.1975817,22.9873959]]}},{"type":"Feature","properties":{"from":"\u5b89\u5de5\u5340","name":"\u85cd24(\u5f80\u7a0b)","public_transport:version":"2","ref":"\u85cd24","route":"bus","to":"\u9752\u8349\u91cc","type":"route"},"geometry":{"type":"LineString","coordinates":[[120.1975817,22.9873959],[120.1975847,22.987521],[120.1975715,22.9884723],[120.1975622,22.9890044],[120.197598,22.989384],[120.1976423,22.9896506],[120.1977194,22.9900223],[120.1977677,22.9902223],[120.1978455,22.9904173]]}},{"type":"Feature","properties":{"from":"\u5b89\u5de5\u5340","name":"\u85cd24(\u5f80\u7a0b)","public_transport:version":"2","ref":"\u85cd24","route":"bus","to":"\u9752\u8349\u91cc","type":"route"},"geometry":{"type":"LineString","coordinates":[[120.1978455,22.9904173],[120.1979802,22.9908039],[120.1980517,22.991009],[120.1980616,22.9910374],[120.198305,22.9917429]]}},{"type":"Feature","properties":{"from":"\u5b89\u5de5\u5340","name":"\u85cd24(\u5f80\u7a0b)","public_transport:version":"2","ref":"\u85cd24","route":"bus","to":"\u9752\u8349\u91cc","type":"route"},"geometry":{"type":"LineString","coordinates":[[120.198305,22.9917429],[120.1985449,22.9923602],[120.1986702,22.992687]]}},{"type":"Feature","properties":{"from":"\u5b89\u5de5\u5340","name":"\u85cd24(\u5f80\u7a0b)","public_transport:version":"2","ref":"\u85cd24","route":"bus","to":"\u9752\u8349\u91cc","type":"route"},"geometry":{"type":"LineString","coordinates":[[120.1986702,22.992687],[120.1986852,22.9927806]]}},{"type":"Feature","properties":{"from":"\u5b89\u5de5\u5340","name":"\u85cd24(\u5f80\u7a0b)","public_transport:version":"2","ref":"\u85cd24","route":"bus","to":"\u9752\u8349\u91cc","type":"route"},"geometry":{"type":"LineString","coordinates":[[120.1986852,22.9927806],[120.1988503,22.9932705],[120.1990122,22.9937506],[120.1990909,22.993984],[120.199246,22.9944439]]}},{"type":"Feature","properties":{"from":"\u5b89\u5de5\u5340","name":"\u85cd24(\u5f80\u7a0b)","public_transport:version":"2","ref":"\u85cd24","route":"bus","to":"\u9752\u8349\u91cc","type":"route"},"geometry":{"type":"LineString","coordinates":[[120.199246,22.9944439],[120.1992535,22.9945421]]}},{"type":"Feature","properties":{"from":"\u5b89\u5de5\u5340","name":"\u85cd24(\u5f80\u7a0b)","public_transport:version":"2","ref":"\u85cd24","route":"bus","to":"\u9752\u8349\u91cc","type":"route"},"geometry":{"type":"LineString","coordinates":[[120.1992535,22.9945421],[120.1996296,22.996066]]}},{"type":"Feature","properties":{"from":"\u5b89\u5de5\u5340","name":"\u85cd24(\u5f80\u7a0b)","public_transport:version":"2","ref":"\u85cd24","route":"bus","to":"\u9752\u8349\u91cc","type":"route"},"geometry":{"type":"LineString","coordinates":[[120.1996296,22.996066],[120.199675,22.9961842],[120.1999101,22.9967965],[120.2000083,22.9970532]]}},{"type":"Feature","properties":{"from":"\u5b89\u5de5\u5340","name":"\u85cd24(\u5f80\u7a0b)","public_transport:version":"2","ref":"\u85cd24","route":"bus","to":"\u9752\u8349\u91cc","type":"route"},"geometry":{"type":"LineString","coordinates":[[120.2000083,22.9970532],[120.2000025,22.9971533],[120.200006,22.9971633],[120.2001367,22.9975419]]}},{"type":"Feature","properties":{"from":"\u5b89\u5de5\u5340","name":"\u85cd24(\u5f80\u7a0b)","public_transport:version":"2","ref":"\u85cd24","route":"bus","to":"\u9752\u8349\u91cc","type":"route"},"geometry":{"type":"LineString","coordinates":[[120.2001367,22.9975419],[120.2000764,22.9975542]]}},{"type":"Feature","properties":{"from":"\u5b89\u5de5\u5340","name":"\u85cd24(\u5f80\u7a0b)","public_transport:version":"2","ref":"\u85cd24","route":"bus","to":"\u9752\u8349\u91cc","type":"route"},"geometry":{"type":"LineString","coordinates":[[120.2000764,22.9975542],[120.1996603,22.9976002],[120.1995617,22.9976111]]}},{"type":"Feature","properties":{"from":"\u5b89\u5de5\u5340","name":"\u85cd24(\u5f80\u7a0b)","public_transport:version":"2","ref":"\u85cd24","route":"bus","to":"\u9752\u8349\u91cc","type":"route"},"geometry":{"type":"LineString","coordinates":[[120.1995617,22.9976111],[120.199036,22.9977834],[120.1985014,22.9979681],[120.1979361,22.9981633],[120.1978582,22.9981902]]}},{"type":"Feature","properties":{"from":"\u5b89\u5de5\u5340","name":"\u85cd24(\u5f80\u7a0b)","public_transport:version":"2","ref":"\u85cd24","route":"bus","to":"\u9752\u8349\u91cc","type":"route"},"geometry":{"type":"LineString","coordinates":[[120.1978582,22.9981902],[120.1976839,22.9982509]]}},{"type":"Feature","properties":{"from":"\u5b89\u5de5\u5340","name":"\u85cd24(\u5f80\u7a0b)","public_transport:version":"2","ref":"\u85cd24","route":"bus","to":"\u9752\u8349\u91cc","type":"route"},"geometry":{"type":"LineString","coordinates":[[120.1976839,22.9982509],[120.1976169,22.9982743],[120.1965004,22.9986647]]}},{"type":"Feature","properties":{"from":"\u5b89\u5de5\u5340","name":"\u85cd24(\u5f80\u7a0b)","public_transport:version":"2","ref":"\u85cd24","route":"bus","to":"\u9752\u8349\u91cc","type":"route"},"geometry":{"type":"LineString","coordinates":[[120.1965004,22.9986647],[120.1964225,22.9986922],[120.1959264,22.9988669],[120.1957682,22.9989227],[120.1952935,22.99909],[120.1951119,22.9991539],[120.1938732,22.9995904],[120.1931204,22.9998557],[120.1929347,22.9999211],[120.1924135,23.0001048],[120.1920332,23.0002388]]}},{"type":"Feature","properties":{"from":"\u5b89\u5de5\u5340","name":"\u85cd24(\u5f80\u7a0b)","public_transport:version":"2","ref":"\u85cd24","route":"bus","to":"\u9752\u8349\u91cc","type":"route"},"geometry":{"type":"LineString","coordinates":[[120.1920332,23.0002388],[120.1923031,23.0004676],[120.1924372,23.0005766],[120.1929653,23.0010016],[120.1935136,23.0014178],[120.1936511,23.0014974],[120.1938938,23.001641],[120.1942939,23.0018133],[120.1945298,23.0018882],[120.1947174,23.0019489],[120.195094,23.0020871]]}},{"type":"Feature","properties":{"from":"\u5b89\u5de5\u5340","name":"\u85cd24(\u5f80\u7a0b)","public_transport:version":"2","ref":"\u85cd24","route":"bus","to":"\u9752\u8349\u91cc","type":"route"},"geometry":{"type":"LineString","coordinates":[[120.195094,23.0020871],[120.1952008,23.0021308]]}},{"type":"Feature","properties":{"from":"\u5b89\u5de5\u5340","name":"\u85cd24(\u5f80\u7a0b)","public_transport:version":"2","ref":"\u85cd24","route":"bus","to":"\u9752\u8349\u91cc","type":"route"},"geometry":{"type":"LineString","coordinates":[[120.1952008,23.0021308],[120.1951305,23.0022037],[120.1947889,23.0025575],[120.1945075,23.0028489],[120.193969,23.0034067],[120.1938213,23.0034464]]}},{"type":"Feature","properties":{"from":"\u5b89\u5de5\u5340","name":"\u85cd24(\u5f80\u7a0b)","public_transport:version":"2","ref":"\u85cd24","route":"bus","to":"\u9752\u8349\u91cc","type":"route"},"geometry":{"type":"LineString","coordinates":[[120.1936576,23.0066259],[120.1936235,23.0061676],[120.1936107,23.0060107],[120.1936528,23.0053833],[120.1937143,23.0042627],[120.1937382,23.0038895],[120.1937849,23.0035538],[120.1938213,23.0034464]]}},{"type":"Feature","properties":{"from":"\u5b89\u5de5\u5340","name":"\u85cd24(\u5f80\u7a0b)","public_transport:version":"2","ref":"\u85cd24","route":"bus","to":"\u9752\u8349\u91cc","type":"route"},"geometry":{"type":"LineString","coordinates":[[120.193894,23.0096936],[120.1938504,23.0091451],[120.1938175,23.0087006],[120.1937792,23.0082034],[120.193747,23.0078189],[120.1937367,23.007652],[120.1936923,23.0071151],[120.1936576,23.0066259]]}},{"type":"Feature","properties":{"from":"\u5b89\u5de5\u5340","name":"\u85cd24(\u5f80\u7a0b)","public_transport:version":"2","ref":"\u85cd24","route":"bus","to":"\u9752\u8349\u91cc","type":"route"},"geometry":{"type":"LineString","coordinates":[[120.1938985,23.0097976],[120.193894,23.0096936]]}},{"type":"Feature","properties":{"from":"\u5b89\u5de5\u5340","name":"\u85cd24(\u5f80\u7a0b)","public_transport:version":"2","ref":"\u85cd24","route":"bus","to":"\u9752\u8349\u91cc","type":"route"},"geometry":{"type":"LineString","coordinates":[[120.1931804,23.0181665],[120.193198,23.0180497],[120.1932739,23.0175479],[120.1933735,23.0168886],[120.1934665,23.0162728],[120.1936364,23.0151483],[120.1936622,23.0149776],[120.1937169,23.014638],[120.1937769,23.0142187],[120.1938038,23.0140403],[120.1938114,23.0132239],[120.1938289,23.0129665],[120.193839,23.0128176],[120.1938696,23.0123683],[120.1938886,23.0120879],[120.1938925,23.0111966],[120.1938939,23.0108614],[120.1938957,23.0104633],[120.1938985,23.0097976]]}},{"type":"Feature","properties":{"from":"\u5b89\u5de5\u5340","name":"\u85cd24(\u5f80\u7a0b)","public_transport:version":"2","ref":"\u85cd24","route":"bus","to":"\u9752\u8349\u91cc","type":"route"},"geometry":{"type":"LineString","coordinates":[[120.1931804,23.0181665],[120.1931922,23.018317]]}},{"type":"Feature","properties":{"from":"\u5b89\u5de5\u5340","name":"\u85cd24(\u5f80\u7a0b)","public_transport:version":"2","ref":"\u85cd24","route":"bus","to":"\u9752\u8349\u91cc","type":"route"},"geometry":{"type":"LineString","coordinates":[[120.1931922,23.018317],[120.1925313,23.0201303]]}},{"type":"Feature","properties":{"from":"\u5b89\u5de5\u5340","name":"\u85cd24(\u5f80\u7a0b)","public_transport:version":"2","ref":"\u85cd24","route":"bus","to":"\u9752\u8349\u91cc","type":"route"},"geometry":{"type":"LineString","coordinates":[[120.1925313,23.0201303],[120.1925182,23.0201926],[120.1921259,23.0220538],[120.1920448,23.0224387],[120.1919536,23.0228715],[120.1918349,23.0234346],[120.1918182,23.0235139],[120.191741,23.0238801],[120.191693,23.024158],[120.1915708,23.0246876],[120.1915367,23.0248495],[120.1914348,23.025333],[120.1913578,23.0256982],[120.191284,23.0260483],[120.1912134,23.0263835],[120.1911427,23.0267187],[120.1909959,23.027415],[120.190916,23.0277944],[120.1908456,23.0281285],[120.1907825,23.0284279],[120.1906967,23.0288347]]}},{"type":"Feature","properties":{"from":"\u5b89\u5de5\u5340","name":"\u85cd24(\u5f80\u7a0b)","public_transport:version":"2","ref":"\u85cd24","route":"bus","to":"\u9752\u8349\u91cc","type":"route"},"geometry":{"type":"LineString","coordinates":[[120.1906967,23.0288347],[120.190679,23.0289107]]}},{"type":"Feature","properties":{"from":"\u5b89\u5de5\u5340","name":"\u85cd24(\u5f80\u7a0b)","public_transport:version":"2","ref":"\u85cd24","route":"bus","to":"\u9752\u8349\u91cc","type":"route"},"geometry":{"type":"LineString","coordinates":[[120.190679,23.0289107],[120.1905136,23.0298035]]}},{"type":"Feature","properties":{"from":"\u5b89\u5de5\u5340","name":"\u85cd24(\u5f80\u7a0b)","public_transport:version":"2","ref":"\u85cd24","route":"bus","to":"\u9752\u8349\u91cc","type":"route"},"geometry":{"type":"LineString","coordinates":[[120.1905136,23.0298035],[120.1905002,23.0298828]]}},{"type":"Feature","properties":{"from":"\u5b89\u5de5\u5340","name":"\u85cd24(\u5f80\u7a0b)","public_transport:version":"2","ref":"\u85cd24","route":"bus","to":"\u9752\u8349\u91cc","type":"route"},"geometry":{"type":"LineString","coordinates":[[120.1905002,23.0298828],[120.1904589,23.0301943],[120.190343,23.0310695],[120.1903255,23.0312053],[120.1902471,23.031757],[120.1902383,23.0318205],[120.1901935,23.0321433],[120.1901305,23.032495],[120.1899206,23.0331603],[120.1896624,23.0338539],[120.1893901,23.0347166],[120.1890428,23.0357656],[120.1887377,23.0367196],[120.1883649,23.0378957],[120.1880591,23.0388213]]}},{"type":"Feature","properties":{"from":"\u5b89\u5de5\u5340","name":"\u85cd24(\u5f80\u7a0b)","public_transport:version":"2","ref":"\u85cd24","route":"bus","to":"\u9752\u8349\u91cc","type":"route"},"geometry":{"type":"LineString","coordinates":[[120.1880591,23.0388213],[120.1878834,23.0396205],[120.1877889,23.0400506],[120.1875359,23.041329],[120.187564,23.0415672]]}},{"type":"Feature","properties":{"from":"\u5b89\u5de5\u5340","name":"\u85cd24(\u5f80\u7a0b)","public_transport:version":"2","ref":"\u85cd24","route":"bus","to":"\u9752\u8349\u91cc","type":"route"},"geometry":{"type":"LineString","coordinates":[[120.187564,23.0415672],[120.1874366,23.0416869]]}},{"type":"Feature","properties":{"from":"\u5b89\u5de5\u5340","name":"\u85cd24(\u5f80\u7a0b)","public_transport:version":"2","ref":"\u85cd24","route":"bus","to":"\u9752\u8349\u91cc","type":"route"},"geometry":{"type":"LineString","coordinates":[[120.1840373,23.0470743],[120.1841241,23.0469558],[120.1850677,23.0456675],[120.1863046,23.0439787],[120.1865434,23.0436526],[120.1867156,23.0432737],[120.1870429,23.0425533],[120.1873257,23.0419309],[120.1874366,23.0416869]]}},{"type":"Feature","properties":{"from":"\u5b89\u5de5\u5340","name":"\u85cd24(\u5f80\u7a0b)","public_transport:version":"2","ref":"\u85cd24","route":"bus","to":"\u9752\u8349\u91cc","type":"route"},"geometry":{"type":"LineString","coordinates":[[120.1840373,23.0470743],[120.1839587,23.0471812]]}},{"type":"Feature","properties":{"from":"\u5b89\u5de5\u5340","name":"\u85cd24(\u5f80\u7a0b)","public_transport:version":"2","ref":"\u85cd24","route":"bus","to":"\u9752\u8349\u91cc","type":"route"},"geometry":{"type":"LineString","coordinates":[[120.1839587,23.0471812],[120.1818754,23.047641],[120.1814016,23.0477358],[120.1803285,23.0479654],[120.1787174,23.0483065],[120.1776043,23.0485562],[120.1770176,23.0486805],[120.1764948,23.0487934],[120.176176,23.0488605],[120.175936,23.0489163]]}},{"type":"Feature","properties":{"from":"\u5b89\u5de5\u5340","name":"\u85cd24(\u5f80\u7a0b)","public_transport:version":"2","ref":"\u85cd24","route":"bus","to":"\u9752\u8349\u91cc","type":"route"},"geometry":{"type":"LineString","coordinates":[[120.175936,23.0489163],[120.1747706,23.0492161]]}},{"type":"Feature","properties":{"from":"\u5b89\u5de5\u5340","name":"\u85cd24(\u5f80\u7a0b)","public_transport:version":"2","ref":"\u85cd24","route":"bus","to":"\u9752\u8349\u91cc","type":"route"},"geometry":{"type":"LineString","coordinates":[[120.1747706,23.0492161],[120.1748933,23.049362],[120.1754422,23.0497182]]}},{"type":"Feature","properties":{"from":"\u5b89\u5de5\u5340","name":"\u85cd24(\u5f80\u7a0b)","public_transport:version":"2","ref":"\u85cd24","route":"bus","to":"\u9752\u8349\u91cc","type":"route"},"geometry":{"type":"LineString","coordinates":[[120.1799122,23.0517948],[120.179017,23.0514587],[120.1784116,23.0512315],[120.1777453,23.0509814],[120.1768212,23.0506631],[120.1764021,23.0505067],[120.1760475,23.0502159],[120.1754422,23.0497182]]}},{"type":"Feature","properties":{"from":"\u5b89\u5de5\u5340","name":"\u85cd24(\u5f80\u7a0b)","public_transport:version":"2","ref":"\u85cd24","route":"bus","to":"\u9752\u8349\u91cc","type":"route"},"geometry":{"type":"LineString","coordinates":[[120.1799122,23.0517948],[120.1791699,23.0526426],[120.1783466,23.0535845]]}},{"type":"Feature","properties":{"from":"\u5b89\u5de5\u5340","name":"\u85cd24(\u5f80\u7a0b)","public_transport:version":"2","ref":"\u85cd24","route":"bus","to":"\u9752\u8349\u91cc","type":"route"},"geometry":{"type":"LineString","coordinates":[[120.1783466,23.0535845],[120.1777034,23.0543023],[120.1775262,23.054526],[120.1774057,23.0547453],[120.1773654,23.0548626],[120.1770298,23.0560758],[120.1768887,23.0565671],[120.1768471,23.0567271],[120.1766433,23.0575502],[120.1765507,23.0580573],[120.1764582,23.0595122],[120.1763766,23.0609264],[120.1763605,23.061188],[120.1763551,23.0613114],[120.1763417,23.0614175],[120.1762827,23.0626687],[120.1762907,23.0632092]]}},{"type":"Feature","properties":{"from":"\u5b89\u5de5\u5340","name":"\u85cd24(\u5f80\u7a0b)","public_transport:version":"2","ref":"\u85cd24","route":"bus","to":"\u9752\u8349\u91cc","type":"route"},"geometry":{"type":"LineString","coordinates":[[120.1762907,23.0632092],[120.1762907,23.0634066],[120.1763149,23.0644604],[120.1763202,23.0646948],[120.1763068,23.0652377],[120.1763149,23.0655289],[120.1763122,23.0657535],[120.1763149,23.0662618],[120.1763256,23.0664963],[120.176398,23.0667603],[120.1764409,23.0669726],[120.1764359,23.0671795]]}},{"type":"Feature","properties":{"from":"\u5b89\u5de5\u5340","name":"\u85cd24(\u5f80\u7a0b)","public_transport:version":"2","ref":"\u85cd24","route":"bus","to":"\u9752\u8349\u91cc","type":"route"},"geometry":{"type":"LineString","coordinates":[[120.1764359,23.0671795],[120.1761756,23.0670129],[120.1758621,23.0667576],[120.1754772,23.066412],[120.1752762,23.0662673],[120.175025,23.0660694],[120.1749329,23.0660182],[120.1745801,23.0657655],[120.1741999,23.0655058],[120.1741149,23.0654563],[120.1739712,23.0654002],[120.1736482,23.0652759],[120.1733889,23.0652081],[120.1727413,23.0650259],[120.1718714,23.0647363],[120.17166,23.0647215]]}},{"type":"Feature","properties":{"from":"\u5b89\u5de5\u5340","name":"\u85cd24(\u5f80\u7a0b)","public_transport:version":"2","ref":"\u85cd24","route":"bus","to":"\u9752\u8349\u91cc","type":"route"},"geometry":{"type":"LineString","coordinates":[[120.17166,23.0647215],[120.1709018,23.0649536],[120.1706721,23.0650363],[120.1704958,23.065118],[120.1703742,23.0652016],[120.1702437,23.0653058],[120.1700833,23.0654589],[120.1694953,23.0662051]]}},{"type":"Feature","properties":{"from":"\u5b89\u5de5\u5340","name":"\u85cd24(\u5f80\u7a0b)","public_transport:version":"2","ref":"\u85cd24","route":"bus","to":"\u9752\u8349\u91cc","type":"route"},"geometry":{"type":"LineString","coordinates":[[120.1694953,23.0662051],[120.1680533,23.0681083],[120.1678656,23.0683551],[120.1674498,23.0688635],[120.1669241,23.0693077],[120.1667264,23.0694553]]}},{"type":"Feature","properties":{"from":"\u5b89\u5de5\u5340","name":"\u85cd24(\u5f80\u7a0b)","public_transport:version":"2","ref":"\u85cd24","route":"bus","to":"\u9752\u8349\u91cc","type":"route"},"geometry":{"type":"LineString","coordinates":[[120.1557775,23.0776846],[120.1562537,23.0775788],[120.157102,23.0770901],[120.1573721,23.0769348],[120.1579853,23.0765916],[120.1582166,23.0764484],[120.1584385,23.0762846],[120.1593281,23.0753978],[120.1600738,23.0746033],[120.1604224,23.0742701],[120.1605163,23.0741862],[120.1607255,23.0739789],[120.1610689,23.0736853],[120.1616268,23.0732757],[120.1618279,23.0731054],[120.1640423,23.0714438],[120.1645597,23.0710605],[120.1653248,23.0705335],[120.165739,23.0702252],[120.1661527,23.0699088],[120.1667264,23.0694553]]}},{"type":"Feature","properties":{"from":"\u5b89\u5de5\u5340","name":"\u85cd24(\u5f80\u7a0b)","public_transport:version":"2","ref":"\u85cd24","route":"bus","to":"\u9752\u8349\u91cc","type":"route"},"geometry":{"type":"LineString","coordinates":[[120.1415826,23.0791628],[120.1418154,23.0791035],[120.1421851,23.0789869],[120.1425626,23.0788728],[120.142832,23.0788029],[120.1428752,23.0787949],[120.1429529,23.0787852],[120.1432893,23.0787177],[120.1437401,23.0786298],[120.1447875,23.0784546],[120.1448113,23.0784278],[120.1449326,23.0784044],[120.1451141,23.0783695],[120.1453442,23.0783212],[120.1455167,23.078304],[120.1457854,23.0782756],[120.1465456,23.0782855],[120.1470487,23.0782781],[120.1474164,23.0782723],[120.1476903,23.0782763],[120.1479727,23.0782727],[120.1481071,23.0782721],[120.1489188,23.0782772],[120.1507042,23.0782964],[120.1518844,23.0783043],[120.1523586,23.0782565],[120.1540916,23.0779814],[120.154293,23.0779526],[120.1557775,23.0776846]]}},{"type":"Feature","properties":{"from":"\u5b89\u5de5\u5340","name":"\u85cd24(\u5f80\u7a0b)","public_transport:version":"2","ref":"\u85cd24","route":"bus","to":"\u9752\u8349\u91cc","type":"route"},"geometry":{"type":"LineString","coordinates":[[120.1358386,23.0813302],[120.1369977,23.080855],[120.1379751,23.0804542],[120.1384115,23.0802752],[120.1388176,23.0801087],[120.1393208,23.0799024],[120.1403079,23.0795796],[120.1404384,23.0795369],[120.1409471,23.0793706],[120.1415826,23.0791628]]}},{"type":"Feature","properties":{"from":"\u5b89\u5de5\u5340","name":"\u85cd24(\u5f80\u7a0b)","public_transport:version":"2","ref":"\u85cd24","route":"bus","to":"\u9752\u8349\u91cc","type":"route"},"geometry":{"type":"LineString","coordinates":[[120.1358386,23.0813302],[120.135733,23.0813869]]}},{"type":"Feature","properties":{"from":"\u5b89\u5de5\u5340","name":"\u85cd24(\u5f80\u7a0b)","public_transport:version":"2","ref":"\u85cd24","route":"bus","to":"\u9752\u8349\u91cc","type":"route"},"geometry":{"type":"LineString","coordinates":[[120.135733,23.0813869],[120.1355949,23.0814042]]}},{"type":"Feature","properties":{"from":"\u5b89\u5de5\u5340","name":"\u85cd24(\u5f80\u7a0b)","public_transport:version":"2","ref":"\u85cd24","route":"bus","to":"\u9752\u8349\u91cc","type":"route"},"geometry":{"type":"LineString","coordinates":[[120.1355949,23.0814042],[120.1343906,23.081535],[120.134054,23.0815375],[120.1337858,23.0815116],[120.1308641,23.0809532],[120.130775,23.0809268]]}},{"type":"Feature","properties":{"from":"\u5b89\u5de5\u5340","name":"\u85cd24(\u5f80\u7a0b)","public_transport:version":"2","ref":"\u85cd24","route":"bus","to":"\u9752\u8349\u91cc","type":"route"},"geometry":{"type":"LineString","coordinates":[[120.130775,23.0809268],[120.1306478,23.0808013],[120.13054,23.078906],[120.130441,23.0772824],[120.1303754,23.0762869],[120.130323,23.0756483],[120.1303548,23.0745413],[120.1303782,23.0732371],[120.1303661,23.0724728],[120.1302943,23.0705869],[120.1303448,23.0701274],[120.1303659,23.0692725],[120.1303753,23.0691442],[120.1303564,23.068225],[120.130382,23.0676654],[120.1304521,23.0674989]]}},{"type":"Feature","properties":{"from":"\u5b89\u5de5\u5340","name":"\u85cd24(\u5f80\u7a0b)","public_transport:version":"2","ref":"\u85cd24","route":"bus","to":"\u9752\u8349\u91cc","type":"route"},"geometry":{"type":"LineString","coordinates":[[120.1308233,23.0667696],[120.130661,23.0670262],[120.1305081,23.0673273],[120.1304521,23.0674989]]}},{"type":"Feature","properties":{"from":"\u5b89\u5de5\u5340","name":"\u85cd24(\u5f80\u7a0b)","public_transport:version":"2","ref":"\u85cd24","route":"bus","to":"\u9752\u8349\u91cc","type":"route"},"geometry":{"type":"LineString","coordinates":[[120.1296974,23.062501],[120.1308692,23.0630675],[120.1311116,23.0632597],[120.1313033,23.0634612],[120.1315421,23.0637021],[120.1315662,23.0638342],[120.1315729,23.0639946],[120.1315917,23.0642179],[120.1315314,23.064419],[120.1313356,23.0648879],[120.1312846,23.064999],[120.1312645,23.0651347],[120.13129,23.0654222],[120.1313517,23.0657924],[120.131345,23.0660145],[120.1313168,23.0661909],[120.1311827,23.0663624],[120.1308233,23.0667696]]}},{"type":"Feature","properties":{"from":"\u5b89\u5de5\u5340","name":"\u85cd24(\u5f80\u7a0b)","public_transport:version":"2","ref":"\u85cd24","route":"bus","to":"\u9752\u8349\u91cc","type":"route"},"geometry":{"type":"LineString","coordinates":[[120.1273672,23.0665376],[120.1276797,23.0659922],[120.1281907,23.0651211],[120.1287258,23.0641673],[120.1293854,23.0630064],[120.1296974,23.062501]]}},{"type":"Feature","properties":{"from":"\u5b89\u5de5\u5340","name":"\u85cd24(\u5f80\u7a0b)","public_transport:version":"2","ref":"\u85cd24","route":"bus","to":"\u9752\u8349\u91cc","type":"route"},"geometry":{"type":"LineString","coordinates":[[120.1273672,23.0665376],[120.1261381,23.06645]]}},{"type":"Feature","properties":{"from":"\u5b89\u5de5\u5340","name":"\u85cd24(\u5f80\u7a0b)","public_transport:version":"2","ref":"\u85cd24","route":"bus","to":"\u9752\u8349\u91cc","type":"route"},"geometry":{"type":"LineString","coordinates":[[120.1225231,23.0725847],[120.1228678,23.07199],[120.1230971,23.0716137],[120.1238616,23.0702984],[120.1239407,23.07018],[120.1246133,23.0690214],[120.1261381,23.06645]]}},{"type":"Feature","properties":{"from":"\u5b89\u5de5\u5340","name":"\u85cd24(\u5f80\u7a0b)","public_transport:version":"2","ref":"\u85cd24","route":"bus","to":"\u9752\u8349\u91cc","type":"route"},"geometry":{"type":"LineString","coordinates":[[120.1230898,23.0747149],[120.1229338,23.0743788],[120.1227028,23.0735073],[120.1225231,23.0725847]]}},{"type":"Feature","properties":{"from":"\u5b89\u5de5\u5340","name":"\u85cd24(\u5f80\u7a0b)","public_transport:version":"2","ref":"\u85cd24","route":"bus","to":"\u9752\u8349\u91cc","type":"route"},"geometry":{"type":"LineString","coordinates":[[120.1210338,23.075032],[120.1218063,23.0751036],[120.1219646,23.0751085],[120.1221684,23.0750727],[120.1226472,23.0748877],[120.1230898,23.0747149]]}},{"type":"Feature","properties":{"from":"\u5b89\u5de5\u5340","name":"\u85cd24(\u5f80\u7a0b)","public_transport:version":"2","ref":"\u85cd24","route":"bus","to":"\u9752\u8349\u91cc","type":"route"},"geometry":{"type":"LineString","coordinates":[[120.1169884,23.0774959],[120.1181304,23.077615],[120.118239,23.0776174],[120.1183034,23.0775841],[120.1190322,23.0768957],[120.1205839,23.0754151],[120.1210338,23.075032]]}},{"type":"Feature","properties":{"from":"\u5b89\u5de5\u5340","name":"\u85cd24(\u5f80\u7a0b)","public_transport:version":"2","ref":"\u85cd24","route":"bus","to":"\u9752\u8349\u91cc","type":"route"},"geometry":{"type":"LineString","coordinates":[[120.1119345,23.0766859],[120.1120659,23.0767501],[120.1123167,23.0768402],[120.1124883,23.0768907],[120.1135827,23.0771437],[120.1139233,23.0772054],[120.1141956,23.0772337],[120.1146636,23.0772868],[120.1160074,23.0773966],[120.1169884,23.0774959]]}},{"type":"Feature","properties":{"bus":"yes","highway":"bus_stop","name":"\u9752\u8349\u91cc","network":"\u81fa\u5357\u5e02\u516c\u8eca","note":"\u8208\u5357\u5ba2\u904b","operator":"\u81fa\u5357\u5e02\u516c\u8eca","public_transport":"platform"},"geometry":{"type":"Point","coordinates":[120.1117971,23.0766961]}},{"type":"Feature","properties":{"bus":"yes","highway":"bus_stop","name":"\u7802\u5d19\u91cc","network":"\u81fa\u5357\u5e02\u516c\u8eca","note":"\u8208\u5357\u5ba2\u904b","operator":"\u81fa\u5357\u5e02\u516c\u8eca","public_transport":"platform"},"geometry":{"type":"Point","coordinates":[120.1212633,23.0750024]}},{"type":"Feature","properties":{"bus":"yes","highway":"bus_stop","name":"\u7802\u5d19\u793e\u5340","network":"\u81fa\u5357\u5e02\u516c\u8eca","note":"\u8208\u5357\u5ba2\u904b","operator":"\u81fa\u5357\u5e02\u516c\u8eca","public_transport":"platform"},"geometry":{"type":"Point","coordinates":[120.1224655,23.0727869]}},{"type":"Feature","properties":{"bench":"yes","bus":"yes","highway":"bus_stop","name":"\u8056\u6bcd\u5edf","name:en":"Shengmu Temple","name:zh":"\u8056\u6bcd\u5edf","network":"\u81fa\u5357\u5e02\u516c\u8eca","operator":"\u81fa\u5357\u5e02\u516c\u8eca","public_transport":"platform","ref":"1109","shelter":"yes"},"geometry":{"type":"Point","coordinates":[120.1266278,23.0664091]}},{"type":"Feature","properties":{"bus":"yes","highway":"bus_stop","name":"\u571f\u57ce\u5b50","network":"\u81fa\u5357\u5e02\u516c\u8eca","note":"\u8208\u5357\u5ba2\u904b","operator":"\u81fa\u5357\u5e02\u516c\u8eca","public_transport":"platform"},"geometry":{"type":"Point","coordinates":[120.1292044,23.0630607]}},{"type":"Feature","properties":{"bus":"yes","highway":"bus_stop","name":"\u57ce\u6771\u91cc","network":"\u81fa\u5357\u5e02\u516c\u8eca","operator":"\u81fa\u5357\u5e02\u516c\u8eca","public_transport":"platform"},"geometry":{"type":"Point","coordinates":[120.1314693,23.0645841]}},{"type":"Feature","properties":{"bus":"yes","highway":"bus_stop","name":"\u571f\u57ce\u570b\u5c0f","network":"\u81fa\u5357\u5e02\u516c\u8eca","note":"\u8208\u5357\u5ba2\u904b","operator":"\u81fa\u5357\u5e02\u516c\u8eca","public_transport":"platform"},"geometry":{"type":"Point","coordinates":[120.1310806,23.066523]}},{"type":"Feature","properties":{"bus":"yes","highway":"bus_stop","name":"\u7802\u5d19\u8def\u53e3","network":"\u81fa\u5357\u5e02\u516c\u8eca","note":"\u8208\u5357\u5ba2\u904b","operator":"\u81fa\u5357\u5e02\u516c\u8eca","public_transport":"platform","ref":"8583"},"geometry":{"type":"Point","coordinates":[120.1305057,23.0761936]}},{"type":"Feature","properties":{"bus":"yes","highway":"bus_stop","name":"\u6eaa\u57d4\u4ed4","network":"\u81fa\u5357\u5e02\u516c\u8eca","note":"\u8208\u5357\u5ba2\u904b","operator":"\u81fa\u5357\u5e02\u516c\u8eca","public_transport":"platform"},"geometry":{"type":"Point","coordinates":[120.1306924,23.0788239]}},{"type":"Feature","properties":{"bus":"yes","highway":"bus_stop","name":"\u9e7f\u8033\u9580","network":"\u81fa\u5357\u5e02\u516c\u8eca","note":"\u8208\u5357\u5ba2\u904b","operator":"\u81fa\u5357\u5e02\u516c\u8eca","public_transport":"platform"},"geometry":{"type":"Point","coordinates":[120.1312793,23.0809255]}},{"type":"Feature","properties":{"bus":"yes","highway":"bus_stop","name":"\u5b89\u660e\u8def\u53e3","network":"\u81fa\u5357\u5e02\u516c\u8eca","note":"\u8208\u5357\u5ba2\u904b","operator":"\u81fa\u5357\u5e02\u516c\u8eca","public_transport":"platform","ref":"8909"},"geometry":{"type":"Point","coordinates":[120.1364173,23.0809573]}},{"type":"Feature","properties":{"bus":"yes","highway":"bus_stop","name":"\u570b\u8056\u5927\u6a4b","network":"\u81fa\u5357\u5e02\u516c\u8eca","note":"\u8208\u5357\u5ba2\u904b","operator":"\u81fa\u5357\u5e02\u516c\u8eca","public_transport":"platform"},"geometry":{"type":"Point","coordinates":[120.1385192,23.0800732]}},{"type":"Feature","properties":{"bus":"yes","highway":"bus_stop","name":"\u5b78\u6771\u5edf","network":"\u81fa\u5357\u5e02\u516c\u8eca","note":"\u8208\u5357\u5ba2\u904b","operator":"\u81fa\u5357\u5e02\u516c\u8eca","public_transport":"platform"},"geometry":{"type":"Point","coordinates":[120.1435315,23.0785916]}},{"type":"Feature","properties":{"bus":"yes","highway":"bus_stop","name":"\u5b78\u7532\u5bee","network":"\u81fa\u5357\u5e02\u516c\u8eca","note":"\u8208\u5357\u5ba2\u904b","operator":"\u81fa\u5357\u5e02\u516c\u8eca","public_transport":"platform"},"geometry":{"type":"Point","coordinates":[120.1476017,23.0781989]}},{"type":"Feature","properties":{"bus":"yes","highway":"bus_stop","name":"\u6eaa\u5357\u5bee","network":"\u81fa\u5357\u5e02\u516c\u8eca","note":"\u8208\u5357\u5ba2\u904b","operator":"\u81fa\u5357\u5e02\u516c\u8eca","public_transport":"platform"},"geometry":{"type":"Point","coordinates":[120.1605433,23.0739695]}},{"type":"Feature","properties":{"bus":"yes","highway":"bus_stop","name":"\u516c\u586d","network":"\u81fa\u5357\u5e02\u516c\u8eca","note":"\u8208\u5357\u5ba2\u904b","operator":"\u81fa\u5357\u5e02\u516c\u8eca","public_transport":"platform"},"geometry":{"type":"Point","coordinates":[120.165011,23.0706315]}},{"type":"Feature","properties":{"bus":"yes","highway":"bus_stop","name":"\u65b0\u5409\u5e84","network":"\u81fa\u5357\u5e02\u516c\u8eca","operator":"\u81fa\u5357\u5e02\u516c\u8eca","public_transport":"platform"},"geometry":{"type":"Point","coordinates":[120.1676908,23.0683759]}},{"type":"Feature","properties":{"bus":"yes","highway":"bus_stop","name":"\u5341\u4e8c\u4f43\u6a4b","network":"\u81fa\u5357\u5e02\u516c\u8eca","note":"\u8208\u5357\u5ba2\u904b","operator":"\u81fa\u5357\u5e02\u516c\u8eca","public_transport":"platform"},"geometry":{"type":"Point","coordinates":[120.1707274,23.0649032]}},{"type":"Feature","properties":{"bus":"yes","highway":"bus_stop","name":"\u5357\u5929\u5bae","network":"\u81fa\u5357\u5e02\u516c\u8eca","operator":"\u81fa\u5357\u5e02\u516c\u8eca","public_transport":"platform","ref":"0743"},"geometry":{"type":"Point","coordinates":[120.1745551,23.065617]}},{"type":"Feature","properties":{"bus":"yes","highway":"bus_stop","name":"\u5341\u4e8c\u4f43\u795e\u6995\u524d","network":"\u81fa\u5357\u5e02\u516c\u8eca","operator":"\u81fa\u5357\u5e02\u516c\u8eca","public_transport":"platform","ref":"0744"},"geometry":{"type":"Point","coordinates":[120.1760829,23.0668421]}},{"type":"Feature","properties":{"bus":"yes","highway":"bus_stop","name":"\u5341\u4e8c\u4f43","network":"\u81fa\u5357\u5e02\u516c\u8eca","operator":"\u81fa\u5357\u5e02\u516c\u8eca","public_transport":"platform"},"geometry":{"type":"Point","coordinates":[120.1761664,23.0622624]}},{"type":"Feature","properties":{"bus":"yes","highway":"bus_stop","name":"\u672c\u539f\u8857\u53e3","network":"\u81fa\u5357\u5e02\u516c\u8eca","note":"\u8208\u5357\u5ba2\u904b","operator":"\u81fa\u5357\u5e02\u516c\u8eca","public_transport":"platform"},"geometry":{"type":"Point","coordinates":[120.1787043,23.0529795]}},{"type":"Feature","properties":{"bus":"yes","highway":"bus_stop","name":"\u4ec1\u5b89\u8def","network":"\u81fa\u5357\u5e02\u516c\u8eca","operator":"\u81fa\u5357\u5e02\u516c\u8eca","public_transport":"platform"},"geometry":{"type":"Point","coordinates":[120.17839,23.0512937]}},{"type":"Feature","properties":{"bus":"yes","highway":"bus_stop","name":"\u6d77\u6771\u570b\u5c0f","network":"\u81fa\u5357\u5e02\u516c\u8eca","operator":"\u81fa\u5357\u5e02\u516c\u8eca","public_transport":"platform"},"geometry":{"type":"Point","coordinates":[120.1754279,23.0488524]}},{"type":"Feature","properties":{"bus":"yes","highway":"bus_stop","name":"\u5b89\u5357\u570b\u4e2d","network":"\u81fa\u5357\u5e02\u516c\u8eca","operator":"\u81fa\u5357\u5e02\u516c\u8eca","public_transport":"platform"},"geometry":{"type":"Point","coordinates":[120.1782521,23.048257]}},{"type":"Feature","properties":{"bus":"yes","highway":"bus_stop","name":"\u6d77\u5c3e","network":"\u81fa\u5357\u5e02\u516c\u8eca","note":"\u8208\u5357\u5ba2\u904b","operator":"\u81fa\u5357\u5e02\u516c\u8eca","public_transport":"platform"},"geometry":{"type":"Point","coordinates":[120.1844404,23.0463006]}},{"type":"Feature","properties":{"bus":"yes","highway":"bus_stop","name":"\u5357\u6d77\u5c3e","network":"\u81fa\u5357\u5e02\u516c\u8eca","operator":"\u81fa\u5357\u5e02\u516c\u8eca","public_transport":"platform"},"geometry":{"type":"Point","coordinates":[120.1870219,23.042348]}},{"type":"Feature","properties":{"bus":"yes","highway":"bus_stop","name":"\u6d77\u6771\u91cc","network":"\u81fa\u5357\u5e02\u516c\u8eca","operator":"\u81fa\u5357\u5e02\u516c\u8eca","public_transport":"platform"},"geometry":{"type":"Point","coordinates":[120.1877233,23.0392308]}},{"type":"Feature","properties":{"bus":"yes","highway":"bus_stop","name":"\u6d77\u5c3e\u524d","network":"\u81fa\u5357\u5e02\u516c\u8eca","operator":"\u81fa\u5357\u5e02\u516c\u8eca","public_transport":"platform"},"geometry":{"type":"Point","coordinates":[120.1887507,23.0358907]}},{"type":"Feature","properties":{"bus":"yes","highway":"bus_stop","name":"\u6d77\u6771\u6a4b","network":"\u81fa\u5357\u5e02\u516c\u8eca","operator":"\u81fa\u5357\u5e02\u516c\u8eca","public_transport":"platform"},"geometry":{"type":"Point","coordinates":[120.1901479,23.0304326]}},{"type":"Feature","properties":{"bus":"yes","highway":"bus_stop","name":"\u4e2d\u83ef\u793e\u5340","network":"\u81fa\u5357\u5e02\u516c\u8eca","operator":"\u81fa\u5357\u5e02\u516c\u8eca","public_transport":"platform"},"geometry":{"type":"Point","coordinates":[120.1907151,23.0275363]}},{"type":"Feature","properties":{"bus":"yes","highway":"bus_stop","name":"\u5354\u6210\u793e\u5340","network":"\u81fa\u5357\u5e02\u516c\u8eca","operator":"\u81fa\u5357\u5e02\u516c\u8eca","public_transport":"platform"},"geometry":{"type":"Point","coordinates":[120.1916768,23.0231374]}},{"type":"Feature","properties":{"bus":"yes","highway":"bus_stop","name":"\u6eaa\u4ed4\u5898\u793e\u5340","network":"\u81fa\u5357\u5e02\u516c\u8eca","operator":"\u81fa\u5357\u5e02\u516c\u8eca","public_transport":"platform","ref":"0357"},"geometry":{"type":"Point","coordinates":[120.1921817,23.0206428]}},{"type":"Feature","properties":{"bus":"yes","highway":"bus_stop","name":"\u6587\u5143\u5bee","network":"\u81fa\u5357\u5e02\u516c\u8eca","operator":"\u81fa\u5357\u5e02\u516c\u8eca","public_transport":"platform"},"geometry":{"type":"Point","coordinates":[120.1934906,23.0152619]}},{"type":"Feature","properties":{"bus":"yes","highway":"bus_stop","name":"\u7279\u529b\u5c4b\/\u597d\u5e02\u591a","network":"\u81fa\u5357\u5e02\u516c\u8eca","operator":"\u81fa\u5357\u5e02\u516c\u8eca","public_transport":"platform"},"geometry":{"type":"Point","coordinates":[120.193725,23.0102669]}},{"type":"Feature","properties":{"bus":"yes","highway":"bus_stop","name":"\u6587\u8ce2\u8def","network":"\u81fa\u5357\u5e02\u516c\u8eca","operator":"\u81fa\u5357\u5e02\u516c\u8eca","public_transport":"platform"},"geometry":{"type":"Point","coordinates":[120.1934869,23.0056935]}},{"type":"Feature","properties":{"bus":"yes","highway":"bus_stop","name":"\u6587\u8ce2\u570b\u4e2d","network":"\u81fa\u5357\u5e02\u516c\u8eca","operator":"\u81fa\u5357\u5e02\u516c\u8eca","public_transport":"platform"},"geometry":{"type":"Point","coordinates":[120.1936166,23.003963]}},{"type":"Feature","properties":{"bus":"yes","highway":"bus_stop","name":"\u5354\u548c\u91cc","network":"\u81fa\u5357\u5e02\u516c\u8eca","note":"\u8208\u5357\u5ba2\u904b","operator":"\u81fa\u5357\u5e02\u516c\u8eca","public_transport":"platform"},"geometry":{"type":"Point","coordinates":[120.1935688,22.9995988]}},{"type":"Feature","properties":{"bus":"yes","highway":"bus_stop","name":"\u6c38\u6a02\u5e02\u5834","network":"\u81fa\u5357\u5e02\u516c\u8eca","operator":"\u81fa\u5357\u5e02\u516c\u8eca","public_transport":"platform","ref":"9033"},"geometry":{"type":"Point","coordinates":[120.1988018,22.9977822]}},{"type":"Feature","properties":{"bus":"yes","highway":"bus_stop","name":"\u897f\u9580\u3001\u6c11\u6b0a\u8def\u53e3","network":"\u81fa\u5357\u5e02\u516c\u8eca","operator":"\u81fa\u5357\u5e02\u516c\u8eca","public_transport":"platform","ref":"9279","shelter":"no"},"geometry":{"type":"Point","coordinates":[120.1992021,22.9953119]}},{"type":"Feature","properties":{"bus":"yes","highway":"bus_stop","name":"\u897f\u9580\u3001\u53cb\u611b\u8857\u53e3","network":"\u81fa\u5357\u5e02\u516c\u8eca","operator":"\u81fa\u5357\u5e02\u516c\u8eca","public_transport":"platform"},"geometry":{"type":"Point","coordinates":[120.1982036,22.9920251]}},{"type":"Feature","properties":{"bench":"no","bus":"yes","highway":"bus_stop","name":"\u5c0f\u897f\u9580(\u5927\u5104\u9e97\u7dfb)","network":"\u81fa\u5357\u5e02\u516c\u8eca","note":"\u8208\u5357\u5ba2\u904b","operator":"\u81fa\u5357\u5e02\u516c\u8eca","public_transport":"platform","ref":"9204","shelter":"no"},"geometry":{"type":"Point","coordinates":[120.1973708,22.98825]}},{"type":"Feature","properties":{"bench":"no","bus":"yes","highway":"bus_stop","name":"\u65b0\u5149\u4e09\u8d8a\u65b0\u5929\u5730","network":"\u81fa\u5357\u5e02\u516c\u8eca","operator":"\u81fa\u5357\u5e02\u516c\u8eca","public_transport":"platform","ref":"9282","shelter":"no"},"geometry":{"type":"Point","coordinates":[120.1974443,22.9865576]}},{"type":"Feature","properties":{"bench":"no","bus":"yes","highway":"bus_stop","name":"\u53f0\u5357\u7ad9","network":"\u81fa\u5357\u5e02\u516c\u8eca","operator":"\u81fa\u5357\u5e02\u516c\u8eca","public_transport":"platform","ref":"9284","shelter":"no"},"geometry":{"type":"Point","coordinates":[120.1974862,22.982116]}},{"type":"Feature","properties":{"bus":"yes","highway":"bus_stop","name":"\u65b0\u8208\u570b\u5c0f","network":"\u81fa\u5357\u5e02\u516c\u8eca","operator":"\u81fa\u5357\u5e02\u516c\u8eca","public_transport":"platform"},"geometry":{"type":"Point","coordinates":[120.196002,22.9789106]}},{"type":"Feature","properties":{"bench":"no","bus":"yes","highway":"bus_stop","name":"\u4e09\u5b98\u5edf","network":"\u81fa\u5357\u5e02\u516c\u8eca","operator":"\u81fa\u5357\u5e02\u516c\u8eca","public_transport":"platform","shelter":"no"},"geometry":{"type":"Point","coordinates":[120.1914338,22.9757347]}},{"type":"Feature","properties":{"bus":"yes","highway":"bus_stop","name":"\u660e\u548c\u516c\u5712","network":"\u81fa\u5357\u5e02\u516c\u8eca","operator":"\u81fa\u5357\u5e02\u516c\u8eca","public_transport":"platform"},"geometry":{"type":"Point","coordinates":[120.1860671,22.9745458]}},{"type":"Feature","properties":{"bus":"yes","highway":"bus_stop","name":"\u670d\u52d9\u4e2d\u5fc3","network":"\u81fa\u5357\u5e02\u516c\u8eca","operator":"\u81fa\u5357\u5e02\u516c\u8eca","public_transport":"platform","ref":"1564"},"geometry":{"type":"Point","coordinates":[120.1828646,22.9733013]}},{"type":"Feature","properties":{"bus":"yes","highway":"bus_stop","name":"\u5b89\u5e73\u6e2f","network":"\u81fa\u5357\u5e02\u516c\u8eca","operator":"\u81fa\u5357\u5e02\u516c\u8eca","public_transport":"platform"},"geometry":{"type":"Point","coordinates":[120.178093,22.9732312]}},{"type":"Feature","properties":{"bus":"yes","highway":"bus_stop","name":"\u5b89\u5e73\u5de5\u696d\u5340","network":"\u81fa\u5357\u5e02\u516c\u8eca","operator":"\u81fa\u5357\u5e02\u516c\u8eca","public_transport":"platform"},"geometry":{"type":"Point","coordinates":[120.1742274,22.9687956]}},{"type":"Feature","properties":{"from":"\u5b89\u5de5\u5340","name":"\u85cd24(\u8fd4\u7a0b)","public_transport:version":"2","ref":"\u85cd24","route":"bus","to":"\u9752\u8349\u91cc","type":"route"},"geometry":{"type":"LineString","coordinates":[[120.1119345,23.0766859],[120.1120659,23.0767501],[120.1123167,23.0768402],[120.1124883,23.0768907],[120.1135827,23.0771437],[120.1139233,23.0772054],[120.1141956,23.0772337],[120.1146636,23.0772868],[120.1160074,23.0773966],[120.1169884,23.0774959]]}},{"type":"Feature","properties":{"from":"\u5b89\u5de5\u5340","name":"\u85cd24(\u8fd4\u7a0b)","public_transport:version":"2","ref":"\u85cd24","route":"bus","to":"\u9752\u8349\u91cc","type":"route"},"geometry":{"type":"LineString","coordinates":[[120.1169884,23.0774959],[120.1181304,23.077615],[120.118239,23.0776174],[120.1183034,23.0775841],[120.1190322,23.0768957],[120.1205839,23.0754151],[120.1210338,23.075032]]}},{"type":"Feature","properties":{"from":"\u5b89\u5de5\u5340","name":"\u85cd24(\u8fd4\u7a0b)","public_transport:version":"2","ref":"\u85cd24","route":"bus","to":"\u9752\u8349\u91cc","type":"route"},"geometry":{"type":"LineString","coordinates":[[120.1210338,23.075032],[120.1218063,23.0751036],[120.1219646,23.0751085],[120.1221684,23.0750727],[120.1226472,23.0748877],[120.1230898,23.0747149]]}},{"type":"Feature","properties":{"from":"\u5b89\u5de5\u5340","name":"\u85cd24(\u8fd4\u7a0b)","public_transport:version":"2","ref":"\u85cd24","route":"bus","to":"\u9752\u8349\u91cc","type":"route"},"geometry":{"type":"LineString","coordinates":[[120.1230898,23.0747149],[120.1229338,23.0743788],[120.1227028,23.0735073],[120.1225231,23.0725847]]}},{"type":"Feature","properties":{"from":"\u5b89\u5de5\u5340","name":"\u85cd24(\u8fd4\u7a0b)","public_transport:version":"2","ref":"\u85cd24","route":"bus","to":"\u9752\u8349\u91cc","type":"route"},"geometry":{"type":"LineString","coordinates":[[120.1225231,23.0725847],[120.1228678,23.07199],[120.1230971,23.0716137],[120.1238616,23.0702984],[120.1239407,23.07018],[120.1246133,23.0690214],[120.1261381,23.06645]]}},{"type":"Feature","properties":{"from":"\u5b89\u5de5\u5340","name":"\u85cd24(\u8fd4\u7a0b)","public_transport:version":"2","ref":"\u85cd24","route":"bus","to":"\u9752\u8349\u91cc","type":"route"},"geometry":{"type":"LineString","coordinates":[[120.1273672,23.0665376],[120.1261381,23.06645]]}},{"type":"Feature","properties":{"from":"\u5b89\u5de5\u5340","name":"\u85cd24(\u8fd4\u7a0b)","public_transport:version":"2","ref":"\u85cd24","route":"bus","to":"\u9752\u8349\u91cc","type":"route"},"geometry":{"type":"LineString","coordinates":[[120.1273672,23.0665376],[120.1276797,23.0659922],[120.1281907,23.0651211],[120.1287258,23.0641673],[120.1293854,23.0630064],[120.1296974,23.062501]]}},{"type":"Feature","properties":{"from":"\u5b89\u5de5\u5340","name":"\u85cd24(\u8fd4\u7a0b)","public_transport:version":"2","ref":"\u85cd24","route":"bus","to":"\u9752\u8349\u91cc","type":"route"},"geometry":{"type":"LineString","coordinates":[[120.1296974,23.062501],[120.1308692,23.0630675],[120.1311116,23.0632597],[120.1313033,23.0634612],[120.1315421,23.0637021],[120.1315662,23.0638342],[120.1315729,23.0639946],[120.1315917,23.0642179],[120.1315314,23.064419],[120.1313356,23.0648879],[120.1312846,23.064999],[120.1312645,23.0651347],[120.13129,23.0654222],[120.1313517,23.0657924],[120.131345,23.0660145],[120.1313168,23.0661909],[120.1311827,23.0663624],[120.1308233,23.0667696]]}},{"type":"Feature","properties":{"from":"\u5b89\u5de5\u5340","name":"\u85cd24(\u8fd4\u7a0b)","public_transport:version":"2","ref":"\u85cd24","route":"bus","to":"\u9752\u8349\u91cc","type":"route"},"geometry":{"type":"LineString","coordinates":[[120.1308233,23.0667696],[120.130661,23.0670262],[120.1305081,23.0673273],[120.1304521,23.0674989]]}},{"type":"Feature","properties":{"from":"\u5b89\u5de5\u5340","name":"\u85cd24(\u8fd4\u7a0b)","public_transport:version":"2","ref":"\u85cd24","route":"bus","to":"\u9752\u8349\u91cc","type":"route"},"geometry":{"type":"LineString","coordinates":[[120.1304521,23.0674989],[120.1304786,23.0676716],[120.1305001,23.0691109],[120.1304947,23.0692355],[120.1304522,23.0701518],[120.1304187,23.0706222],[120.130485,23.0724783],[120.1305034,23.0731127],[120.1305052,23.0732379],[120.1304759,23.0745533],[120.1304484,23.0756458],[120.130506,23.0762976],[120.1305305,23.0768425],[120.1305714,23.077262],[120.1305966,23.0779234],[120.1306637,23.0789214],[120.1307384,23.0807335],[120.1308052,23.0808484]]}},{"type":"Feature","properties":{"from":"\u5b89\u5de5\u5340","name":"\u85cd24(\u8fd4\u7a0b)","public_transport:version":"2","ref":"\u85cd24","route":"bus","to":"\u9752\u8349\u91cc","type":"route"},"geometry":{"type":"LineString","coordinates":[[120.1308052,23.0808484],[120.1308528,23.0808762],[120.133811,23.081445],[120.1340714,23.0814782],[120.1343986,23.081477],[120.1349802,23.0814036],[120.1355914,23.0813089]]}},{"type":"Feature","properties":{"from":"\u5b89\u5de5\u5340","name":"\u85cd24(\u8fd4\u7a0b)","public_transport:version":"2","ref":"\u85cd24","route":"bus","to":"\u9752\u8349\u91cc","type":"route"},"geometry":{"type":"LineString","coordinates":[[120.1355914,23.0813089],[120.1357136,23.0813037]]}},{"type":"Feature","properties":{"from":"\u5b89\u5de5\u5340","name":"\u85cd24(\u8fd4\u7a0b)","public_transport:version":"2","ref":"\u85cd24","route":"bus","to":"\u9752\u8349\u91cc","type":"route"},"geometry":{"type":"LineString","coordinates":[[120.1357136,23.0813037],[120.1358386,23.0813302]]}},{"type":"Feature","properties":{"from":"\u5b89\u5de5\u5340","name":"\u85cd24(\u8fd4\u7a0b)","public_transport:version":"2","ref":"\u85cd24","route":"bus","to":"\u9752\u8349\u91cc","type":"route"},"geometry":{"type":"LineString","coordinates":[[120.1358386,23.0813302],[120.1369977,23.080855],[120.1379751,23.0804542],[120.1384115,23.0802752],[120.1388176,23.0801087],[120.1393208,23.0799024],[120.1403079,23.0795796],[120.1404384,23.0795369],[120.1409471,23.0793706],[120.1415826,23.0791628]]}},{"type":"Feature","properties":{"from":"\u5b89\u5de5\u5340","name":"\u85cd24(\u8fd4\u7a0b)","public_transport:version":"2","ref":"\u85cd24","route":"bus","to":"\u9752\u8349\u91cc","type":"route"},"geometry":{"type":"LineString","coordinates":[[120.1415826,23.0791628],[120.1418154,23.0791035],[120.1421851,23.0789869],[120.1425626,23.0788728],[120.142832,23.0788029],[120.1428752,23.0787949],[120.1429529,23.0787852],[120.1432893,23.0787177],[120.1437401,23.0786298],[120.1447875,23.0784546],[120.1448113,23.0784278],[120.1449326,23.0784044],[120.1451141,23.0783695],[120.1453442,23.0783212],[120.1455167,23.078304],[120.1457854,23.0782756],[120.1465456,23.0782855],[120.1470487,23.0782781],[120.1474164,23.0782723],[120.1476903,23.0782763],[120.1479727,23.0782727],[120.1481071,23.0782721],[120.1489188,23.0782772],[120.1507042,23.0782964],[120.1518844,23.0783043],[120.1523586,23.0782565],[120.1540916,23.0779814],[120.154293,23.0779526],[120.1557775,23.0776846]]}},{"type":"Feature","properties":{"from":"\u5b89\u5de5\u5340","name":"\u85cd24(\u8fd4\u7a0b)","public_transport:version":"2","ref":"\u85cd24","route":"bus","to":"\u9752\u8349\u91cc","type":"route"},"geometry":{"type":"LineString","coordinates":[[120.1557775,23.0776846],[120.1562537,23.0775788],[120.157102,23.0770901],[120.1573721,23.0769348],[120.1579853,23.0765916],[120.1582166,23.0764484],[120.1584385,23.0762846],[120.1593281,23.0753978],[120.1600738,23.0746033],[120.1604224,23.0742701],[120.1605163,23.0741862],[120.1607255,23.0739789],[120.1610689,23.0736853],[120.1616268,23.0732757],[120.1618279,23.0731054],[120.1640423,23.0714438],[120.1645597,23.0710605],[120.1653248,23.0705335],[120.165739,23.0702252],[120.1661527,23.0699088],[120.1667264,23.0694553]]}},{"type":"Feature","properties":{"from":"\u5b89\u5de5\u5340","name":"\u85cd24(\u8fd4\u7a0b)","public_transport:version":"2","ref":"\u85cd24","route":"bus","to":"\u9752\u8349\u91cc","type":"route"},"geometry":{"type":"LineString","coordinates":[[120.1694953,23.0662051],[120.1680533,23.0681083],[120.1678656,23.0683551],[120.1674498,23.0688635],[120.1669241,23.0693077],[120.1667264,23.0694553]]}},{"type":"Feature","properties":{"from":"\u5b89\u5de5\u5340","name":"\u85cd24(\u8fd4\u7a0b)","public_transport:version":"2","ref":"\u85cd24","route":"bus","to":"\u9752\u8349\u91cc","type":"route"},"geometry":{"type":"LineString","coordinates":[[120.17166,23.0647215],[120.1709018,23.0649536],[120.1706721,23.0650363],[120.1704958,23.065118],[120.1703742,23.0652016],[120.1702437,23.0653058],[120.1700833,23.0654589],[120.1694953,23.0662051]]}},{"type":"Feature","properties":{"from":"\u5b89\u5de5\u5340","name":"\u85cd24(\u8fd4\u7a0b)","public_transport:version":"2","ref":"\u85cd24","route":"bus","to":"\u9752\u8349\u91cc","type":"route"},"geometry":{"type":"LineString","coordinates":[[120.1764359,23.0671795],[120.1761756,23.0670129],[120.1758621,23.0667576],[120.1754772,23.066412],[120.1752762,23.0662673],[120.175025,23.0660694],[120.1749329,23.0660182],[120.1745801,23.0657655],[120.1741999,23.0655058],[120.1741149,23.0654563],[120.1739712,23.0654002],[120.1736482,23.0652759],[120.1733889,23.0652081],[120.1727413,23.0650259],[120.1718714,23.0647363],[120.17166,23.0647215]]}},{"type":"Feature","properties":{"from":"\u5b89\u5de5\u5340","name":"\u85cd24(\u8fd4\u7a0b)","public_transport:version":"2","ref":"\u85cd24","route":"bus","to":"\u9752\u8349\u91cc","type":"route"},"geometry":{"type":"LineString","coordinates":[[120.1762907,23.0632092],[120.1762907,23.0634066],[120.1763149,23.0644604],[120.1763202,23.0646948],[120.1763068,23.0652377],[120.1763149,23.0655289],[120.1763122,23.0657535],[120.1763149,23.0662618],[120.1763256,23.0664963],[120.176398,23.0667603],[120.1764409,23.0669726],[120.1764359,23.0671795]]}},{"type":"Feature","properties":{"from":"\u5b89\u5de5\u5340","name":"\u85cd24(\u8fd4\u7a0b)","public_transport:version":"2","ref":"\u85cd24","route":"bus","to":"\u9752\u8349\u91cc","type":"route"},"geometry":{"type":"LineString","coordinates":[[120.1783466,23.0535845],[120.1777034,23.0543023],[120.1775262,23.054526],[120.1774057,23.0547453],[120.1773654,23.0548626],[120.1770298,23.0560758],[120.1768887,23.0565671],[120.1768471,23.0567271],[120.1766433,23.0575502],[120.1765507,23.0580573],[120.1764582,23.0595122],[120.1763766,23.0609264],[120.1763605,23.061188],[120.1763551,23.0613114],[120.1763417,23.0614175],[120.1762827,23.0626687],[120.1762907,23.0632092]]}},{"type":"Feature","properties":{"from":"\u5b89\u5de5\u5340","name":"\u85cd24(\u8fd4\u7a0b)","public_transport:version":"2","ref":"\u85cd24","route":"bus","to":"\u9752\u8349\u91cc","type":"route"},"geometry":{"type":"LineString","coordinates":[[120.1799122,23.0517948],[120.1791699,23.0526426],[120.1783466,23.0535845]]}},{"type":"Feature","properties":{"from":"\u5b89\u5de5\u5340","name":"\u85cd24(\u8fd4\u7a0b)","public_transport:version":"2","ref":"\u85cd24","route":"bus","to":"\u9752\u8349\u91cc","type":"route"},"geometry":{"type":"LineString","coordinates":[[120.1799122,23.0517948],[120.179017,23.0514587],[120.1784116,23.0512315],[120.1777453,23.0509814],[120.1768212,23.0506631],[120.1764021,23.0505067],[120.1760475,23.0502159],[120.1754422,23.0497182]]}},{"type":"Feature","properties":{"from":"\u5b89\u5de5\u5340","name":"\u85cd24(\u8fd4\u7a0b)","public_transport:version":"2","ref":"\u85cd24","route":"bus","to":"\u9752\u8349\u91cc","type":"route"},"geometry":{"type":"LineString","coordinates":[[120.1747706,23.0492161],[120.1748933,23.049362],[120.1754422,23.0497182]]}},{"type":"Feature","properties":{"from":"\u5b89\u5de5\u5340","name":"\u85cd24(\u8fd4\u7a0b)","public_transport:version":"2","ref":"\u85cd24","route":"bus","to":"\u9752\u8349\u91cc","type":"route"},"geometry":{"type":"LineString","coordinates":[[120.1747588,23.049109],[120.1747706,23.0492161]]}},{"type":"Feature","properties":{"from":"\u5b89\u5de5\u5340","name":"\u85cd24(\u8fd4\u7a0b)","public_transport:version":"2","ref":"\u85cd24","route":"bus","to":"\u9752\u8349\u91cc","type":"route"},"geometry":{"type":"LineString","coordinates":[[120.1747588,23.049109],[120.1756044,23.0488924],[120.1759152,23.0488086]]}},{"type":"Feature","properties":{"from":"\u5b89\u5de5\u5340","name":"\u85cd24(\u8fd4\u7a0b)","public_transport:version":"2","ref":"\u85cd24","route":"bus","to":"\u9752\u8349\u91cc","type":"route"},"geometry":{"type":"LineString","coordinates":[[120.1759152,23.0488086],[120.1764738,23.0486876],[120.1769176,23.0485943],[120.1769999,23.0485769],[120.1776115,23.0484479],[120.1778442,23.0483967],[120.1787252,23.0482086],[120.1803037,23.0478716],[120.1813778,23.047645],[120.181808,23.0475537],[120.1826026,23.0473807],[120.1835718,23.0471737],[120.1838222,23.0471202],[120.1840373,23.0470743]]}},{"type":"Feature","properties":{"from":"\u5b89\u5de5\u5340","name":"\u85cd24(\u8fd4\u7a0b)","public_transport:version":"2","ref":"\u85cd24","route":"bus","to":"\u9752\u8349\u91cc","type":"route"},"geometry":{"type":"LineString","coordinates":[[120.1840373,23.0470743],[120.1841241,23.0469558],[120.1850677,23.0456675],[120.1863046,23.0439787],[120.1865434,23.0436526],[120.1867156,23.0432737],[120.1870429,23.0425533],[120.1873257,23.0419309],[120.1874366,23.0416869]]}},{"type":"Feature","properties":{"from":"\u5b89\u5de5\u5340","name":"\u85cd24(\u8fd4\u7a0b)","public_transport:version":"2","ref":"\u85cd24","route":"bus","to":"\u9752\u8349\u91cc","type":"route"},"geometry":{"type":"LineString","coordinates":[[120.1874366,23.0416869],[120.1874004,23.0414413],[120.1874085,23.0412784],[120.1874697,23.0409576],[120.1875582,23.04058],[120.1877669,23.039592],[120.1879813,23.038751],[120.188263,23.0378439],[120.1885996,23.0368171],[120.1889382,23.0357236],[120.1892802,23.0346894],[120.1895444,23.0338082],[120.1899916,23.0324975],[120.1901918,23.0311965],[120.190207,23.0310522],[120.1902477,23.0306665],[120.1903694,23.02985]]}},{"type":"Feature","properties":{"from":"\u5b89\u5de5\u5340","name":"\u85cd24(\u8fd4\u7a0b)","public_transport:version":"2","ref":"\u85cd24","route":"bus","to":"\u9752\u8349\u91cc","type":"route"},"geometry":{"type":"LineString","coordinates":[[120.1903694,23.02985],[120.1903818,23.0297795]]}},{"type":"Feature","properties":{"from":"\u5b89\u5de5\u5340","name":"\u85cd24(\u8fd4\u7a0b)","public_transport:version":"2","ref":"\u85cd24","route":"bus","to":"\u9752\u8349\u91cc","type":"route"},"geometry":{"type":"LineString","coordinates":[[120.1903818,23.0297795],[120.1905463,23.0288651]]}},{"type":"Feature","properties":{"from":"\u5b89\u5de5\u5340","name":"\u85cd24(\u8fd4\u7a0b)","public_transport:version":"2","ref":"\u85cd24","route":"bus","to":"\u9752\u8349\u91cc","type":"route"},"geometry":{"type":"LineString","coordinates":[[120.1905463,23.0288651],[120.1905634,23.0287919]]}},{"type":"Feature","properties":{"from":"\u5b89\u5de5\u5340","name":"\u85cd24(\u8fd4\u7a0b)","public_transport:version":"2","ref":"\u85cd24","route":"bus","to":"\u9752\u8349\u91cc","type":"route"},"geometry":{"type":"LineString","coordinates":[[120.1905634,23.0287919],[120.1907841,23.0277708],[120.1909437,23.0270326],[120.1911817,23.0259318],[120.191229,23.025713],[120.1913177,23.0253026],[120.1914197,23.0248305],[120.1915715,23.0241335],[120.1916138,23.0239328],[120.1917091,23.0234917],[120.1918468,23.022855],[120.1920246,23.0220324],[120.1924336,23.0201403],[120.1924451,23.0200872]]}},{"type":"Feature","properties":{"from":"\u5b89\u5de5\u5340","name":"\u85cd24(\u8fd4\u7a0b)","public_transport:version":"2","ref":"\u85cd24","route":"bus","to":"\u9752\u8349\u91cc","type":"route"},"geometry":{"type":"LineString","coordinates":[[120.1924451,23.0200872],[120.1931137,23.0182917]]}},{"type":"Feature","properties":{"from":"\u5b89\u5de5\u5340","name":"\u85cd24(\u8fd4\u7a0b)","public_transport:version":"2","ref":"\u85cd24","route":"bus","to":"\u9752\u8349\u91cc","type":"route"},"geometry":{"type":"LineString","coordinates":[[120.1931137,23.0182917],[120.1931804,23.0181665]]}},{"type":"Feature","properties":{"from":"\u5b89\u5de5\u5340","name":"\u85cd24(\u8fd4\u7a0b)","public_transport:version":"2","ref":"\u85cd24","route":"bus","to":"\u9752\u8349\u91cc","type":"route"},"geometry":{"type":"LineString","coordinates":[[120.1931804,23.0181665],[120.193198,23.0180497],[120.1932739,23.0175479],[120.1933735,23.0168886],[120.1934665,23.0162728],[120.1936364,23.0151483],[120.1936622,23.0149776],[120.1937169,23.014638],[120.1937769,23.0142187],[120.1938038,23.0140403],[120.1938114,23.0132239],[120.1938289,23.0129665],[120.193839,23.0128176],[120.1938696,23.0123683],[120.1938886,23.0120879],[120.1938925,23.0111966],[120.1938939,23.0108614],[120.1938957,23.0104633],[120.1938985,23.0097976]]}},{"type":"Feature","properties":{"from":"\u5b89\u5de5\u5340","name":"\u85cd24(\u8fd4\u7a0b)","public_transport:version":"2","ref":"\u85cd24","route":"bus","to":"\u9752\u8349\u91cc","type":"route"},"geometry":{"type":"LineString","coordinates":[[120.1938985,23.0097976],[120.193894,23.0096936]]}},{"type":"Feature","properties":{"from":"\u5b89\u5de5\u5340","name":"\u85cd24(\u8fd4\u7a0b)","public_transport:version":"2","ref":"\u85cd24","route":"bus","to":"\u9752\u8349\u91cc","type":"route"},"geometry":{"type":"LineString","coordinates":[[120.193894,23.0096936],[120.1938504,23.0091451],[120.1938175,23.0087006],[120.1937792,23.0082034],[120.193747,23.0078189],[120.1937367,23.007652],[120.1936923,23.0071151],[120.1936576,23.0066259]]}},{"type":"Feature","properties":{"from":"\u5b89\u5de5\u5340","name":"\u85cd24(\u8fd4\u7a0b)","public_transport:version":"2","ref":"\u85cd24","route":"bus","to":"\u9752\u8349\u91cc","type":"route"},"geometry":{"type":"LineString","coordinates":[[120.1936576,23.0066259],[120.1936235,23.0061676],[120.1936107,23.0060107],[120.1936528,23.0053833],[120.1937143,23.0042627],[120.1937382,23.0038895],[120.1937849,23.0035538],[120.1938213,23.0034464]]}},{"type":"Feature","properties":{"from":"\u5b89\u5de5\u5340","name":"\u85cd24(\u8fd4\u7a0b)","public_transport:version":"2","ref":"\u85cd24","route":"bus","to":"\u9752\u8349\u91cc","type":"route"},"geometry":{"type":"LineString","coordinates":[[120.1938213,23.0034464],[120.1938902,23.0033453],[120.195022,23.0021635]]}},{"type":"Feature","properties":{"from":"\u5b89\u5de5\u5340","name":"\u85cd24(\u8fd4\u7a0b)","public_transport:version":"2","ref":"\u85cd24","route":"bus","to":"\u9752\u8349\u91cc","type":"route"},"geometry":{"type":"LineString","coordinates":[[120.1919752,23.0002987],[120.1923496,23.0006039],[120.1929145,23.0010546],[120.1931873,23.0012725],[120.1934625,23.0014735],[120.1935937,23.0015666],[120.1938232,23.0017056],[120.1940812,23.0018055],[120.1945117,23.0019722],[120.1946622,23.0020284],[120.195022,23.0021635]]}},{"type":"Feature","properties":{"from":"\u5b89\u5de5\u5340","name":"\u85cd24(\u8fd4\u7a0b)","public_transport:version":"2","ref":"\u85cd24","route":"bus","to":"\u9752\u8349\u91cc","type":"route"},"geometry":{"type":"LineString","coordinates":[[120.1920332,23.0002388],[120.1919752,23.0002987]]}},{"type":"Feature","properties":{"from":"\u5b89\u5de5\u5340","name":"\u85cd24(\u8fd4\u7a0b)","public_transport:version":"2","ref":"\u85cd24","route":"bus","to":"\u9752\u8349\u91cc","type":"route"},"geometry":{"type":"LineString","coordinates":[[120.1965004,22.9986647],[120.1964225,22.9986922],[120.1959264,22.9988669],[120.1957682,22.9989227],[120.1952935,22.99909],[120.1951119,22.9991539],[120.1938732,22.9995904],[120.1931204,22.9998557],[120.1929347,22.9999211],[120.1924135,23.0001048],[120.1920332,23.0002388]]}},{"type":"Feature","properties":{"from":"\u5b89\u5de5\u5340","name":"\u85cd24(\u8fd4\u7a0b)","public_transport:version":"2","ref":"\u85cd24","route":"bus","to":"\u9752\u8349\u91cc","type":"route"},"geometry":{"type":"LineString","coordinates":[[120.1976839,22.9982509],[120.1976169,22.9982743],[120.1965004,22.9986647]]}},{"type":"Feature","properties":{"from":"\u5b89\u5de5\u5340","name":"\u85cd24(\u8fd4\u7a0b)","public_transport:version":"2","ref":"\u85cd24","route":"bus","to":"\u9752\u8349\u91cc","type":"route"},"geometry":{"type":"LineString","coordinates":[[120.1978582,22.9981902],[120.1976839,22.9982509]]}},{"type":"Feature","properties":{"from":"\u5b89\u5de5\u5340","name":"\u85cd24(\u8fd4\u7a0b)","public_transport:version":"2","ref":"\u85cd24","route":"bus","to":"\u9752\u8349\u91cc","type":"route"},"geometry":{"type":"LineString","coordinates":[[120.1995617,22.9976111],[120.199036,22.9977834],[120.1985014,22.9979681],[120.1979361,22.9981633],[120.1978582,22.9981902]]}},{"type":"Feature","properties":{"from":"\u5b89\u5de5\u5340","name":"\u85cd24(\u8fd4\u7a0b)","public_transport:version":"2","ref":"\u85cd24","route":"bus","to":"\u9752\u8349\u91cc","type":"route"},"geometry":{"type":"LineString","coordinates":[[120.2000764,22.9975542],[120.1996603,22.9976002],[120.1995617,22.9976111]]}},{"type":"Feature","properties":{"from":"\u5b89\u5de5\u5340","name":"\u85cd24(\u8fd4\u7a0b)","public_transport:version":"2","ref":"\u85cd24","route":"bus","to":"\u9752\u8349\u91cc","type":"route"},"geometry":{"type":"LineString","coordinates":[[120.2000764,22.9975542],[120.1999354,22.9971807],[120.1999284,22.9971624],[120.1999264,22.9970692]]}},{"type":"Feature","properties":{"from":"\u5b89\u5de5\u5340","name":"\u85cd24(\u8fd4\u7a0b)","public_transport:version":"2","ref":"\u85cd24","route":"bus","to":"\u9752\u8349\u91cc","type":"route"},"geometry":{"type":"LineString","coordinates":[[120.1999264,22.9970692],[120.1998247,22.9968096],[120.1995893,22.9962125],[120.1995331,22.9960699]]}},{"type":"Feature","properties":{"from":"\u5b89\u5de5\u5340","name":"\u85cd24(\u8fd4\u7a0b)","public_transport:version":"2","ref":"\u85cd24","route":"bus","to":"\u9752\u8349\u91cc","type":"route"},"geometry":{"type":"LineString","coordinates":[[120.1995331,22.9960699],[120.1995145,22.9959905],[120.1993174,22.9951461],[120.19918,22.9945578]]}},{"type":"Feature","properties":{"from":"\u5b89\u5de5\u5340","name":"\u85cd24(\u8fd4\u7a0b)","public_transport:version":"2","ref":"\u85cd24","route":"bus","to":"\u9752\u8349\u91cc","type":"route"},"geometry":{"type":"LineString","coordinates":[[120.19918,22.9945578],[120.1991577,22.9944625]]}},{"type":"Feature","properties":{"from":"\u5b89\u5de5\u5340","name":"\u85cd24(\u8fd4\u7a0b)","public_transport:version":"2","ref":"\u85cd24","route":"bus","to":"\u9752\u8349\u91cc","type":"route"},"geometry":{"type":"LineString","coordinates":[[120.1991577,22.9944625],[120.1990015,22.9940031],[120.1985913,22.9927967]]}},{"type":"Feature","properties":{"from":"\u5b89\u5de5\u5340","name":"\u85cd24(\u8fd4\u7a0b)","public_transport:version":"2","ref":"\u85cd24","route":"bus","to":"\u9752\u8349\u91cc","type":"route"},"geometry":{"type":"LineString","coordinates":[[120.1985913,22.9927967],[120.1985747,22.9927127]]}},{"type":"Feature","properties":{"from":"\u5b89\u5de5\u5340","name":"\u85cd24(\u8fd4\u7a0b)","public_transport:version":"2","ref":"\u85cd24","route":"bus","to":"\u9752\u8349\u91cc","type":"route"},"geometry":{"type":"LineString","coordinates":[[120.1985747,22.9927127],[120.198213,22.9917621]]}},{"type":"Feature","properties":{"from":"\u5b89\u5de5\u5340","name":"\u85cd24(\u8fd4\u7a0b)","public_transport:version":"2","ref":"\u85cd24","route":"bus","to":"\u9752\u8349\u91cc","type":"route"},"geometry":{"type":"LineString","coordinates":[[120.198213,22.9917621],[120.1980827,22.9913906],[120.1980197,22.9912111],[120.1978928,22.9908535],[120.1977618,22.9904844]]}},{"type":"Feature","properties":{"from":"\u5b89\u5de5\u5340","name":"\u85cd24(\u8fd4\u7a0b)","public_transport:version":"2","ref":"\u85cd24","route":"bus","to":"\u9752\u8349\u91cc","type":"route"},"geometry":{"type":"LineString","coordinates":[[120.1977618,22.9904844],[120.1976551,22.9902075],[120.1975853,22.9899531],[120.197531,22.9897469],[120.1975025,22.9894858],[120.1974716,22.9890179],[120.1974856,22.9884783],[120.1975112,22.9873957]]}},{"type":"Feature","properties":{"from":"\u5b89\u5de5\u5340","name":"\u85cd24(\u8fd4\u7a0b)","public_transport:version":"2","ref":"\u85cd24","route":"bus","to":"\u9752\u8349\u91cc","type":"route"},"geometry":{"type":"LineString","coordinates":[[120.1975112,22.9873957],[120.1975119,22.9873393],[120.1975161,22.9869821],[120.1975238,22.9863432],[120.1975281,22.9859648],[120.1975383,22.9851012],[120.1975427,22.9847293],[120.1975451,22.9845242],[120.1975479,22.9842921],[120.1975532,22.9838689],[120.1975565,22.9835616],[120.1975673,22.9826494],[120.1975759,22.9819183],[120.1975764,22.9815773],[120.1975813,22.9814627]]}},{"type":"Feature","properties":{"from":"\u5b89\u5de5\u5340","name":"\u85cd24(\u8fd4\u7a0b)","public_transport:version":"2","ref":"\u85cd24","route":"bus","to":"\u9752\u8349\u91cc","type":"route"},"geometry":{"type":"LineString","coordinates":[[120.1975813,22.9814627],[120.1975853,22.981396]]}},{"type":"Feature","properties":{"from":"\u5b89\u5de5\u5340","name":"\u85cd24(\u8fd4\u7a0b)","public_transport:version":"2","ref":"\u85cd24","route":"bus","to":"\u9752\u8349\u91cc","type":"route"},"geometry":{"type":"LineString","coordinates":[[120.1975853,22.981396],[120.1975858,22.9813477],[120.1975897,22.9809663],[120.1976015,22.9798312]]}},{"type":"Feature","properties":{"from":"\u5b89\u5de5\u5340","name":"\u85cd24(\u8fd4\u7a0b)","public_transport:version":"2","ref":"\u85cd24","route":"bus","to":"\u9752\u8349\u91cc","type":"route"},"geometry":{"type":"LineString","coordinates":[[120.1976015,22.9798312],[120.1974331,22.9797919],[120.1973415,22.9797396],[120.1972219,22.9796824],[120.1971661,22.979589]]}},{"type":"Feature","properties":{"from":"\u5b89\u5de5\u5340","name":"\u85cd24(\u8fd4\u7a0b)","public_transport:version":"2","ref":"\u85cd24","route":"bus","to":"\u9752\u8349\u91cc","type":"route"},"geometry":{"type":"LineString","coordinates":[[120.1952191,22.9782317],[120.1957463,22.9785992],[120.1959327,22.9787292],[120.1969618,22.9794466],[120.1971661,22.979589]]}},{"type":"Feature","properties":{"from":"\u5b89\u5de5\u5340","name":"\u85cd24(\u8fd4\u7a0b)","public_transport:version":"2","ref":"\u85cd24","route":"bus","to":"\u9752\u8349\u91cc","type":"route"},"geometry":{"type":"LineString","coordinates":[[120.1909645,22.9752993],[120.19114,22.9754062],[120.1917174,22.9758004],[120.1920208,22.9760111],[120.1927194,22.9764961],[120.1930851,22.97675],[120.1934541,22.9770063],[120.1937066,22.9771815],[120.1941471,22.9774874],[120.1947387,22.9778981],[120.1952191,22.9782317]]}},{"type":"Feature","properties":{"from":"\u5b89\u5de5\u5340","name":"\u85cd24(\u8fd4\u7a0b)","public_transport:version":"2","ref":"\u85cd24","route":"bus","to":"\u9752\u8349\u91cc","type":"route"},"geometry":{"type":"LineString","coordinates":[[120.1852552,22.9739563],[120.1861583,22.9744564],[120.1864,22.9745977],[120.186771,22.9747972],[120.186925,22.9748222],[120.1875345,22.9748866],[120.1876888,22.9748989],[120.1886353,22.9750031],[120.1891184,22.9750603],[120.1897917,22.9751559],[120.1908408,22.9752807],[120.1909645,22.9752993]]}},{"type":"Feature","properties":{"from":"\u5b89\u5de5\u5340","name":"\u85cd24(\u8fd4\u7a0b)","public_transport:version":"2","ref":"\u85cd24","route":"bus","to":"\u9752\u8349\u91cc","type":"route"},"geometry":{"type":"LineString","coordinates":[[120.1838478,22.9732551],[120.1852552,22.9739563]]}},{"type":"Feature","properties":{"from":"\u5b89\u5de5\u5340","name":"\u85cd24(\u8fd4\u7a0b)","public_transport:version":"2","ref":"\u85cd24","route":"bus","to":"\u9752\u8349\u91cc","type":"route"},"geometry":{"type":"LineString","coordinates":[[120.1837329,22.9732291],[120.1838478,22.9732551]]}},{"type":"Feature","properties":{"from":"\u5b89\u5de5\u5340","name":"\u85cd24(\u8fd4\u7a0b)","public_transport:version":"2","ref":"\u85cd24","route":"bus","to":"\u9752\u8349\u91cc","type":"route"},"geometry":{"type":"LineString","coordinates":[[120.1771161,22.9731619],[120.1835069,22.9731957],[120.1837329,22.9732291]]}},{"type":"Feature","properties":{"from":"\u5b89\u5de5\u5340","name":"\u85cd24(\u8fd4\u7a0b)","public_transport:version":"2","ref":"\u85cd24","route":"bus","to":"\u9752\u8349\u91cc","type":"route"},"geometry":{"type":"LineString","coordinates":[[120.1771161,22.9731619],[120.1764792,22.9702339],[120.1745902,22.9693012],[120.174516,22.9692476],[120.1744437,22.9691848],[120.1744075,22.9691201],[120.1743694,22.9690388],[120.1743541,22.9689217]]}},{"type":"Feature","properties":{"from":"\u5b89\u5de5\u5340","name":"\u85cd24(\u8fd4\u7a0b)","public_transport:version":"2","ref":"\u85cd24","route":"bus","to":"\u9752\u8349\u91cc","type":"route"},"geometry":{"type":"LineString","coordinates":[[120.1743541,22.9689217],[120.1741941,22.9688483],[120.1738341,22.9686832],[120.1731019,22.9683168],[120.1735143,22.9677699],[120.1741427,22.9680838],[120.1738341,22.9686832]]}}]}